{
  "type": "Feature",
  "properties": {
    "id": "aveiro-004-rota-da-carcoda_e096",
    "name": "Aveiro 004 Rota Da Carcoda",
    "distanceMeters": 17265.00651564876,
    "elevationGainM": 46,
    "elevationsM": [
      304.6,
      null,
      null,
      null,
      null,
      null,
      null,
      null,
      null,
      null,
      null,
      null,
      null,
      null,
      null,
      null,
      null,
      null,
      null,
      null,
      null,
      null,
      null,
      null,
      null,
      null,
      null,
      null,
      null,
      null,
      null,
      null,
      null,
      null,
      null,
      null,
      null,
      null,
      null,
      null,
      null,
      null,
      null,
      null,
      null,
      null,
      null,
      null,
      null,
      null,
      309.7,
      309.7,
      310.3,
      null,
      307.5,
      308.1,
      null,
      null,
      null,
      null,
      null,
      null,
      310.2,
      309.7,
      309,
      308.9,
      307.7,
      null,
      null,
      null,
      null,
      null,
      310,
      311.5,
      312.7,
      311.7,
      310.9,
      311.8,
      312.1,
      null,
      null,
      null,
      null,
      null,
      null,
      314.8,
      314.4,
      null,
      null,
      null,
      null,
      null,
      null,
      null,
      null,
      null,
      null,
      null,
      null,
      null,
      null,
      null,
      null,
      null,
      null,
      null,
      null,
      null,
      null,
      null,
      null,
      null,
      null,
      null,
      null,
      null,
      null,
      null,
      null,
      null,
      null,
      null,
      null,
      null,
      null,
      null,
      null,
      null,
      null,
      null,
      null,
      null,
      null,
      null,
      null,
      null,
      null,
      null,
      null,
      null,
      null,
      null,
      null,
      null,
      null,
      null,
      null,
      null,
      null,
      null,
      null,
      null,
      null,
      null,
      null,
      null,
      null,
      null,
      null,
      null,
      null,
      null,
      null,
      null,
      null,
      null,
      null,
      null,
      null,
      null,
      null,
      null,
      null,
      null,
      null,
      null,
      null,
      null,
      null,
      null,
      null,
      null,
      null,
      null,
      null,
      null,
      null,
      null,
      null,
      null,
      null,
      null,
      null,
      null,
      null,
      null,
      null,
      null,
      null,
      null,
      null,
      null,
      null,
      null,
      null,
      null,
      null,
      null,
      null,
      null,
      null,
      null,
      null,
      null,
      null,
      null,
      null,
      null,
      null,
      null,
      null,
      null,
      null,
      null,
      null,
      null,
      null,
      null,
      null,
      null,
      null,
      null,
      null,
      null,
      null,
      null,
      null,
      null,
      null,
      null,
      null,
      null,
      null,
      null,
      null,
      null,
      null,
      null,
      null,
      null,
      null,
      null,
      null,
      null,
      null,
      null,
      null,
      null,
      null,
      null,
      null,
      null,
      null,
      null,
      null,
      null,
      null,
      null,
      null,
      null,
      null,
      null,
      null,
      null,
      null,
      null,
      null,
      null,
      null,
      null,
      null,
      null,
      null,
      null,
      null,
      null,
      null,
      null,
      null,
      null,
      null,
      null,
      null,
      null,
      null,
      null,
      null,
      null,
      null,
      null,
      null,
      null,
      null,
      null,
      null,
      null,
      null,
      null,
      null,
      null,
      null,
      null,
      null,
      null,
      null,
      null,
      null,
      null,
      null,
      null,
      null,
      null,
      null,
      null,
      null,
      null,
      null,
      null,
      null,
      null,
      null,
      null,
      null,
      null,
      null,
      null,
      null,
      null,
      null,
      null,
      null,
      null,
      null,
      null,
      null,
      null,
      null,
      null,
      null,
      null,
      null,
      null,
      null,
      null,
      null,
      null,
      null,
      null,
      null,
      null,
      null,
      null,
      null,
      null,
      null,
      null,
      null,
      null,
      null,
      null,
      null,
      null,
      null,
      null,
      null,
      null,
      null,
      null,
      null,
      null,
      null,
      null,
      null,
      null,
      null,
      null,
      null,
      null,
      null,
      null,
      null,
      null,
      null,
      null,
      null,
      null,
      null,
      null,
      null,
      null,
      null,
      null,
      null,
      null,
      null,
      null,
      null,
      null,
      null,
      null,
      null,
      null,
      null,
      null,
      null,
      null,
      null,
      null,
      null,
      null,
      null,
      null,
      null,
      null,
      null,
      null,
      null,
      null,
      null,
      null,
      null,
      null,
      null,
      null,
      null,
      null,
      null,
      null,
      null,
      null,
      null,
      null,
      null,
      null,
      null,
      null,
      null,
      null,
      null,
      null,
      null,
      null,
      null,
      null,
      null,
      null,
      null,
      null,
      null,
      null,
      null,
      null,
      null,
      null,
      null,
      null,
      null,
      null,
      null,
      null,
      null,
      null,
      null,
      null,
      null,
      null,
      null,
      null,
      null,
      null,
      null,
      null,
      null,
      null,
      null,
      null,
      null,
      null,
      null,
      null,
      null,
      null,
      null,
      null,
      null,
      null,
      null,
      null,
      null,
      null,
      null,
      null,
      null,
      null,
      null,
      null,
      null,
      null,
      null,
      null,
      null,
      null,
      null,
      null,
      null,
      null,
      null,
      null,
      null,
      null,
      null,
      null,
      null,
      null,
      null,
      null,
      null,
      null,
      null,
      null,
      null,
      null,
      null,
      null,
      null,
      null,
      null,
      null,
      null,
      null,
      null,
      null,
      null,
      null,
      null,
      null,
      null,
      null,
      null,
      null,
      null,
      null,
      null,
      null,
      null,
      null,
      null,
      null,
      null,
      null,
      null,
      null,
      null,
      null,
      null,
      null,
      null,
      null,
      null,
      null,
      null,
      null,
      null,
      null,
      null,
      null,
      null,
      null,
      null,
      null,
      null,
      null,
      null,
      null,
      null,
      null,
      null,
      null,
      null,
      null,
      null,
      null,
      null,
      null,
      null,
      null,
      null,
      null,
      null,
      null,
      null,
      null,
      null,
      null,
      null,
      null,
      null,
      null,
      null,
      null,
      null,
      null,
      null,
      null,
      315.4,
      315.3,
      null,
      null,
      null,
      null,
      null,
      null,
      null,
      null,
      null,
      null,
      null,
      null,
      null,
      null,
      null,
      null,
      null,
      null,
      null,
      null,
      null,
      null,
      null,
      null,
      null,
      null,
      null,
      null,
      null,
      null,
      null,
      null,
      null,
      null,
      null,
      null,
      null,
      null,
      null,
      null,
      null,
      null,
      null,
      null,
      null,
      null,
      null,
      null,
      null,
      null,
      null,
      null,
      null,
      null,
      null,
      null,
      null,
      null,
      null,
      null,
      null,
      null,
      null,
      null,
      null,
      null,
      null,
      null,
      null,
      null,
      null,
      null,
      null,
      null,
      null,
      null,
      null,
      null,
      null,
      null,
      null,
      null,
      null,
      null,
      null,
      null,
      null,
      null,
      null,
      null,
      null,
      null,
      null,
      null,
      null,
      null,
      null,
      null,
      null,
      null,
      null,
      null,
      null,
      null,
      null,
      null,
      null,
      null,
      null,
      null,
      null,
      null,
      null,
      null,
      null,
      null,
      null,
      null,
      null,
      null,
      null,
      null,
      null,
      null,
      null,
      null,
      null,
      null,
      null,
      null,
      null,
      null,
      null,
      null,
      null,
      null,
      null,
      null,
      null,
      null,
      null,
      null,
      null,
      null,
      null,
      null,
      null,
      null,
      null,
      null,
      null,
      null,
      null,
      null,
      null,
      null,
      null,
      null,
      null,
      null,
      null,
      null,
      null,
      null,
      null,
      null,
      null,
      null,
      null,
      null,
      null,
      null,
      null,
      null,
      null,
      null,
      null,
      null,
      null,
      null,
      null,
      null,
      null,
      null,
      null,
      null,
      null,
      null,
      null,
      null,
      null,
      null,
      null,
      null,
      null,
      null,
      null,
      null,
      null,
      null,
      null,
      null,
      null,
      null,
      null,
      null,
      null,
      null,
      null,
      null,
      null,
      null,
      null,
      null,
      null,
      null,
      null,
      null,
      null,
      null,
      null,
      null,
      null,
      null,
      null,
      null,
      null,
      null,
      null,
      null,
      null,
      null,
      null,
      null,
      null,
      null,
      null,
      null,
      null,
      null,
      null,
      null,
      null,
      null,
      null,
      null,
      null,
      null,
      null,
      null,
      null,
      null,
      null,
      null,
      null,
      null,
      null,
      null,
      null,
      null,
      null,
      null,
      null,
      null,
      null,
      null,
      null,
      null,
      null,
      null,
      null,
      null,
      null,
      null,
      null,
      null,
      null,
      null,
      null,
      null,
      null,
      null,
      null,
      null,
      null,
      null,
      null,
      null,
      null,
      null,
      null,
      null,
      null,
      null,
      null,
      null,
      null,
      null,
      null,
      null,
      null,
      null,
      null,
      null,
      null,
      null,
      null,
      null,
      null,
      null,
      null,
      null,
      null,
      null,
      null,
      null,
      null,
      null,
      null,
      null,
      null,
      null,
      null,
      null,
      null,
      null,
      null,
      null,
      null,
      null,
      null,
      null,
      null,
      null,
      null,
      null,
      null,
      null,
      null,
      null,
      null,
      null,
      null,
      null,
      null,
      null,
      null,
      null,
      null,
      null,
      null,
      null,
      null,
      null,
      null,
      null,
      null,
      null,
      null,
      null,
      null,
      null,
      null,
      null,
      null,
      null,
      null,
      null,
      null,
      null,
      null,
      null,
      null,
      null,
      null,
      null,
      null,
      null,
      null,
      null,
      null,
      null,
      null,
      null,
      null,
      null,
      null,
      null,
      null,
      null,
      null,
      null,
      null,
      null,
      null,
      null,
      null,
      null,
      null,
      null,
      null,
      null,
      null,
      null,
      null,
      null,
      null,
      null,
      null,
      null,
      null,
      null,
      null,
      null,
      null,
      null,
      null,
      null,
      null,
      null,
      null,
      null,
      null,
      null,
      null,
      null,
      null,
      null,
      null,
      null,
      null,
      null,
      null,
      null,
      null,
      null,
      null,
      null,
      null,
      null,
      null,
      null,
      null,
      null,
      null,
      null,
      null,
      null,
      null,
      null,
      null,
      null,
      null,
      null,
      null,
      null,
      null,
      null,
      null,
      null,
      null,
      null,
      null,
      null,
      null,
      null,
      null,
      null,
      null,
      null,
      null,
      null,
      null,
      null,
      null,
      null,
      null,
      null,
      null,
      null,
      null,
      null,
      null,
      null,
      null,
      null,
      null,
      null,
      null,
      null,
      null,
      null,
      null,
      null,
      null,
      null,
      null,
      null,
      null,
      null,
      null,
      null,
      null,
      null,
      null,
      null,
      null,
      null,
      null,
      null,
      null,
      null,
      null,
      null,
      null,
      null,
      null,
      null,
      null,
      null,
      null,
      null,
      null,
      null,
      null,
      null,
      null,
      null,
      null,
      null,
      null,
      null,
      null,
      null,
      null,
      null,
      null,
      null,
      null,
      null,
      null,
      null,
      null,
      null,
      null,
      null,
      null,
      null,
      null,
      null,
      null,
      null,
      null,
      null,
      null,
      null,
      null,
      null,
      null,
      null,
      null,
      null,
      null,
      null,
      null,
      null,
      null,
      null,
      null,
      null,
      null,
      null,
      null,
      null,
      null,
      null,
      null,
      null,
      null,
      null,
      null,
      null,
      null,
      null,
      null,
      null,
      null,
      null,
      null,
      null,
      null,
      null,
      null,
      null,
      null,
      null,
      null,
      null,
      null,
      null,
      null,
      null,
      null,
      null,
      null,
      null,
      null,
      null,
      null,
      null,
      null,
      null,
      null,
      null,
      null,
      null,
      null,
      null,
      null,
      null,
      null,
      null,
      null,
      null,
      null,
      null,
      null,
      null,
      null,
      null,
      null,
      null,
      null,
      null,
      null,
      null,
      null,
      null,
      null,
      null,
      null,
      null,
      null,
      null,
      null,
      null,
      null,
      null,
      null,
      null,
      null,
      null,
      null,
      null,
      null,
      null,
      null,
      null,
      null,
      null,
      null,
      null,
      null,
      null,
      null,
      null,
      null,
      null,
      null,
      null,
      null,
      null,
      null,
      null,
      null,
      null,
      null,
      null,
      null,
      null,
      null,
      null,
      null,
      null,
      null,
      null,
      null,
      null,
      null,
      null,
      null,
      null,
      null,
      null,
      null,
      null,
      null,
      null,
      null,
      null,
      null,
      null,
      null,
      null,
      null,
      null,
      null,
      null,
      null,
      null,
      null,
      null,
      null,
      null,
      null,
      null,
      null,
      null,
      null,
      null,
      null,
      null,
      null,
      null,
      null,
      null,
      null,
      null,
      null,
      null,
      null,
      null,
      null,
      null,
      null,
      null,
      null,
      null,
      null,
      null,
      null,
      null,
      null,
      null,
      null,
      null,
      null,
      null,
      null,
      null,
      null,
      null,
      null,
      null,
      null,
      null,
      null,
      null,
      null,
      null,
      null,
      null,
      339.9,
      338.7,
      338.2,
      338.1,
      341.7
    ]
  },
  "geometry": {
    "type": "LineString",
    "coordinates": [
      [
        -8.1145728,
        40.7890968
      ],
      [
        -8.115569,
        40.789019
      ],
      [
        -8.115686,
        40.789033
      ],
      [
        -8.115686,
        40.789033
      ],
      [
        -8.11601,
        40.789173
      ],
      [
        -8.11601,
        40.789173
      ],
      [
        -8.11601,
        40.789173
      ],
      [
        -8.116177,
        40.789215
      ],
      [
        -8.116177,
        40.789215
      ],
      [
        -8.116177,
        40.789215
      ],
      [
        -8.116279,
        40.789219
      ],
      [
        -8.116279,
        40.789219
      ],
      [
        -8.116279,
        40.789219
      ],
      [
        -8.116378,
        40.789207
      ],
      [
        -8.116378,
        40.789207
      ],
      [
        -8.116378,
        40.789207
      ],
      [
        -8.116492,
        40.78919
      ],
      [
        -8.11658,
        40.789176
      ],
      [
        -8.11658,
        40.789176
      ],
      [
        -8.11671,
        40.789192
      ],
      [
        -8.11671,
        40.789192
      ],
      [
        -8.11671,
        40.789192
      ],
      [
        -8.116837,
        40.789238
      ],
      [
        -8.116837,
        40.789238
      ],
      [
        -8.116837,
        40.789238
      ],
      [
        -8.116874,
        40.789275
      ],
      [
        -8.117,
        40.789404
      ],
      [
        -8.117,
        40.789404
      ],
      [
        -8.117099,
        40.789501
      ],
      [
        -8.117148,
        40.789548
      ],
      [
        -8.117148,
        40.789548
      ],
      [
        -8.11752,
        40.78992
      ],
      [
        -8.117971,
        40.790202
      ],
      [
        -8.118,
        40.79022
      ],
      [
        -8.11825,
        40.7903
      ],
      [
        -8.11825,
        40.7903
      ],
      [
        -8.119248,
        40.790318
      ],
      [
        -8.11929,
        40.790329
      ],
      [
        -8.11937,
        40.79035
      ],
      [
        -8.119964,
        40.79059
      ],
      [
        -8.120061,
        40.7906
      ],
      [
        -8.120299,
        40.790623
      ],
      [
        -8.120572,
        40.79071
      ],
      [
        -8.1205997,
        40.7907574
      ],
      [
        -8.1206989,
        40.7910908
      ],
      [
        -8.120858,
        40.791197
      ],
      [
        -8.1213427,
        40.7913468
      ],
      [
        -8.1214714,
        40.7915459
      ],
      [
        -8.1214392,
        40.7919198
      ],
      [
        -8.1212407,
        40.7924197
      ],
      [
        -8.1212783,
        40.7929398
      ],
      [
        -8.121406,
        40.793199
      ],
      [
        -8.1216055,
        40.7936455
      ],
      [
        -8.1218576,
        40.7938406
      ],
      [
        -8.1223994,
        40.7940612
      ],
      [
        -8.1225389,
        40.7940348
      ],
      [
        -8.1225523,
        40.7939373
      ],
      [
        -8.1224316,
        40.7938072
      ],
      [
        -8.1222653,
        40.7936223
      ],
      [
        -8.1220642,
        40.7934984
      ],
      [
        -8.1218791,
        40.7932997
      ],
      [
        -8.1217906,
        40.7930112
      ],
      [
        -8.121791,
        40.792708
      ],
      [
        -8.121796,
        40.7926578
      ],
      [
        -8.1218764,
        40.7922374
      ],
      [
        -8.12196,
        40.792018
      ],
      [
        -8.1220025,
        40.7916607
      ],
      [
        -8.1219918,
        40.7914114
      ],
      [
        -8.12203,
        40.79129
      ],
      [
        -8.122113,
        40.791288
      ],
      [
        -8.122221,
        40.791262
      ],
      [
        -8.122253,
        40.791246
      ],
      [
        -8.1223404,
        40.7912002
      ],
      [
        -8.1225041,
        40.7910984
      ],
      [
        -8.1226033,
        40.7908709
      ],
      [
        -8.122649,
        40.790852
      ],
      [
        -8.1228662,
        40.7907571
      ],
      [
        -8.1230995,
        40.7906514
      ],
      [
        -8.1233677,
        40.7901536
      ],
      [
        -8.123479,
        40.790097
      ],
      [
        -8.123533,
        40.790084
      ],
      [
        -8.12366,
        40.79009
      ],
      [
        -8.123668,
        40.790092
      ],
      [
        -8.123825,
        40.790123
      ],
      [
        -8.123949,
        40.790172
      ],
      [
        -8.124053,
        40.790131
      ],
      [
        -8.124157,
        40.79019
      ],
      [
        -8.124158,
        40.790254
      ],
      [
        -8.12416,
        40.790255
      ],
      [
        -8.124174,
        40.790327
      ],
      [
        -8.124218,
        40.790501
      ],
      [
        -8.124232,
        40.79054
      ],
      [
        -8.124264,
        40.790631
      ],
      [
        -8.124288,
        40.790681
      ],
      [
        -8.124344,
        40.790797
      ],
      [
        -8.124348,
        40.790854
      ],
      [
        -8.124352,
        40.790917
      ],
      [
        -8.124379,
        40.79099
      ],
      [
        -8.124395,
        40.791088
      ],
      [
        -8.124412,
        40.791113
      ],
      [
        -8.124446,
        40.791163
      ],
      [
        -8.124454,
        40.791171
      ],
      [
        -8.124513,
        40.79123
      ],
      [
        -8.12454,
        40.791313
      ],
      [
        -8.124612,
        40.791394
      ],
      [
        -8.124685,
        40.791459
      ],
      [
        -8.12475,
        40.791524
      ],
      [
        -8.124851,
        40.791553
      ],
      [
        -8.124852,
        40.791553
      ],
      [
        -8.125005,
        40.791593
      ],
      [
        -8.125217,
        40.791592
      ],
      [
        -8.125311,
        40.791591
      ],
      [
        -8.125482,
        40.791555
      ],
      [
        -8.125618,
        40.791518
      ],
      [
        -8.125739,
        40.791463
      ],
      [
        -8.125793,
        40.79143
      ],
      [
        -8.125838,
        40.791402
      ],
      [
        -8.125929,
        40.791376
      ],
      [
        -8.126007,
        40.791392
      ],
      [
        -8.126099,
        40.791402
      ],
      [
        -8.126208,
        40.791413
      ],
      [
        -8.126267,
        40.791405
      ],
      [
        -8.126356,
        40.791392
      ],
      [
        -8.126495,
        40.791348
      ],
      [
        -8.126608,
        40.791285
      ],
      [
        -8.126683,
        40.791276
      ],
      [
        -8.126755,
        40.791293
      ],
      [
        -8.126755,
        40.791293
      ],
      [
        -8.126809,
        40.791356
      ],
      [
        -8.126873,
        40.791431
      ],
      [
        -8.126952,
        40.791461
      ],
      [
        -8.126998,
        40.79147
      ],
      [
        -8.127018,
        40.791473
      ],
      [
        -8.127092,
        40.791463
      ],
      [
        -8.127124,
        40.791459
      ],
      [
        -8.127212,
        40.791441
      ],
      [
        -8.127275,
        40.791453
      ],
      [
        -8.127308,
        40.791459
      ],
      [
        -8.127334,
        40.791474
      ],
      [
        -8.127308,
        40.791459
      ],
      [
        -8.127308,
        40.791459
      ],
      [
        -8.127395,
        40.79151
      ],
      [
        -8.127474,
        40.791544
      ],
      [
        -8.127603,
        40.791565
      ],
      [
        -8.127635,
        40.791568
      ],
      [
        -8.127748,
        40.791577
      ],
      [
        -8.127978,
        40.791605
      ],
      [
        -8.128075,
        40.791662
      ],
      [
        -8.128115,
        40.791693
      ],
      [
        -8.128134,
        40.791707
      ],
      [
        -8.128236,
        40.791772
      ],
      [
        -8.128295,
        40.791825
      ],
      [
        -8.12835,
        40.791847
      ],
      [
        -8.128413,
        40.791873
      ],
      [
        -8.128536,
        40.791882
      ],
      [
        -8.128585,
        40.791882
      ],
      [
        -8.128708,
        40.791882
      ],
      [
        -8.128851,
        40.791872
      ],
      [
        -8.128896,
        40.791865
      ],
      [
        -8.128944,
        40.791857
      ],
      [
        -8.129073,
        40.791796
      ],
      [
        -8.129168,
        40.791758
      ],
      [
        -8.129212,
        40.791741
      ],
      [
        -8.129384,
        40.791674
      ],
      [
        -8.129506,
        40.79162
      ],
      [
        -8.129591,
        40.791591
      ],
      [
        -8.12969,
        40.791516
      ],
      [
        -8.129765,
        40.791453
      ],
      [
        -8.130125,
        40.791485
      ],
      [
        -8.130127,
        40.791467
      ],
      [
        -8.130162,
        40.791386
      ],
      [
        -8.13028,
        40.791228
      ],
      [
        -8.130302,
        40.791212
      ],
      [
        -8.130302,
        40.791212
      ],
      [
        -8.130302,
        40.791212
      ],
      [
        -8.13013,
        40.791207
      ],
      [
        -8.130038,
        40.791244
      ],
      [
        -8.129932,
        40.791311
      ],
      [
        -8.129919,
        40.791319
      ],
      [
        -8.129792,
        40.791431
      ],
      [
        -8.12969,
        40.791516
      ],
      [
        -8.129591,
        40.791591
      ],
      [
        -8.129506,
        40.79162
      ],
      [
        -8.129384,
        40.791674
      ],
      [
        -8.129168,
        40.791758
      ],
      [
        -8.129073,
        40.791796
      ],
      [
        -8.128944,
        40.791857
      ],
      [
        -8.128851,
        40.791872
      ],
      [
        -8.128794,
        40.791963
      ],
      [
        -8.128727,
        40.792008
      ],
      [
        -8.128628,
        40.792061
      ],
      [
        -8.128611,
        40.79207
      ],
      [
        -8.128572,
        40.792073
      ],
      [
        -8.128493,
        40.792133
      ],
      [
        -8.128359,
        40.792174
      ],
      [
        -8.128323,
        40.79218
      ],
      [
        -8.128193,
        40.792202
      ],
      [
        -8.128092,
        40.792239
      ],
      [
        -8.128048,
        40.792255
      ],
      [
        -8.127788,
        40.792397
      ],
      [
        -8.127635,
        40.792665
      ],
      [
        -8.127463,
        40.792807
      ],
      [
        -8.127433,
        40.792836
      ],
      [
        -8.127345,
        40.792921
      ],
      [
        -8.127258,
        40.793005
      ],
      [
        -8.127228,
        40.793082
      ],
      [
        -8.12722,
        40.793102
      ],
      [
        -8.127204,
        40.79322
      ],
      [
        -8.127253,
        40.793334
      ],
      [
        -8.127277,
        40.793379
      ],
      [
        -8.127328,
        40.793472
      ],
      [
        -8.127397,
        40.793602
      ],
      [
        -8.127389,
        40.793655
      ],
      [
        -8.127378,
        40.793725
      ],
      [
        -8.127333,
        40.793886
      ],
      [
        -8.127308,
        40.794062
      ],
      [
        -8.127301,
        40.79413
      ],
      [
        -8.127296,
        40.794182
      ],
      [
        -8.127296,
        40.794182
      ],
      [
        -8.127354,
        40.794377
      ],
      [
        -8.12749,
        40.794615
      ],
      [
        -8.127522,
        40.794685
      ],
      [
        -8.127603,
        40.794862
      ],
      [
        -8.127662,
        40.795017
      ],
      [
        -8.127675,
        40.795053
      ],
      [
        -8.127714,
        40.795165
      ],
      [
        -8.127698,
        40.795283
      ],
      [
        -8.127651,
        40.795407
      ],
      [
        -8.127651,
        40.795407
      ],
      [
        -8.127532,
        40.795571
      ],
      [
        -8.12751,
        40.795722
      ],
      [
        -8.127548,
        40.795949
      ],
      [
        -8.127556,
        40.796024
      ],
      [
        -8.127574,
        40.79618
      ],
      [
        -8.127576,
        40.796329
      ],
      [
        -8.127574,
        40.796485
      ],
      [
        -8.127574,
        40.796497
      ],
      [
        -8.127532,
        40.796631
      ],
      [
        -8.127426,
        40.796787
      ],
      [
        -8.127422,
        40.796795
      ],
      [
        -8.127324,
        40.796986
      ],
      [
        -8.127288,
        40.797151
      ],
      [
        -8.127286,
        40.797161
      ],
      [
        -8.127263,
        40.797309
      ],
      [
        -8.127306,
        40.797537
      ],
      [
        -8.12734,
        40.797697
      ],
      [
        -8.12734,
        40.797697
      ],
      [
        -8.127372,
        40.797819
      ],
      [
        -8.12745,
        40.797917
      ],
      [
        -8.127457,
        40.797861
      ],
      [
        -8.127458,
        40.797846
      ],
      [
        -8.12749,
        40.797766
      ],
      [
        -8.127509,
        40.797736
      ],
      [
        -8.127539,
        40.797689
      ],
      [
        -8.12767,
        40.797606
      ],
      [
        -8.127769,
        40.797513
      ],
      [
        -8.127784,
        40.797489
      ],
      [
        -8.127839,
        40.797399
      ],
      [
        -8.127909,
        40.797295
      ],
      [
        -8.127957,
        40.797208
      ],
      [
        -8.128016,
        40.797151
      ],
      [
        -8.128075,
        40.797116
      ],
      [
        -8.128102,
        40.7971
      ],
      [
        -8.128198,
        40.79707
      ],
      [
        -8.128354,
        40.797056
      ],
      [
        -8.128475,
        40.797035
      ],
      [
        -8.128543,
        40.797002
      ],
      [
        -8.128543,
        40.797002
      ],
      [
        -8.128563,
        40.796993
      ],
      [
        -8.128628,
        40.796918
      ],
      [
        -8.128625,
        40.796824
      ],
      [
        -8.128622,
        40.796763
      ],
      [
        -8.128607,
        40.796706
      ],
      [
        -8.128601,
        40.796682
      ],
      [
        -8.128598,
        40.796615
      ],
      [
        -8.128619,
        40.79656
      ],
      [
        -8.128657,
        40.796509
      ],
      [
        -8.128706,
        40.796442
      ],
      [
        -8.128786,
        40.796412
      ],
      [
        -8.128858,
        40.796377
      ],
      [
        -8.128899,
        40.796357
      ],
      [
        -8.129017,
        40.796308
      ],
      [
        -8.129097,
        40.796243
      ],
      [
        -8.129167,
        40.796126
      ],
      [
        -8.129167,
        40.796126
      ],
      [
        -8.129226,
        40.796026
      ],
      [
        -8.129301,
        40.795923
      ],
      [
        -8.129329,
        40.795895
      ],
      [
        -8.129381,
        40.795841
      ],
      [
        -8.129454,
        40.795781
      ],
      [
        -8.12947,
        40.795768
      ],
      [
        -8.129582,
        40.795655
      ],
      [
        -8.129674,
        40.795547
      ],
      [
        -8.129788,
        40.79542
      ],
      [
        -8.12991,
        40.795289
      ],
      [
        -8.12991,
        40.795289
      ],
      [
        -8.130001,
        40.795406
      ],
      [
        -8.130429,
        40.795948
      ],
      [
        -8.1305,
        40.79604
      ],
      [
        -8.130429,
        40.795948
      ],
      [
        -8.130429,
        40.795948
      ],
      [
        -8.130535,
        40.795959
      ],
      [
        -8.130612,
        40.795967
      ],
      [
        -8.130703,
        40.796
      ],
      [
        -8.130736,
        40.796032
      ],
      [
        -8.130795,
        40.796089
      ],
      [
        -8.130897,
        40.796199
      ],
      [
        -8.130977,
        40.796276
      ],
      [
        -8.131054,
        40.796319
      ],
      [
        -8.131079,
        40.796333
      ],
      [
        -8.131197,
        40.796349
      ],
      [
        -8.131296,
        40.796382
      ],
      [
        -8.131331,
        40.796393
      ],
      [
        -8.131503,
        40.796398
      ],
      [
        -8.131771,
        40.796345
      ],
      [
        -8.131916,
        40.796316
      ],
      [
        -8.131965,
        40.796302
      ],
      [
        -8.132211,
        40.796235
      ],
      [
        -8.132377,
        40.796158
      ],
      [
        -8.132417,
        40.796132
      ],
      [
        -8.132511,
        40.796073
      ],
      [
        -8.132656,
        40.795975
      ],
      [
        -8.132694,
        40.795906
      ],
      [
        -8.132693,
        40.795897
      ],
      [
        -8.132672,
        40.795699
      ],
      [
        -8.132656,
        40.795358
      ],
      [
        -8.132656,
        40.795191
      ],
      [
        -8.132742,
        40.795074
      ],
      [
        -8.132743,
        40.795073
      ],
      [
        -8.132957,
        40.794968
      ],
      [
        -8.13315,
        40.794842
      ],
      [
        -8.133199,
        40.794825
      ],
      [
        -8.133233,
        40.794814
      ],
      [
        -8.133319,
        40.794808
      ],
      [
        -8.133319,
        40.794808
      ],
      [
        -8.133496,
        40.794842
      ],
      [
        -8.133799,
        40.794893
      ],
      [
        -8.133955,
        40.794935
      ],
      [
        -8.134013,
        40.79495
      ],
      [
        -8.134164,
        40.795009
      ],
      [
        -8.134335,
        40.795031
      ],
      [
        -8.1344,
        40.795051
      ],
      [
        -8.134335,
        40.795031
      ],
      [
        -8.134164,
        40.795009
      ],
      [
        -8.134013,
        40.79495
      ],
      [
        -8.133799,
        40.794893
      ],
      [
        -8.133496,
        40.794842
      ],
      [
        -8.133319,
        40.794808
      ],
      [
        -8.133233,
        40.794814
      ],
      [
        -8.13315,
        40.794842
      ],
      [
        -8.132957,
        40.794968
      ],
      [
        -8.132742,
        40.795074
      ],
      [
        -8.132656,
        40.795191
      ],
      [
        -8.132656,
        40.795358
      ],
      [
        -8.132672,
        40.795699
      ],
      [
        -8.132694,
        40.795906
      ],
      [
        -8.132656,
        40.795975
      ],
      [
        -8.132511,
        40.796073
      ],
      [
        -8.132377,
        40.796158
      ],
      [
        -8.132211,
        40.796235
      ],
      [
        -8.131916,
        40.796316
      ],
      [
        -8.131771,
        40.796345
      ],
      [
        -8.131503,
        40.796398
      ],
      [
        -8.131331,
        40.796393
      ],
      [
        -8.131197,
        40.796349
      ],
      [
        -8.131079,
        40.796333
      ],
      [
        -8.130977,
        40.796276
      ],
      [
        -8.130897,
        40.796199
      ],
      [
        -8.130795,
        40.796089
      ],
      [
        -8.130703,
        40.796
      ],
      [
        -8.130612,
        40.795967
      ],
      [
        -8.130535,
        40.795959
      ],
      [
        -8.130429,
        40.795948
      ],
      [
        -8.1305,
        40.79604
      ],
      [
        -8.130429,
        40.795948
      ],
      [
        -8.130535,
        40.795959
      ],
      [
        -8.130612,
        40.795967
      ],
      [
        -8.130703,
        40.796
      ],
      [
        -8.130795,
        40.796089
      ],
      [
        -8.130897,
        40.796199
      ],
      [
        -8.130977,
        40.796276
      ],
      [
        -8.131079,
        40.796333
      ],
      [
        -8.131197,
        40.796349
      ],
      [
        -8.131331,
        40.796393
      ],
      [
        -8.131503,
        40.796398
      ],
      [
        -8.131771,
        40.796345
      ],
      [
        -8.131916,
        40.796316
      ],
      [
        -8.132211,
        40.796235
      ],
      [
        -8.132377,
        40.796158
      ],
      [
        -8.132511,
        40.796073
      ],
      [
        -8.132656,
        40.795975
      ],
      [
        -8.132694,
        40.795906
      ],
      [
        -8.132672,
        40.795699
      ],
      [
        -8.132656,
        40.795358
      ],
      [
        -8.132656,
        40.795191
      ],
      [
        -8.132742,
        40.795074
      ],
      [
        -8.132957,
        40.794968
      ],
      [
        -8.13315,
        40.794842
      ],
      [
        -8.133233,
        40.794814
      ],
      [
        -8.133319,
        40.794808
      ],
      [
        -8.133496,
        40.794842
      ],
      [
        -8.133799,
        40.794893
      ],
      [
        -8.134013,
        40.79495
      ],
      [
        -8.134164,
        40.795009
      ],
      [
        -8.134214,
        40.795015
      ],
      [
        -8.134335,
        40.795031
      ],
      [
        -8.1344,
        40.795051
      ],
      [
        -8.134416,
        40.79509
      ],
      [
        -8.134352,
        40.795194
      ],
      [
        -8.134325,
        40.795374
      ],
      [
        -8.134362,
        40.795543
      ],
      [
        -8.134367,
        40.795554
      ],
      [
        -8.134441,
        40.795711
      ],
      [
        -8.134511,
        40.79587
      ],
      [
        -8.134556,
        40.796012
      ],
      [
        -8.134637,
        40.796128
      ],
      [
        -8.1347,
        40.796186
      ],
      [
        -8.1347,
        40.796186
      ],
      [
        -8.134791,
        40.796188
      ],
      [
        -8.134791,
        40.796188
      ],
      [
        -8.13489,
        40.796125
      ],
      [
        -8.134992,
        40.795973
      ],
      [
        -8.135067,
        40.795894
      ],
      [
        -8.135161,
        40.795849
      ],
      [
        -8.13518,
        40.795853
      ],
      [
        -8.13525,
        40.795868
      ],
      [
        -8.135315,
        40.795915
      ],
      [
        -8.135326,
        40.79598
      ],
      [
        -8.135331,
        40.79601
      ],
      [
        -8.135263,
        40.796125
      ],
      [
        -8.135247,
        40.796185
      ],
      [
        -8.135231,
        40.796247
      ],
      [
        -8.135235,
        40.796308
      ],
      [
        -8.135269,
        40.796356
      ],
      [
        -8.135291,
        40.796355
      ],
      [
        -8.135354,
        40.796353
      ],
      [
        -8.135483,
        40.796272
      ],
      [
        -8.13558,
        40.796146
      ],
      [
        -8.13558,
        40.796146
      ],
      [
        -8.135687,
        40.796
      ],
      [
        -8.135698,
        40.795898
      ],
      [
        -8.135692,
        40.795824
      ],
      [
        -8.13569,
        40.79579
      ],
      [
        -8.135636,
        40.795632
      ],
      [
        -8.135601,
        40.795528
      ],
      [
        -8.135601,
        40.795528
      ],
      [
        -8.135599,
        40.795449
      ],
      [
        -8.135647,
        40.795374
      ],
      [
        -8.135759,
        40.79534
      ],
      [
        -8.135874,
        40.795318
      ],
      [
        -8.135934,
        40.795307
      ],
      [
        -8.136063,
        40.795299
      ],
      [
        -8.136187,
        40.795362
      ],
      [
        -8.136211,
        40.79541
      ],
      [
        -8.136234,
        40.795455
      ],
      [
        -8.13623,
        40.795497
      ],
      [
        -8.136205,
        40.795759
      ],
      [
        -8.136197,
        40.795837
      ],
      [
        -8.136127,
        40.796207
      ],
      [
        -8.136116,
        40.796343
      ],
      [
        -8.136115,
        40.796355
      ],
      [
        -8.136082,
        40.79655
      ],
      [
        -8.136093,
        40.796733
      ],
      [
        -8.136043,
        40.796892
      ],
      [
        -8.136025,
        40.79695
      ],
      [
        -8.135975,
        40.797078
      ],
      [
        -8.135891,
        40.79721
      ],
      [
        -8.135842,
        40.797269
      ],
      [
        -8.135771,
        40.797354
      ],
      [
        -8.135628,
        40.797514
      ],
      [
        -8.135542,
        40.797661
      ],
      [
        -8.135564,
        40.797739
      ],
      [
        -8.135583,
        40.797809
      ],
      [
        -8.13566,
        40.797977
      ],
      [
        -8.135734,
        40.79815
      ],
      [
        -8.135755,
        40.798233
      ],
      [
        -8.135765,
        40.79827
      ],
      [
        -8.135718,
        40.798333
      ],
      [
        -8.135607,
        40.798367
      ],
      [
        -8.13555,
        40.798383
      ],
      [
        -8.135446,
        40.798412
      ],
      [
        -8.135317,
        40.798513
      ],
      [
        -8.135231,
        40.798627
      ],
      [
        -8.135185,
        40.798729
      ],
      [
        -8.135156,
        40.798794
      ],
      [
        -8.135106,
        40.799007
      ],
      [
        -8.135102,
        40.799045
      ],
      [
        -8.135086,
        40.799216
      ],
      [
        -8.135033,
        40.799435
      ],
      [
        -8.135004,
        40.7996
      ],
      [
        -8.134974,
        40.799652
      ],
      [
        -8.134952,
        40.799691
      ],
      [
        -8.134845,
        40.799655
      ],
      [
        -8.134657,
        40.79963
      ],
      [
        -8.13463,
        40.79963
      ],
      [
        -8.134502,
        40.79963
      ],
      [
        -8.134401,
        40.799667
      ],
      [
        -8.13433,
        40.799744
      ],
      [
        -8.134295,
        40.799815
      ],
      [
        -8.134233,
        40.799943
      ],
      [
        -8.134217,
        40.800168
      ],
      [
        -8.134217,
        40.800171
      ],
      [
        -8.134227,
        40.80027
      ],
      [
        -8.134236,
        40.800373
      ],
      [
        -8.134301,
        40.800584
      ],
      [
        -8.134344,
        40.800625
      ],
      [
        -8.134432,
        40.800707
      ],
      [
        -8.134527,
        40.800811
      ],
      [
        -8.134553,
        40.80084
      ],
      [
        -8.134644,
        40.800941
      ],
      [
        -8.134662,
        40.801068
      ],
      [
        -8.134607,
        40.80116
      ],
      [
        -8.134558,
        40.801237
      ],
      [
        -8.134571,
        40.801328
      ],
      [
        -8.134671,
        40.801392
      ],
      [
        -8.134705,
        40.801407
      ],
      [
        -8.134826,
        40.801461
      ],
      [
        -8.135011,
        40.801559
      ],
      [
        -8.135143,
        40.801644
      ],
      [
        -8.135143,
        40.801644
      ],
      [
        -8.135266,
        40.801672
      ],
      [
        -8.135368,
        40.801694
      ],
      [
        -8.135395,
        40.8017
      ],
      [
        -8.135419,
        40.801759
      ],
      [
        -8.135422,
        40.801765
      ],
      [
        -8.135392,
        40.801827
      ],
      [
        -8.135263,
        40.801904
      ],
      [
        -8.135161,
        40.801957
      ],
      [
        -8.13507,
        40.802038
      ],
      [
        -8.135001,
        40.802099
      ],
      [
        -8.134966,
        40.802114
      ],
      [
        -8.134738,
        40.802213
      ],
      [
        -8.134577,
        40.802274
      ],
      [
        -8.13456,
        40.802286
      ],
      [
        -8.134403,
        40.802403
      ],
      [
        -8.134388,
        40.802439
      ],
      [
        -8.134357,
        40.80251
      ],
      [
        -8.134258,
        40.802626
      ],
      [
        -8.13414,
        40.802728
      ],
      [
        -8.134083,
        40.802794
      ],
      [
        -8.134043,
        40.802841
      ],
      [
        -8.133965,
        40.802956
      ],
      [
        -8.133874,
        40.803066
      ],
      [
        -8.13381,
        40.803118
      ],
      [
        -8.133729,
        40.803184
      ],
      [
        -8.133606,
        40.803314
      ],
      [
        -8.133466,
        40.803411
      ],
      [
        -8.133359,
        40.80348
      ],
      [
        -8.133359,
        40.80348
      ],
      [
        -8.133244,
        40.803503
      ],
      [
        -8.133134,
        40.803582
      ],
      [
        -8.133061,
        40.803621
      ],
      [
        -8.133037,
        40.803634
      ],
      [
        -8.132887,
        40.803659
      ],
      [
        -8.132831,
        40.803657
      ],
      [
        -8.132763,
        40.803655
      ],
      [
        -8.132576,
        40.803573
      ],
      [
        -8.132329,
        40.803476
      ],
      [
        -8.132045,
        40.80335
      ],
      [
        -8.132028,
        40.803344
      ],
      [
        -8.131803,
        40.803261
      ],
      [
        -8.131589,
        40.8032
      ],
      [
        -8.131522,
        40.803188
      ],
      [
        -8.131433,
        40.803171
      ],
      [
        -8.131245,
        40.803155
      ],
      [
        -8.131235,
        40.803158
      ],
      [
        -8.131085,
        40.8032
      ],
      [
        -8.130814,
        40.80328
      ],
      [
        -8.13072,
        40.803342
      ],
      [
        -8.130607,
        40.803338
      ],
      [
        -8.130528,
        40.803316
      ],
      [
        -8.130403,
        40.803281
      ],
      [
        -8.130258,
        40.803257
      ],
      [
        -8.1302,
        40.803247
      ],
      [
        -8.130114,
        40.803232
      ],
      [
        -8.129963,
        40.8032
      ],
      [
        -8.12984,
        40.803123
      ],
      [
        -8.12978,
        40.803088
      ],
      [
        -8.129695,
        40.803037
      ],
      [
        -8.129491,
        40.803005
      ],
      [
        -8.1294,
        40.803031
      ],
      [
        -8.129309,
        40.803058
      ],
      [
        -8.129159,
        40.803119
      ],
      [
        -8.129035,
        40.80318
      ],
      [
        -8.129003,
        40.803196
      ],
      [
        -8.128837,
        40.803232
      ],
      [
        -8.128628,
        40.803196
      ],
      [
        -8.128628,
        40.803196
      ],
      [
        -8.128461,
        40.803127
      ],
      [
        -8.128333,
        40.80305
      ],
      [
        -8.128204,
        40.802948
      ],
      [
        -8.128198,
        40.802942
      ],
      [
        -8.12808,
        40.802818
      ],
      [
        -8.128054,
        40.80268
      ],
      [
        -8.128064,
        40.802562
      ],
      [
        -8.128043,
        40.802335
      ],
      [
        -8.12803,
        40.802272
      ],
      [
        -8.128011,
        40.802177
      ],
      [
        -8.127962,
        40.802034
      ],
      [
        -8.127861,
        40.801953
      ],
      [
        -8.127861,
        40.801953
      ],
      [
        -8.1277,
        40.801884
      ],
      [
        -8.127458,
        40.801835
      ],
      [
        -8.127458,
        40.801835
      ],
      [
        -8.127249,
        40.801835
      ],
      [
        -8.127134,
        40.801834
      ],
      [
        -8.127134,
        40.801834
      ],
      [
        -8.127029,
        40.801904
      ],
      [
        -8.126903,
        40.802005
      ],
      [
        -8.126903,
        40.802005
      ],
      [
        -8.126788,
        40.801957
      ],
      [
        -8.126765,
        40.801935
      ],
      [
        -8.126707,
        40.80188
      ],
      [
        -8.126515,
        40.801837
      ],
      [
        -8.126318,
        40.801824
      ],
      [
        -8.125979,
        40.801754
      ],
      [
        -8.126103,
        40.80141
      ],
      [
        -8.126112,
        40.801368
      ],
      [
        -8.126144,
        40.801198
      ],
      [
        -8.126161,
        40.801138
      ],
      [
        -8.126176,
        40.801088
      ],
      [
        -8.126251,
        40.801035
      ],
      [
        -8.126284,
        40.801029
      ],
      [
        -8.126378,
        40.80101
      ],
      [
        -8.126498,
        40.801019
      ],
      [
        -8.126643,
        40.801084
      ],
      [
        -8.126665,
        40.801097
      ],
      [
        -8.126748,
        40.801148
      ],
      [
        -8.126855,
        40.801189
      ],
      [
        -8.126991,
        40.801157
      ],
      [
        -8.126999,
        40.801156
      ],
      [
        -8.127123,
        40.80114
      ],
      [
        -8.1273,
        40.801136
      ],
      [
        -8.127399,
        40.801113
      ],
      [
        -8.127454,
        40.801074
      ],
      [
        -8.127482,
        40.801055
      ],
      [
        -8.127603,
        40.80095
      ],
      [
        -8.127692,
        40.800925
      ],
      [
        -8.127692,
        40.800925
      ],
      [
        -8.127785,
        40.800857
      ],
      [
        -8.127828,
        40.800763
      ],
      [
        -8.127803,
        40.800644
      ],
      [
        -8.127801,
        40.800633
      ],
      [
        -8.127827,
        40.800573
      ],
      [
        -8.127837,
        40.800551
      ],
      [
        -8.127922,
        40.800519
      ],
      [
        -8.128048,
        40.800499
      ],
      [
        -8.12818,
        40.800502
      ],
      [
        -8.128316,
        40.800544
      ],
      [
        -8.128316,
        40.800544
      ],
      [
        -8.1284,
        40.800604
      ],
      [
        -8.128497,
        40.800662
      ],
      [
        -8.128502,
        40.800665
      ],
      [
        -8.128633,
        40.800743
      ],
      [
        -8.128706,
        40.800742
      ],
      [
        -8.128791,
        40.800722
      ],
      [
        -8.128862,
        40.800718
      ],
      [
        -8.128926,
        40.800714
      ],
      [
        -8.129027,
        40.800746
      ],
      [
        -8.12907,
        40.800778
      ],
      [
        -8.1291,
        40.8008
      ],
      [
        -8.129191,
        40.800889
      ],
      [
        -8.129271,
        40.800962
      ],
      [
        -8.129373,
        40.801015
      ],
      [
        -8.129514,
        40.801015
      ],
      [
        -8.129566,
        40.801015
      ],
      [
        -8.129725,
        40.801026
      ],
      [
        -8.129915,
        40.801031
      ],
      [
        -8.129954,
        40.801027
      ],
      [
        -8.130087,
        40.801015
      ],
      [
        -8.130248,
        40.800985
      ],
      [
        -8.130261,
        40.800982
      ],
      [
        -8.130489,
        40.800979
      ],
      [
        -8.130779,
        40.800954
      ],
      [
        -8.131002,
        40.800945
      ],
      [
        -8.131021,
        40.800936
      ],
      [
        -8.131062,
        40.800918
      ],
      [
        -8.131104,
        40.8009
      ],
      [
        -8.131104,
        40.8009
      ],
      [
        -8.131137,
        40.800864
      ],
      [
        -8.131149,
        40.800813
      ],
      [
        -8.131142,
        40.800688
      ],
      [
        -8.131141,
        40.800663
      ],
      [
        -8.131063,
        40.800586
      ],
      [
        -8.130957,
        40.800495
      ],
      [
        -8.130929,
        40.800453
      ],
      [
        -8.130919,
        40.800384
      ],
      [
        -8.130917,
        40.800374
      ],
      [
        -8.130919,
        40.800303
      ],
      [
        -8.13091,
        40.800254
      ],
      [
        -8.130899,
        40.800198
      ],
      [
        -8.130798,
        40.800045
      ],
      [
        -8.130661,
        40.799964
      ],
      [
        -8.130468,
        40.799898
      ],
      [
        -8.130468,
        40.799898
      ],
      [
        -8.13036,
        40.79983
      ],
      [
        -8.1302,
        40.799792
      ],
      [
        -8.130086,
        40.799773
      ],
      [
        -8.130031,
        40.799764
      ],
      [
        -8.129849,
        40.799702
      ],
      [
        -8.129786,
        40.799687
      ],
      [
        -8.129636,
        40.799651
      ],
      [
        -8.129537,
        40.799627
      ],
      [
        -8.129347,
        40.799619
      ],
      [
        -8.129282,
        40.799614
      ],
      [
        -8.129278,
        40.799614
      ],
      [
        -8.129242,
        40.799615
      ],
      [
        -8.129215,
        40.799613
      ],
      [
        -8.129176,
        40.799611
      ],
      [
        -8.129143,
        40.7996
      ],
      [
        -8.129121,
        40.79958
      ],
      [
        -8.129103,
        40.799547
      ],
      [
        -8.129077,
        40.79949
      ],
      [
        -8.129031,
        40.799428
      ],
      [
        -8.128827,
        40.799321
      ],
      [
        -8.128789,
        40.799301
      ],
      [
        -8.128562,
        40.799162
      ],
      [
        -8.128553,
        40.799154
      ],
      [
        -8.128463,
        40.79908
      ],
      [
        -8.128445,
        40.799044
      ],
      [
        -8.128382,
        40.798975
      ],
      [
        -8.128295,
        40.798872
      ],
      [
        -8.128277,
        40.798808
      ],
      [
        -8.128194,
        40.798771
      ],
      [
        -8.128177,
        40.798763
      ],
      [
        -8.127944,
        40.798664
      ],
      [
        -8.127909,
        40.798649
      ],
      [
        -8.127761,
        40.798587
      ],
      [
        -8.127552,
        40.798487
      ],
      [
        -8.127248,
        40.798347
      ],
      [
        -8.127222,
        40.798335
      ],
      [
        -8.126782,
        40.79812
      ],
      [
        -8.126782,
        40.79812
      ],
      [
        -8.126647,
        40.798072
      ],
      [
        -8.126412,
        40.79799
      ],
      [
        -8.125999,
        40.797823
      ],
      [
        -8.12573,
        40.797722
      ],
      [
        -8.125645,
        40.797689
      ],
      [
        -8.125617,
        40.797679
      ],
      [
        -8.12528,
        40.797567
      ],
      [
        -8.124792,
        40.797377
      ],
      [
        -8.124772,
        40.797369
      ],
      [
        -8.124529,
        40.797275
      ],
      [
        -8.124272,
        40.797129
      ],
      [
        -8.123971,
        40.796983
      ],
      [
        -8.123926,
        40.796972
      ],
      [
        -8.123725,
        40.796922
      ],
      [
        -8.123613,
        40.796912
      ],
      [
        -8.123499,
        40.796901
      ],
      [
        -8.123392,
        40.796893
      ],
      [
        -8.123264,
        40.796882
      ],
      [
        -8.123247,
        40.796881
      ],
      [
        -8.123183,
        40.796936
      ],
      [
        -8.123098,
        40.796985
      ],
      [
        -8.123038,
        40.797245
      ],
      [
        -8.122908,
        40.797489
      ],
      [
        -8.122945,
        40.79758
      ],
      [
        -8.122963,
        40.797626
      ],
      [
        -8.122998,
        40.797853
      ],
      [
        -8.123071,
        40.797976
      ],
      [
        -8.123191,
        40.798075
      ],
      [
        -8.123257,
        40.798109
      ],
      [
        -8.123362,
        40.798163
      ],
      [
        -8.123392,
        40.798307
      ],
      [
        -8.123377,
        40.798512
      ],
      [
        -8.123375,
        40.798547
      ],
      [
        -8.123281,
        40.798759
      ],
      [
        -8.123169,
        40.798882
      ],
      [
        -8.123148,
        40.798906
      ],
      [
        -8.122961,
        40.79908
      ],
      [
        -8.122754,
        40.799123
      ],
      [
        -8.122503,
        40.799101
      ],
      [
        -8.122407,
        40.799093
      ],
      [
        -8.122074,
        40.799045
      ],
      [
        -8.12165,
        40.798994
      ],
      [
        -8.121303,
        40.798922
      ],
      [
        -8.121273,
        40.798916
      ],
      [
        -8.12099,
        40.798822
      ],
      [
        -8.12091,
        40.798752
      ],
      [
        -8.120884,
        40.798732
      ],
      [
        -8.120786,
        40.798656
      ],
      [
        -8.120653,
        40.798628
      ],
      [
        -8.120571,
        40.798625
      ],
      [
        -8.120513,
        40.798623
      ],
      [
        -8.120386,
        40.7986
      ],
      [
        -8.120357,
        40.798589
      ],
      [
        -8.120283,
        40.79856
      ],
      [
        -8.120249,
        40.798504
      ],
      [
        -8.120229,
        40.798406
      ],
      [
        -8.120229,
        40.798368
      ],
      [
        -8.120229,
        40.798312
      ],
      [
        -8.120209,
        40.798219
      ],
      [
        -8.120276,
        40.798098
      ],
      [
        -8.120389,
        40.797893
      ],
      [
        -8.120469,
        40.797772
      ],
      [
        -8.120484,
        40.797737
      ],
      [
        -8.120536,
        40.79761
      ],
      [
        -8.120554,
        40.797532
      ],
      [
        -8.120554,
        40.797504
      ],
      [
        -8.120553,
        40.797456
      ],
      [
        -8.120533,
        40.797413
      ],
      [
        -8.120446,
        40.797325
      ],
      [
        -8.120383,
        40.797301
      ],
      [
        -8.120286,
        40.797264
      ],
      [
        -8.120193,
        40.797105
      ],
      [
        -8.120173,
        40.797037
      ],
      [
        -8.120139,
        40.796921
      ],
      [
        -8.120077,
        40.796779
      ],
      [
        -8.120042,
        40.796701
      ],
      [
        -8.119882,
        40.796567
      ],
      [
        -8.119743,
        40.796467
      ],
      [
        -8.119725,
        40.796454
      ],
      [
        -8.119642,
        40.796383
      ],
      [
        -8.119586,
        40.796269
      ],
      [
        -8.119586,
        40.796269
      ],
      [
        -8.119583,
        40.796333
      ],
      [
        -8.119556,
        40.796487
      ],
      [
        -8.1195,
        40.796687
      ],
      [
        -8.119487,
        40.796735
      ],
      [
        -8.119379,
        40.797019
      ],
      [
        -8.119277,
        40.797295
      ],
      [
        -8.119138,
        40.79762
      ],
      [
        -8.119138,
        40.797627
      ],
      [
        -8.119127,
        40.798043
      ],
      [
        -8.119117,
        40.798242
      ],
      [
        -8.119105,
        40.798367
      ],
      [
        -8.1191,
        40.798424
      ],
      [
        -8.119143,
        40.798579
      ],
      [
        -8.119197,
        40.798765
      ],
      [
        -8.119199,
        40.798787
      ],
      [
        -8.119208,
        40.798879
      ],
      [
        -8.119213,
        40.799021
      ],
      [
        -8.119227,
        40.799174
      ],
      [
        -8.119229,
        40.7992
      ],
      [
        -8.119245,
        40.799354
      ],
      [
        -8.119192,
        40.799541
      ],
      [
        -8.119185,
        40.799623
      ],
      [
        -8.119181,
        40.799667
      ],
      [
        -8.119181,
        40.799667
      ],
      [
        -8.119229,
        40.799846
      ],
      [
        -8.119248,
        40.799901
      ],
      [
        -8.119261,
        40.799939
      ],
      [
        -8.119293,
        40.800049
      ],
      [
        -8.119353,
        40.800142
      ],
      [
        -8.119422,
        40.800248
      ],
      [
        -8.119478,
        40.800305
      ],
      [
        -8.11954,
        40.800369
      ],
      [
        -8.119567,
        40.800483
      ],
      [
        -8.119565,
        40.80058
      ],
      [
        -8.119551,
        40.800698
      ],
      [
        -8.119551,
        40.800698
      ],
      [
        -8.119551,
        40.800808
      ],
      [
        -8.119599,
        40.80091
      ],
      [
        -8.119701,
        40.801019
      ],
      [
        -8.11975,
        40.80111
      ],
      [
        -8.119771,
        40.801149
      ],
      [
        -8.119841,
        40.801287
      ],
      [
        -8.119849,
        40.801449
      ],
      [
        -8.119818,
        40.801603
      ],
      [
        -8.119809,
        40.801649
      ],
      [
        -8.119798,
        40.801856
      ],
      [
        -8.119776,
        40.80203
      ],
      [
        -8.119772,
        40.802215
      ],
      [
        -8.119771,
        40.80225
      ],
      [
        -8.119783,
        40.80239
      ],
      [
        -8.119789,
        40.802446
      ],
      [
        -8.119792,
        40.802485
      ],
      [
        -8.11987,
        40.802598
      ],
      [
        -8.119983,
        40.802772
      ],
      [
        -8.120029,
        40.802909
      ],
      [
        -8.120047,
        40.802963
      ],
      [
        -8.120047,
        40.803036
      ],
      [
        -8.120047,
        40.803166
      ],
      [
        -8.120047,
        40.803166
      ],
      [
        -8.119994,
        40.803308
      ],
      [
        -8.119962,
        40.803372
      ],
      [
        -8.119927,
        40.803443
      ],
      [
        -8.119846,
        40.803557
      ],
      [
        -8.11984,
        40.80357
      ],
      [
        -8.119786,
        40.803686
      ],
      [
        -8.119776,
        40.803707
      ],
      [
        -8.119774,
        40.803764
      ],
      [
        -8.119861,
        40.803884
      ],
      [
        -8.11987,
        40.803897
      ],
      [
        -8.1199,
        40.803898
      ],
      [
        -8.120004,
        40.803901
      ],
      [
        -8.120117,
        40.803905
      ],
      [
        -8.120191,
        40.803932
      ],
      [
        -8.120289,
        40.803968
      ],
      [
        -8.120433,
        40.803957
      ],
      [
        -8.120577,
        40.804023
      ],
      [
        -8.120812,
        40.804018
      ],
      [
        -8.120973,
        40.804061
      ],
      [
        -8.121088,
        40.804128
      ],
      [
        -8.121289,
        40.804197
      ],
      [
        -8.12134,
        40.804259
      ],
      [
        -8.121335,
        40.804308
      ],
      [
        -8.121276,
        40.804355
      ],
      [
        -8.121032,
        40.804391
      ],
      [
        -8.120739,
        40.804495
      ],
      [
        -8.120793,
        40.80453
      ],
      [
        -8.121002,
        40.804525
      ],
      [
        -8.121235,
        40.804568
      ],
      [
        -8.121141,
        40.804611
      ],
      [
        -8.121061,
        40.804666
      ],
      [
        -8.121005,
        40.804765
      ],
      [
        -8.12103,
        40.804928
      ],
      [
        -8.121042,
        40.805003
      ],
      [
        -8.121442,
        40.804996
      ],
      [
        -8.121605,
        40.805047
      ],
      [
        -8.121619,
        40.805101
      ],
      [
        -8.121614,
        40.805083
      ],
      [
        -8.121643,
        40.805202
      ],
      [
        -8.121621,
        40.805249
      ],
      [
        -8.121544,
        40.805413
      ],
      [
        -8.121497,
        40.805456
      ],
      [
        -8.121361,
        40.805583
      ],
      [
        -8.121125,
        40.805697
      ],
      [
        -8.12108,
        40.805802
      ],
      [
        -8.121061,
        40.805908
      ],
      [
        -8.121286,
        40.805928
      ],
      [
        -8.121286,
        40.805928
      ],
      [
        -8.121061,
        40.805908
      ],
      [
        -8.12108,
        40.805802
      ],
      [
        -8.121108,
        40.805737
      ],
      [
        -8.121134,
        40.805693
      ],
      [
        -8.121125,
        40.805697
      ],
      [
        -8.12108,
        40.805802
      ],
      [
        -8.121061,
        40.805908
      ],
      [
        -8.121286,
        40.805928
      ],
      [
        -8.121317,
        40.805917
      ],
      [
        -8.121306,
        40.805921
      ],
      [
        -8.121013,
        40.806015
      ],
      [
        -8.120921,
        40.80601
      ],
      [
        -8.120452,
        40.805994
      ],
      [
        -8.120082,
        40.805991
      ],
      [
        -8.120004,
        40.806023
      ],
      [
        -8.120082,
        40.805991
      ],
      [
        -8.120212,
        40.805992
      ],
      [
        -8.120076,
        40.805994
      ],
      [
        -8.11998,
        40.806033
      ],
      [
        -8.119879,
        40.80609
      ],
      [
        -8.119869,
        40.806109
      ],
      [
        -8.119841,
        40.80616
      ],
      [
        -8.11979,
        40.80623
      ],
      [
        -8.11977,
        40.806257
      ],
      [
        -8.119652,
        40.806341
      ],
      [
        -8.119519,
        40.80642
      ],
      [
        -8.11935,
        40.806565
      ],
      [
        -8.119297,
        40.806582
      ],
      [
        -8.11917,
        40.806623
      ],
      [
        -8.119071,
        40.806654
      ],
      [
        -8.118559,
        40.806855
      ],
      [
        -8.118269,
        40.806936
      ],
      [
        -8.118225,
        40.806979
      ],
      [
        -8.11814,
        40.807061
      ],
      [
        -8.118039,
        40.807121
      ],
      [
        -8.117908,
        40.8072
      ],
      [
        -8.117861,
        40.807228
      ],
      [
        -8.117558,
        40.807312
      ],
      [
        -8.117437,
        40.807327
      ],
      [
        -8.117455,
        40.807325
      ],
      [
        -8.117301,
        40.807345
      ],
      [
        -8.11709,
        40.807388
      ],
      [
        -8.116958,
        40.807409
      ],
      [
        -8.11689,
        40.807419
      ],
      [
        -8.116729,
        40.807496
      ],
      [
        -8.11666,
        40.807518
      ],
      [
        -8.116579,
        40.807544
      ],
      [
        -8.116491,
        40.807573
      ],
      [
        -8.116268,
        40.807658
      ],
      [
        -8.116078,
        40.807745
      ],
      [
        -8.116198,
        40.80769
      ],
      [
        -8.116053,
        40.807756
      ],
      [
        -8.115708,
        40.807885
      ],
      [
        -8.115503,
        40.807995
      ],
      [
        -8.115487,
        40.808005
      ],
      [
        -8.115356,
        40.808158
      ],
      [
        -8.115356,
        40.808158
      ],
      [
        -8.115238,
        40.808251
      ],
      [
        -8.115178,
        40.808318
      ],
      [
        -8.115234,
        40.808255
      ],
      [
        -8.115104,
        40.808401
      ],
      [
        -8.114949,
        40.808614
      ],
      [
        -8.114809,
        40.808831
      ],
      [
        -8.114754,
        40.808885
      ],
      [
        -8.114656,
        40.80898
      ],
      [
        -8.114457,
        40.809226
      ],
      [
        -8.114376,
        40.809329
      ],
      [
        -8.11431,
        40.809412
      ],
      [
        -8.114222,
        40.80943
      ],
      [
        -8.114216,
        40.809424
      ],
      [
        -8.114222,
        40.80943
      ],
      [
        -8.11431,
        40.809412
      ],
      [
        -8.114355,
        40.809355
      ],
      [
        -8.11431,
        40.809412
      ],
      [
        -8.114222,
        40.80943
      ],
      [
        -8.114099,
        40.809313
      ],
      [
        -8.114022,
        40.809218
      ],
      [
        -8.113917,
        40.809108
      ],
      [
        -8.113877,
        40.809069
      ],
      [
        -8.113836,
        40.809028
      ],
      [
        -8.113803,
        40.808972
      ],
      [
        -8.113745,
        40.808874
      ],
      [
        -8.113673,
        40.808712
      ],
      [
        -8.11358,
        40.808588
      ],
      [
        -8.113534,
        40.80856
      ],
      [
        -8.113456,
        40.808513
      ],
      [
        -8.113344,
        40.808446
      ],
      [
        -8.113117,
        40.808332
      ],
      [
        -8.113044,
        40.808295
      ],
      [
        -8.112899,
        40.808247
      ],
      [
        -8.112823,
        40.808247
      ],
      [
        -8.112869,
        40.808247
      ],
      [
        -8.112727,
        40.808247
      ],
      [
        -8.112358,
        40.808312
      ],
      [
        -8.1121963,
        40.8079029
      ],
      [
        -8.112099,
        40.80835
      ],
      [
        -8.112003,
        40.808364
      ],
      [
        -8.111939,
        40.808384
      ],
      [
        -8.111815,
        40.808421
      ],
      [
        -8.111654,
        40.808454
      ],
      [
        -8.111839,
        40.808414
      ],
      [
        -8.111654,
        40.808454
      ],
      [
        -8.11151,
        40.808423
      ],
      [
        -8.111258,
        40.808324
      ],
      [
        -8.111123,
        40.808259
      ],
      [
        -8.111123,
        40.808259
      ],
      [
        -8.111098,
        40.808157
      ],
      [
        -8.111079,
        40.808082
      ],
      [
        -8.111054,
        40.808045
      ],
      [
        -8.111051,
        40.808041
      ],
      [
        -8.110973,
        40.807922
      ],
      [
        -8.110886,
        40.80777
      ],
      [
        -8.11088,
        40.807688
      ],
      [
        -8.110875,
        40.807627
      ],
      [
        -8.110864,
        40.807477
      ],
      [
        -8.111038,
        40.807361
      ],
      [
        -8.111116,
        40.807315
      ],
      [
        -8.111186,
        40.807274
      ],
      [
        -8.111283,
        40.8072
      ],
      [
        -8.111354,
        40.807146
      ],
      [
        -8.111492,
        40.806982
      ],
      [
        -8.111595,
        40.80688
      ],
      [
        -8.111654,
        40.806821
      ],
      [
        -8.111789,
        40.806724
      ],
      [
        -8.111831,
        40.806688
      ],
      [
        -8.11188,
        40.806606
      ],
      [
        -8.111912,
        40.806432
      ],
      [
        -8.111912,
        40.806432
      ],
      [
        -8.112087,
        40.806267
      ],
      [
        -8.112106,
        40.806249
      ],
      [
        -8.112195,
        40.806166
      ],
      [
        -8.11233,
        40.805993
      ],
      [
        -8.11233,
        40.805993
      ],
      [
        -8.112217,
        40.806137
      ],
      [
        -8.11233,
        40.805993
      ],
      [
        -8.112505,
        40.805707
      ],
      [
        -8.112614,
        40.805589
      ],
      [
        -8.112713,
        40.80545
      ],
      [
        -8.112792,
        40.805336
      ],
      [
        -8.112806,
        40.805294
      ],
      [
        -8.112792,
        40.805336
      ],
      [
        -8.112835,
        40.805209
      ],
      [
        -8.112832,
        40.805105
      ],
      [
        -8.112812,
        40.804966
      ],
      [
        -8.11283,
        40.805094
      ],
      [
        -8.112808,
        40.804941
      ],
      [
        -8.11277,
        40.804869
      ],
      [
        -8.112732,
        40.80485
      ],
      [
        -8.11277,
        40.804869
      ],
      [
        -8.112808,
        40.804941
      ],
      [
        -8.11277,
        40.804869
      ],
      [
        -8.112751,
        40.80486
      ],
      [
        -8.112703,
        40.804836
      ],
      [
        -8.112451,
        40.804798
      ],
      [
        -8.112279,
        40.804759
      ],
      [
        -8.11227,
        40.804762
      ],
      [
        -8.112241,
        40.804775
      ],
      [
        -8.112229,
        40.804832
      ],
      [
        -8.112212,
        40.804854
      ],
      [
        -8.112176,
        40.804864
      ],
      [
        -8.112085,
        40.804848
      ],
      [
        -8.112082,
        40.804826
      ],
      [
        -8.112173,
        40.804595
      ],
      [
        -8.112082,
        40.804826
      ],
      [
        -8.112085,
        40.804848
      ],
      [
        -8.112176,
        40.804864
      ],
      [
        -8.112212,
        40.804854
      ],
      [
        -8.112229,
        40.804832
      ],
      [
        -8.112241,
        40.804775
      ],
      [
        -8.112279,
        40.804759
      ],
      [
        -8.11232,
        40.804768
      ],
      [
        -8.112279,
        40.804759
      ],
      [
        -8.112241,
        40.804775
      ],
      [
        -8.112229,
        40.804832
      ],
      [
        -8.112212,
        40.804854
      ],
      [
        -8.112176,
        40.804864
      ],
      [
        -8.112085,
        40.804848
      ],
      [
        -8.112082,
        40.804826
      ],
      [
        -8.112111,
        40.804752
      ],
      [
        -8.112082,
        40.804826
      ],
      [
        -8.112085,
        40.804848
      ],
      [
        -8.112176,
        40.804864
      ],
      [
        -8.112212,
        40.804854
      ],
      [
        -8.112233,
        40.804813
      ],
      [
        -8.112212,
        40.804854
      ],
      [
        -8.112176,
        40.804864
      ],
      [
        -8.1121,
        40.80485
      ],
      [
        -8.112085,
        40.804848
      ],
      [
        -8.112082,
        40.804826
      ],
      [
        -8.112139,
        40.804683
      ],
      [
        -8.112082,
        40.804826
      ],
      [
        -8.112085,
        40.804848
      ],
      [
        -8.112176,
        40.804864
      ],
      [
        -8.112212,
        40.804854
      ],
      [
        -8.112229,
        40.804832
      ],
      [
        -8.112241,
        40.804775
      ],
      [
        -8.112279,
        40.804759
      ],
      [
        -8.112355,
        40.804776
      ],
      [
        -8.112279,
        40.804759
      ],
      [
        -8.112241,
        40.804775
      ],
      [
        -8.112229,
        40.804832
      ],
      [
        -8.112212,
        40.804854
      ],
      [
        -8.112176,
        40.804864
      ],
      [
        -8.112085,
        40.804848
      ],
      [
        -8.112082,
        40.804826
      ],
      [
        -8.112085,
        40.804848
      ],
      [
        -8.112176,
        40.804864
      ],
      [
        -8.112085,
        40.804848
      ],
      [
        -8.112082,
        40.804826
      ],
      [
        -8.112136,
        40.80469
      ],
      [
        -8.112097,
        40.804789
      ],
      [
        -8.112159,
        40.804632
      ],
      [
        -8.112219,
        40.804468
      ],
      [
        -8.112252,
        40.80429
      ],
      [
        -8.112324,
        40.804211
      ],
      [
        -8.112398,
        40.804076
      ],
      [
        -8.112341,
        40.804146
      ],
      [
        -8.112398,
        40.804076
      ],
      [
        -8.112324,
        40.804211
      ],
      [
        -8.112252,
        40.80429
      ],
      [
        -8.112215,
        40.804489
      ],
      [
        -8.112195,
        40.804539
      ],
      [
        -8.112215,
        40.804489
      ],
      [
        -8.112252,
        40.80429
      ],
      [
        -8.112324,
        40.804211
      ],
      [
        -8.112398,
        40.804076
      ],
      [
        -8.112341,
        40.804146
      ],
      [
        -8.112398,
        40.804076
      ],
      [
        -8.112343,
        40.804176
      ],
      [
        -8.112395,
        40.80408
      ],
      [
        -8.112403,
        40.803968
      ],
      [
        -8.112403,
        40.803958
      ],
      [
        -8.112314,
        40.803906
      ],
      [
        -8.112281,
        40.803878
      ],
      [
        -8.112307,
        40.8039
      ],
      [
        -8.112234,
        40.803837
      ],
      [
        -8.112233,
        40.803833
      ],
      [
        -8.112199,
        40.803727
      ],
      [
        -8.112212,
        40.803618
      ],
      [
        -8.112227,
        40.80356
      ],
      [
        -8.112306,
        40.803331
      ],
      [
        -8.112299,
        40.803348
      ],
      [
        -8.112328,
        40.803272
      ],
      [
        -8.112357,
        40.803092
      ],
      [
        -8.112379,
        40.80296
      ],
      [
        -8.112711,
        40.802648
      ],
      [
        -8.112698,
        40.80266
      ],
      [
        -8.112805,
        40.802598
      ],
      [
        -8.112805,
        40.802598
      ],
      [
        -8.112711,
        40.802648
      ],
      [
        -8.112663,
        40.802693
      ],
      [
        -8.112711,
        40.802648
      ],
      [
        -8.112805,
        40.802598
      ],
      [
        -8.112631,
        40.802542
      ],
      [
        -8.112405,
        40.802444
      ],
      [
        -8.112396,
        40.802433
      ],
      [
        -8.112392,
        40.802429
      ],
      [
        -8.112336,
        40.802363
      ],
      [
        -8.112312,
        40.802298
      ],
      [
        -8.112312,
        40.802065
      ],
      [
        -8.112313,
        40.802
      ],
      [
        -8.112313,
        40.802
      ],
      [
        -8.112286,
        40.801736
      ],
      [
        -8.112218,
        40.801551
      ],
      [
        -8.112214,
        40.801541
      ],
      [
        -8.112195,
        40.801488
      ],
      [
        -8.112205,
        40.80124
      ],
      [
        -8.112207,
        40.801194
      ],
      [
        -8.112231,
        40.800833
      ],
      [
        -8.112238,
        40.800773
      ],
      [
        -8.112195,
        40.800692
      ],
      [
        -8.11223,
        40.80076
      ],
      [
        -8.112195,
        40.800692
      ],
      [
        -8.112142,
        40.80065
      ],
      [
        -8.112051,
        40.800601
      ],
      [
        -8.111966,
        40.80058
      ],
      [
        -8.111825,
        40.800546
      ],
      [
        -8.11154,
        40.800492
      ],
      [
        -8.111398,
        40.800476
      ],
      [
        -8.111241,
        40.800458
      ],
      [
        -8.111021,
        40.800458
      ],
      [
        -8.110887,
        40.800475
      ],
      [
        -8.110853,
        40.800493
      ],
      [
        -8.110844,
        40.800497
      ],
      [
        -8.110802,
        40.800519
      ],
      [
        -8.110769,
        40.800536
      ],
      [
        -8.110566,
        40.800795
      ],
      [
        -8.110626,
        40.80072
      ],
      [
        -8.110576,
        40.800791
      ],
      [
        -8.11048,
        40.800828
      ],
      [
        -8.11041,
        40.800796
      ],
      [
        -8.110403,
        40.800668
      ],
      [
        -8.11041,
        40.800796
      ],
      [
        -8.11048,
        40.800828
      ],
      [
        -8.11048,
        40.800828
      ],
      [
        -8.11041,
        40.800796
      ],
      [
        -8.110399,
        40.800686
      ],
      [
        -8.110455,
        40.80042
      ],
      [
        -8.110525,
        40.800101
      ],
      [
        -8.110547,
        40.800037
      ],
      [
        -8.110591,
        40.799917
      ],
      [
        -8.11044,
        40.799739
      ],
      [
        -8.110337,
        40.799619
      ],
      [
        -8.110087,
        40.799367
      ],
      [
        -8.10984,
        40.79906
      ],
      [
        -8.10951,
        40.798694
      ],
      [
        -8.109449,
        40.798631
      ],
      [
        -8.109357,
        40.798536
      ],
      [
        -8.109144,
        40.798225
      ],
      [
        -8.109132,
        40.798114
      ],
      [
        -8.109141,
        40.798073
      ],
      [
        -8.109132,
        40.798114
      ],
      [
        -8.109144,
        40.798225
      ],
      [
        -8.109152,
        40.798237
      ],
      [
        -8.109144,
        40.798225
      ],
      [
        -8.109135,
        40.798141
      ],
      [
        -8.109132,
        40.798114
      ],
      [
        -8.109153,
        40.798016
      ],
      [
        -8.109217,
        40.797854
      ],
      [
        -8.109217,
        40.797703
      ],
      [
        -8.109207,
        40.79765
      ],
      [
        -8.109194,
        40.79758
      ],
      [
        -8.109149,
        40.797352
      ],
      [
        -8.109152,
        40.797185
      ],
      [
        -8.10915,
        40.797291
      ],
      [
        -8.109155,
        40.797035
      ],
      [
        -8.109148,
        40.797009
      ],
      [
        -8.109134,
        40.796946
      ],
      [
        -8.109122,
        40.796897
      ],
      [
        -8.109011,
        40.796677
      ],
      [
        -8.108983,
        40.796621
      ],
      [
        -8.108984,
        40.796576
      ],
      [
        -8.108983,
        40.796621
      ],
      [
        -8.109006,
        40.796667
      ],
      [
        -8.108983,
        40.796621
      ],
      [
        -8.108985,
        40.796464
      ],
      [
        -8.109079,
        40.796381
      ],
      [
        -8.109286,
        40.79624
      ],
      [
        -8.109286,
        40.79624
      ],
      [
        -8.109307,
        40.796229
      ],
      [
        -8.109286,
        40.79624
      ],
      [
        -8.109286,
        40.79624
      ],
      [
        -8.10971,
        40.79601
      ],
      [
        -8.109877,
        40.796003
      ],
      [
        -8.109916,
        40.79601
      ],
      [
        -8.110337,
        40.796079
      ],
      [
        -8.11048,
        40.79605
      ],
      [
        -8.110582,
        40.796
      ],
      [
        -8.110793,
        40.795898
      ],
      [
        -8.111027,
        40.795783
      ],
      [
        -8.11079,
        40.795697
      ],
      [
        -8.110628,
        40.795617
      ],
      [
        -8.110549,
        40.795577
      ],
      [
        -8.110419,
        40.795409
      ],
      [
        -8.110392,
        40.795357
      ],
      [
        -8.110335,
        40.79525
      ],
      [
        -8.110294,
        40.795144
      ],
      [
        -8.110199,
        40.795003
      ],
      [
        -8.110041,
        40.794947
      ],
      [
        -8.109992,
        40.79493
      ],
      [
        -8.109876,
        40.794889
      ],
      [
        -8.10974,
        40.794765
      ],
      [
        -8.109719,
        40.79473
      ],
      [
        -8.10974,
        40.794765
      ],
      [
        -8.109808,
        40.794827
      ],
      [
        -8.10974,
        40.794765
      ],
      [
        -8.109669,
        40.794647
      ],
      [
        -8.109564,
        40.794436
      ],
      [
        -8.109552,
        40.794358
      ],
      [
        -8.109562,
        40.794419
      ],
      [
        -8.109547,
        40.79433
      ],
      [
        -8.109564,
        40.794189
      ],
      [
        -8.109557,
        40.794136
      ],
      [
        -8.109564,
        40.794189
      ],
      [
        -8.1095,
        40.794069
      ],
      [
        -8.109401,
        40.794026
      ],
      [
        -8.109311,
        40.793975
      ],
      [
        -8.109297,
        40.793967
      ],
      [
        -8.109236,
        40.793801
      ],
      [
        -8.109157,
        40.793587
      ],
      [
        -8.109114,
        40.793473
      ],
      [
        -8.108982,
        40.793343
      ],
      [
        -8.108974,
        40.793316
      ],
      [
        -8.10894,
        40.793199
      ],
      [
        -8.108921,
        40.793137
      ],
      [
        -8.108833,
        40.792951
      ],
      [
        -8.108653,
        40.792861
      ],
      [
        -8.108631,
        40.792843
      ],
      [
        -8.108544,
        40.792775
      ],
      [
        -8.108209,
        40.792511
      ],
      [
        -8.108148,
        40.792424
      ],
      [
        -8.10813,
        40.792398
      ],
      [
        -8.107892,
        40.792275
      ],
      [
        -8.107848,
        40.792172
      ],
      [
        -8.107821,
        40.792148
      ],
      [
        -8.107848,
        40.792172
      ],
      [
        -8.107861,
        40.792202
      ],
      [
        -8.107848,
        40.792172
      ],
      [
        -8.107828,
        40.792154
      ],
      [
        -8.107752,
        40.792089
      ],
      [
        -8.107652,
        40.792052
      ],
      [
        -8.107572,
        40.792022
      ],
      [
        -8.10751,
        40.791962
      ],
      [
        -8.107575,
        40.791833
      ],
      [
        -8.107575,
        40.791833
      ],
      [
        -8.107616,
        40.79179
      ],
      [
        -8.107653,
        40.791751
      ],
      [
        -8.107679,
        40.791725
      ],
      [
        -8.10771,
        40.79159
      ],
      [
        -8.107721,
        40.790998
      ],
      [
        -8.107715,
        40.790938
      ],
      [
        -8.107705,
        40.790832
      ],
      [
        -8.107535,
        40.789984
      ],
      [
        -8.107504,
        40.789923
      ],
      [
        -8.10746,
        40.789834
      ],
      [
        -8.107425,
        40.789796
      ],
      [
        -8.107319,
        40.789682
      ],
      [
        -8.107266,
        40.789585
      ],
      [
        -8.107208,
        40.789485
      ],
      [
        -8.107148,
        40.78941
      ],
      [
        -8.107182,
        40.789366
      ],
      [
        -8.107281,
        40.789237
      ],
      [
        -8.107299,
        40.789138
      ],
      [
        -8.10738,
        40.78896
      ],
      [
        -8.107371,
        40.788843
      ],
      [
        -8.107353,
        40.788606
      ],
      [
        -8.107365,
        40.788538
      ],
      [
        -8.107373,
        40.78849
      ],
      [
        -8.107526,
        40.788218
      ],
      [
        -8.107526,
        40.788218
      ],
      [
        -8.107695,
        40.787899
      ],
      [
        -8.107747,
        40.7878
      ],
      [
        -8.107889,
        40.787611
      ],
      [
        -8.108158,
        40.787251
      ],
      [
        -8.108189,
        40.787149
      ],
      [
        -8.108193,
        40.78708
      ],
      [
        -8.108189,
        40.787149
      ],
      [
        -8.108158,
        40.787251
      ],
      [
        -8.108134,
        40.787284
      ],
      [
        -8.108158,
        40.787251
      ],
      [
        -8.108189,
        40.787149
      ],
      [
        -8.108195,
        40.787036
      ],
      [
        -8.108215,
        40.786681
      ],
      [
        -8.108237,
        40.786582
      ],
      [
        -8.10827,
        40.786433
      ],
      [
        -8.108324,
        40.78631
      ],
      [
        -8.108448,
        40.786078
      ],
      [
        -8.10856,
        40.785827
      ],
      [
        -8.108592,
        40.785783
      ],
      [
        -8.108683,
        40.78566
      ],
      [
        -8.108814,
        40.785524
      ],
      [
        -8.108824,
        40.785514
      ],
      [
        -8.108935,
        40.785424
      ],
      [
        -8.110551,
        40.786217
      ],
      [
        -8.11066,
        40.78627
      ],
      [
        -8.111117,
        40.786306
      ],
      [
        -8.112755,
        40.787454
      ],
      [
        -8.113052,
        40.7874225
      ],
      [
        -8.1132826,
        40.787831
      ],
      [
        -8.1134999,
        40.7878513
      ],
      [
        -8.1142348,
        40.7886665
      ]
    ]
  }
}