{
  "type": "Feature",
  "properties": {
    "id": "aveiro-001-sao-martinho_e1q3",
    "name": "Aveiro 001 Sao Martinho",
    "distanceMeters": 12623.186496372902,
    "elevationGainM": 90,
    "elevationsM": [
      76.3,
      null,
      null,
      null,
      null,
      null,
      null,
      null,
      null,
      null,
      null,
      null,
      null,
      null,
      null,
      null,
      null,
      null,
      null,
      null,
      null,
      null,
      null,
      null,
      null,
      null,
      null,
      null,
      null,
      null,
      74.1,
      74.8,
      75.1,
      74.6,
      74.3,
      73.8,
      null,
      null,
      null,
      null,
      null,
      null,
      null,
      null,
      null,
      null,
      null,
      null,
      null,
      null,
      null,
      null,
      null,
      null,
      null,
      null,
      null,
      null,
      null,
      null,
      null,
      null,
      null,
      null,
      null,
      null,
      null,
      null,
      null,
      null,
      null,
      null,
      null,
      null,
      null,
      null,
      null,
      null,
      null,
      null,
      null,
      null,
      null,
      null,
      null,
      null,
      null,
      null,
      null,
      null,
      null,
      null,
      null,
      null,
      null,
      null,
      null,
      null,
      null,
      null,
      null,
      null,
      null,
      null,
      null,
      null,
      null,
      null,
      null,
      null,
      null,
      null,
      null,
      null,
      null,
      null,
      null,
      null,
      null,
      null,
      null,
      null,
      null,
      null,
      null,
      null,
      null,
      null,
      null,
      null,
      null,
      null,
      null,
      null,
      null,
      null,
      null,
      null,
      null,
      null,
      null,
      null,
      null,
      null,
      null,
      null,
      null,
      null,
      null,
      null,
      null,
      null,
      null,
      null,
      null,
      null,
      null,
      null,
      null,
      null,
      null,
      null,
      null,
      null,
      null,
      null,
      null,
      null,
      null,
      null,
      null,
      null,
      null,
      null,
      null,
      null,
      null,
      null,
      null,
      null,
      null,
      null,
      null,
      null,
      null,
      null,
      null,
      null,
      null,
      null,
      null,
      null,
      null,
      null,
      null,
      null,
      null,
      null,
      null,
      null,
      null,
      null,
      null,
      null,
      null,
      null,
      null,
      null,
      null,
      null,
      null,
      null,
      null,
      null,
      null,
      null,
      null,
      null,
      null,
      null,
      null,
      null,
      null,
      null,
      null,
      null,
      null,
      null,
      null,
      null,
      null,
      null,
      null,
      null,
      null,
      null,
      null,
      null,
      null,
      null,
      null,
      null,
      null,
      null,
      null,
      null,
      null,
      null,
      null,
      null,
      null,
      null,
      null,
      null,
      null,
      null,
      null,
      null,
      null,
      null,
      null,
      null,
      null,
      null,
      null,
      null,
      null,
      null,
      null,
      null,
      null,
      null,
      null,
      null,
      null,
      null,
      null,
      null,
      null,
      null,
      null,
      null,
      null,
      null,
      null,
      null,
      null,
      null,
      null,
      null,
      null,
      null,
      null,
      null,
      null,
      null,
      null,
      null,
      null,
      null,
      null,
      null,
      null,
      null,
      null,
      null,
      null,
      null,
      null,
      null,
      null,
      null,
      null,
      null,
      null,
      null,
      null,
      null,
      null,
      null,
      null,
      null,
      null,
      null,
      null,
      null,
      null,
      null,
      null,
      null,
      null,
      null,
      null,
      null,
      null,
      null,
      null,
      null,
      null,
      null,
      null,
      null,
      null,
      null,
      null,
      null,
      null,
      null,
      null,
      null,
      null,
      null,
      null,
      null,
      null,
      null,
      null,
      null,
      null,
      null,
      null,
      null,
      null,
      null,
      null,
      null,
      null,
      null,
      null,
      null,
      null,
      null,
      null,
      null,
      null,
      null,
      null,
      null,
      null,
      null,
      null,
      null,
      null,
      null,
      null,
      null,
      null,
      null,
      null,
      null,
      null,
      null,
      null,
      null,
      null,
      null,
      null,
      null,
      null,
      null,
      null,
      null,
      null,
      null,
      null,
      null,
      null,
      null,
      null,
      null,
      null,
      null,
      null,
      null,
      null,
      null,
      null,
      null,
      null,
      null,
      null,
      null,
      null,
      null,
      null,
      null,
      null,
      null,
      null,
      null,
      null,
      null,
      null,
      null,
      null,
      null,
      null,
      null,
      null,
      null,
      null,
      null,
      null,
      null,
      null,
      null,
      null,
      null,
      null,
      null,
      null,
      null,
      null,
      null,
      null,
      null,
      null,
      null,
      null,
      null,
      null,
      null,
      null,
      null,
      null,
      null,
      null,
      null,
      null,
      null,
      null,
      null,
      null,
      null,
      null,
      null,
      null,
      null,
      null,
      null,
      null,
      null,
      null,
      null,
      null,
      null,
      null,
      null,
      null,
      null,
      null,
      null,
      null,
      null,
      null,
      null,
      null,
      null,
      null,
      null,
      null,
      null,
      null,
      null,
      null,
      null,
      null,
      null,
      null,
      null,
      null,
      null,
      null,
      null,
      null,
      null,
      null,
      null,
      null,
      null,
      null,
      null,
      null,
      null,
      null,
      null,
      null,
      null,
      null,
      null,
      null,
      null,
      null,
      null,
      null,
      null,
      null,
      null,
      null,
      null,
      null,
      null,
      null,
      null,
      null,
      null,
      null,
      null,
      null,
      null,
      null,
      null,
      null,
      null,
      null,
      null,
      null,
      null,
      null,
      null,
      null,
      null,
      null,
      null,
      null,
      null,
      null,
      null,
      null,
      null,
      null,
      null,
      null,
      null,
      null,
      null,
      null,
      null,
      null,
      null,
      null,
      null,
      null,
      null,
      null,
      null,
      null,
      null,
      null,
      null,
      null,
      null,
      null,
      null,
      null,
      null,
      null,
      null,
      null,
      null,
      null,
      null,
      null,
      null,
      null,
      null,
      null,
      null,
      null,
      null,
      null,
      null,
      null,
      null,
      null,
      null,
      null,
      null,
      null,
      null,
      null,
      null,
      null,
      null,
      null,
      null,
      null,
      null,
      null,
      null,
      null,
      null,
      null,
      null,
      null,
      null,
      null,
      null,
      null,
      null,
      null,
      null,
      null,
      null,
      null,
      null,
      null,
      null,
      null,
      null,
      null,
      null,
      null,
      null,
      null,
      null,
      null,
      null,
      null,
      null,
      null,
      null,
      null,
      null,
      null,
      null,
      null,
      null,
      null,
      null,
      null,
      null,
      null,
      null,
      null,
      null,
      null,
      null,
      null,
      null,
      null,
      null,
      null,
      null,
      null,
      null,
      null,
      null,
      null,
      null,
      null,
      null,
      null,
      null,
      null,
      null,
      null,
      null,
      null,
      null,
      null,
      null,
      null,
      null,
      null,
      null,
      null,
      null,
      null,
      null,
      null,
      null,
      null,
      null,
      null,
      null,
      null,
      null,
      null,
      null,
      null,
      null,
      null,
      null,
      null,
      null,
      null,
      null,
      null,
      null,
      null,
      null,
      null,
      null,
      null,
      null,
      null,
      null,
      null,
      null,
      null,
      null,
      null,
      null,
      null,
      null,
      null,
      null,
      null,
      null,
      null,
      null,
      null,
      null,
      null,
      null,
      null,
      null,
      null,
      null,
      null,
      null,
      null,
      null,
      null,
      null,
      null,
      null,
      null,
      null,
      null,
      null,
      null,
      null,
      null,
      null,
      null,
      null,
      null,
      null,
      null,
      null,
      null,
      null,
      null,
      null,
      null,
      null,
      null,
      null,
      null,
      null,
      null,
      null,
      null,
      null,
      null,
      null,
      null,
      null,
      null,
      null,
      null,
      null,
      null,
      null,
      null,
      null,
      null,
      null,
      null,
      null,
      null,
      null,
      null,
      134.8,
      null,
      null,
      null,
      null,
      null,
      null,
      null,
      null,
      null,
      null,
      null,
      null,
      null,
      null,
      null,
      null,
      null,
      null,
      null,
      null,
      null,
      null,
      null,
      null,
      null,
      140.5,
      140.2,
      140.5,
      140.5,
      140.2,
      141.2,
      141.2,
      142.1,
      141.1,
      142.5,
      143.7,
      144.2,
      144.6,
      144.3,
      143.2,
      142.4,
      143,
      144.2,
      145.3,
      144.5,
      145.4,
      144.1,
      143.5,
      144.4,
      144.5,
      145.3,
      144.9,
      144.1,
      144.2,
      143.3,
      143,
      144.1,
      143.7,
      143.4,
      143.7,
      143.4,
      143.3,
      144.1,
      145.3,
      146.1,
      146.2,
      146,
      144.8,
      144.2,
      144.1,
      144.3,
      143.6,
      143.2,
      142.2,
      141.5,
      140.1,
      139.1,
      138.8,
      137.7,
      137.7,
      137.9,
      138.2,
      137.1,
      136.9,
      136.5,
      135.8,
      135.6,
      null,
      null,
      null,
      null,
      null,
      null,
      null,
      null,
      null,
      null,
      null,
      null,
      null,
      null,
      null,
      null,
      null,
      null,
      null,
      null,
      null,
      null,
      null,
      null,
      null,
      null,
      null,
      null,
      null,
      null,
      null,
      null,
      null,
      null,
      null,
      null,
      null,
      null,
      null,
      null,
      null,
      null,
      null,
      null,
      null,
      null,
      null,
      null,
      null,
      null,
      null,
      null,
      null,
      null,
      null,
      null,
      null,
      null,
      null,
      null,
      null,
      null,
      null,
      null,
      null,
      null,
      null,
      null,
      null,
      null,
      null,
      null,
      null,
      null,
      null,
      null,
      null,
      null,
      null,
      null,
      null,
      null,
      null,
      null,
      null,
      null,
      null,
      null,
      null,
      null,
      null,
      null,
      null,
      null,
      null,
      null,
      null,
      null,
      null,
      null,
      null,
      null,
      null,
      null,
      null,
      null,
      null,
      null,
      null,
      null,
      null,
      null,
      null,
      null,
      null,
      null,
      null,
      null,
      null,
      null,
      null,
      null,
      null,
      null,
      null,
      null,
      null,
      null,
      null,
      null,
      129.7,
      130.9,
      132,
      132.8,
      133.7,
      133.5,
      134.9,
      134.7,
      133.9,
      133.9,
      133.3,
      null,
      null,
      null,
      null,
      null,
      null,
      null,
      null,
      null,
      null,
      null,
      null,
      null,
      null,
      null,
      null,
      null,
      null,
      null,
      null,
      null,
      null,
      null,
      null,
      null,
      null,
      null,
      null,
      null,
      null,
      null,
      null,
      null,
      null,
      null,
      null,
      null,
      null,
      null,
      null,
      null,
      null,
      null,
      null,
      null,
      null,
      null,
      null,
      null,
      null,
      null,
      null,
      null,
      null,
      null,
      null,
      null,
      null,
      null,
      null,
      null,
      null,
      null,
      null,
      null,
      null,
      null,
      null,
      null,
      null,
      null,
      null,
      null,
      null,
      null,
      null,
      null,
      null,
      null,
      null,
      null,
      null,
      null,
      null,
      null,
      null,
      null,
      null,
      null,
      null,
      null,
      null,
      null,
      null,
      null,
      null,
      null,
      null,
      null,
      null,
      null,
      null,
      null,
      null,
      null,
      null,
      null,
      null,
      null,
      null,
      null,
      null,
      null,
      null,
      null,
      null,
      null,
      null,
      null,
      null,
      null,
      null,
      null,
      null,
      null,
      null,
      null,
      null,
      null,
      null,
      null,
      null,
      null,
      null,
      null,
      null,
      null,
      null,
      null,
      null,
      null,
      null,
      null,
      null,
      null,
      null,
      null,
      null,
      null,
      null,
      null,
      null,
      null,
      null,
      null,
      null,
      null,
      null,
      null,
      null,
      null,
      null,
      null,
      null,
      null,
      null,
      null,
      null,
      null,
      null,
      null,
      null,
      null,
      null,
      null,
      null,
      null,
      null,
      null,
      null,
      null,
      null,
      null,
      null,
      null,
      null,
      null,
      null,
      null,
      null,
      null,
      null,
      null
    ]
  },
  "geometry": {
    "type": "LineString",
    "coordinates": [
      [
        -8.287859,
        41.054952
      ],
      [
        -8.287898,
        41.055048
      ],
      [
        -8.288127,
        41.054998
      ],
      [
        -8.288264,
        41.054976
      ],
      [
        -8.288314,
        41.054968
      ],
      [
        -8.288503,
        41.054906
      ],
      [
        -8.288644,
        41.05486
      ],
      [
        -8.288632,
        41.054864
      ],
      [
        -8.288713,
        41.054791
      ],
      [
        -8.288725,
        41.054747
      ],
      [
        -8.288726,
        41.054693
      ],
      [
        -8.288713,
        41.054636
      ],
      [
        -8.288704,
        41.054598
      ],
      [
        -8.288696,
        41.054565
      ],
      [
        -8.288643,
        41.054349
      ],
      [
        -8.288633,
        41.054148
      ],
      [
        -8.288647,
        41.054039
      ],
      [
        -8.288681,
        41.053885
      ],
      [
        -8.288719,
        41.053781
      ],
      [
        -8.288752,
        41.053723
      ],
      [
        -8.288794,
        41.053655
      ],
      [
        -8.288802,
        41.053643
      ],
      [
        -8.288844,
        41.053588
      ],
      [
        -8.289101,
        41.053329
      ],
      [
        -8.289251,
        41.053197
      ],
      [
        -8.289404,
        41.05307
      ],
      [
        -8.289475,
        41.053022
      ],
      [
        -8.289499,
        41.053006
      ],
      [
        -8.289808,
        41.052797
      ],
      [
        -8.289797,
        41.052784
      ],
      [
        -8.289559,
        41.052479
      ],
      [
        -8.289425,
        41.052322
      ],
      [
        -8.289232,
        41.052033
      ],
      [
        -8.28913,
        41.051528
      ],
      [
        -8.289087,
        41.051156
      ],
      [
        -8.289132,
        41.051035
      ],
      [
        -8.289205,
        41.050737
      ],
      [
        -8.289229,
        41.050702
      ],
      [
        -8.289474,
        41.050388
      ],
      [
        -8.289573,
        41.05025
      ],
      [
        -8.28958,
        41.050241
      ],
      [
        -8.289666,
        41.050089
      ],
      [
        -8.289683,
        41.050057
      ],
      [
        -8.289721,
        41.049891
      ],
      [
        -8.28971,
        41.049779
      ],
      [
        -8.289705,
        41.049733
      ],
      [
        -8.28956,
        41.049533
      ],
      [
        -8.289399,
        41.04936
      ],
      [
        -8.289095,
        41.049083
      ],
      [
        -8.288426,
        41.048374
      ],
      [
        -8.288469,
        41.048423
      ],
      [
        -8.288533,
        41.048392
      ],
      [
        -8.288595,
        41.048378
      ],
      [
        -8.288642,
        41.048371
      ],
      [
        -8.288687,
        41.048371
      ],
      [
        -8.288739,
        41.048372
      ],
      [
        -8.288796,
        41.048371
      ],
      [
        -8.288806,
        41.048368
      ],
      [
        -8.288832,
        41.048362
      ],
      [
        -8.288914,
        41.048317
      ],
      [
        -8.288945,
        41.048282
      ],
      [
        -8.28898,
        41.048275
      ],
      [
        -8.289071,
        41.048293
      ],
      [
        -8.289172,
        41.048313
      ],
      [
        -8.289182,
        41.048315
      ],
      [
        -8.289271,
        41.048332
      ],
      [
        -8.289317,
        41.04833
      ],
      [
        -8.289361,
        41.048309
      ],
      [
        -8.289389,
        41.048285
      ],
      [
        -8.289502,
        41.048193
      ],
      [
        -8.289677,
        41.048067
      ],
      [
        -8.289695,
        41.048054
      ],
      [
        -8.289731,
        41.048015
      ],
      [
        -8.289745,
        41.047998
      ],
      [
        -8.289753,
        41.047946
      ],
      [
        -8.289757,
        41.047921
      ],
      [
        -8.28978,
        41.047887
      ],
      [
        -8.289812,
        41.047843
      ],
      [
        -8.289867,
        41.0478
      ],
      [
        -8.289898,
        41.047776
      ],
      [
        -8.289941,
        41.047758
      ],
      [
        -8.28997,
        41.047745
      ],
      [
        -8.290015,
        41.047716
      ],
      [
        -8.290045,
        41.047681
      ],
      [
        -8.290089,
        41.04763
      ],
      [
        -8.290106,
        41.047609
      ],
      [
        -8.290137,
        41.047573
      ],
      [
        -8.290193,
        41.047564
      ],
      [
        -8.290206,
        41.047551
      ],
      [
        -8.290264,
        41.047455
      ],
      [
        -8.290295,
        41.047426
      ],
      [
        -8.290348,
        41.047415
      ],
      [
        -8.290398,
        41.047425
      ],
      [
        -8.290617,
        41.047532
      ],
      [
        -8.290867,
        41.047632
      ],
      [
        -8.290908,
        41.047642
      ],
      [
        -8.290926,
        41.047647
      ],
      [
        -8.291007,
        41.047659
      ],
      [
        -8.291136,
        41.047652
      ],
      [
        -8.291241,
        41.047631
      ],
      [
        -8.29125,
        41.04763
      ],
      [
        -8.291365,
        41.047628
      ],
      [
        -8.291409,
        41.047621
      ],
      [
        -8.291434,
        41.047614
      ],
      [
        -8.29172,
        41.047518
      ],
      [
        -8.291848,
        41.047473
      ],
      [
        -8.291977,
        41.047426
      ],
      [
        -8.292008,
        41.047413
      ],
      [
        -8.292051,
        41.047379
      ],
      [
        -8.292064,
        41.047331
      ],
      [
        -8.292049,
        41.047255
      ],
      [
        -8.292047,
        41.047246
      ],
      [
        -8.291941,
        41.04686
      ],
      [
        -8.29194,
        41.046833
      ],
      [
        -8.291961,
        41.046801
      ],
      [
        -8.291985,
        41.046795
      ],
      [
        -8.292012,
        41.046789
      ],
      [
        -8.292114,
        41.046796
      ],
      [
        -8.292147,
        41.046802
      ],
      [
        -8.292289,
        41.046825
      ],
      [
        -8.292465,
        41.046853
      ],
      [
        -8.292594,
        41.046871
      ],
      [
        -8.292684,
        41.04688
      ],
      [
        -8.292761,
        41.046879
      ],
      [
        -8.292802,
        41.046878
      ],
      [
        -8.292929,
        41.046929
      ],
      [
        -8.292993,
        41.047024
      ],
      [
        -8.293027,
        41.047033
      ],
      [
        -8.293096,
        41.047029
      ],
      [
        -8.293162,
        41.047026
      ],
      [
        -8.293285,
        41.047019
      ],
      [
        -8.293319,
        41.047015
      ],
      [
        -8.293441,
        41.04699
      ],
      [
        -8.293561,
        41.046942
      ],
      [
        -8.293611,
        41.046905
      ],
      [
        -8.293648,
        41.04683
      ],
      [
        -8.293683,
        41.046664
      ],
      [
        -8.293703,
        41.04657
      ],
      [
        -8.293569,
        41.046493
      ],
      [
        -8.293479,
        41.046427
      ],
      [
        -8.293328,
        41.046335
      ],
      [
        -8.293285,
        41.046288
      ],
      [
        -8.293262,
        41.046262
      ],
      [
        -8.293222,
        41.046183
      ],
      [
        -8.29322,
        41.046108
      ],
      [
        -8.29322,
        41.046095
      ],
      [
        -8.293216,
        41.045886
      ],
      [
        -8.293213,
        41.04575
      ],
      [
        -8.293211,
        41.045672
      ],
      [
        -8.293194,
        41.045474
      ],
      [
        -8.293192,
        41.045453
      ],
      [
        -8.293131,
        41.045367
      ],
      [
        -8.293101,
        41.045325
      ],
      [
        -8.292948,
        41.045177
      ],
      [
        -8.292865,
        41.045117
      ],
      [
        -8.292795,
        41.045066
      ],
      [
        -8.292744,
        41.045051
      ],
      [
        -8.292573,
        41.045018
      ],
      [
        -8.292387,
        41.04501
      ],
      [
        -8.292324,
        41.045008
      ],
      [
        -8.292203,
        41.045022
      ],
      [
        -8.292106,
        41.045057
      ],
      [
        -8.292082,
        41.045072
      ],
      [
        -8.292061,
        41.045085
      ],
      [
        -8.292034,
        41.04512
      ],
      [
        -8.292034,
        41.045162
      ],
      [
        -8.292052,
        41.045231
      ],
      [
        -8.292169,
        41.045393
      ],
      [
        -8.292213,
        41.045454
      ],
      [
        -8.292233,
        41.045493
      ],
      [
        -8.292236,
        41.045504
      ],
      [
        -8.29222,
        41.045519
      ],
      [
        -8.292195,
        41.04552
      ],
      [
        -8.292177,
        41.045521
      ],
      [
        -8.292126,
        41.045501
      ],
      [
        -8.292002,
        41.045431
      ],
      [
        -8.291877,
        41.045407
      ],
      [
        -8.291749,
        41.045412
      ],
      [
        -8.291699,
        41.045421
      ],
      [
        -8.291635,
        41.045433
      ],
      [
        -8.291447,
        41.04544
      ],
      [
        -8.291383,
        41.045419
      ],
      [
        -8.291335,
        41.045384
      ],
      [
        -8.291319,
        41.045345
      ],
      [
        -8.291301,
        41.045255
      ],
      [
        -8.291301,
        41.044907
      ],
      [
        -8.291301,
        41.044891
      ],
      [
        -8.291292,
        41.044824
      ],
      [
        -8.29126,
        41.044785
      ],
      [
        -8.29123,
        41.044764
      ],
      [
        -8.291177,
        41.044743
      ],
      [
        -8.291103,
        41.044725
      ],
      [
        -8.291056,
        41.044714
      ],
      [
        -8.290934,
        41.044676
      ],
      [
        -8.290864,
        41.044642
      ],
      [
        -8.29084,
        41.04463
      ],
      [
        -8.290785,
        41.044594
      ],
      [
        -8.290749,
        41.044508
      ],
      [
        -8.29077,
        41.044485
      ],
      [
        -8.291008,
        41.044217
      ],
      [
        -8.291014,
        41.044175
      ],
      [
        -8.291014,
        41.044185
      ],
      [
        -8.291011,
        41.044139
      ],
      [
        -8.290996,
        41.044113
      ],
      [
        -8.29098,
        41.044095
      ],
      [
        -8.290943,
        41.044067
      ],
      [
        -8.290783,
        41.044003
      ],
      [
        -8.29072,
        41.043986
      ],
      [
        -8.290651,
        41.043974
      ],
      [
        -8.290522,
        41.043967
      ],
      [
        -8.290359,
        41.043979
      ],
      [
        -8.290154,
        41.043999
      ],
      [
        -8.290061,
        41.043989
      ],
      [
        -8.289958,
        41.043959
      ],
      [
        -8.289796,
        41.043912
      ],
      [
        -8.289689,
        41.043881
      ],
      [
        -8.289628,
        41.043855
      ],
      [
        -8.28952,
        41.04381
      ],
      [
        -8.289491,
        41.043785
      ],
      [
        -8.289462,
        41.043752
      ],
      [
        -8.289443,
        41.043721
      ],
      [
        -8.289428,
        41.043666
      ],
      [
        -8.289378,
        41.043527
      ],
      [
        -8.289329,
        41.043464
      ],
      [
        -8.289307,
        41.043451
      ],
      [
        -8.289276,
        41.043435
      ],
      [
        -8.28918,
        41.043402
      ],
      [
        -8.289097,
        41.043404
      ],
      [
        -8.289058,
        41.043414
      ],
      [
        -8.289069,
        41.043411
      ],
      [
        -8.28903,
        41.043422
      ],
      [
        -8.289042,
        41.043419
      ],
      [
        -8.28903,
        41.043422
      ],
      [
        -8.289008,
        41.043454
      ],
      [
        -8.288975,
        41.043534
      ],
      [
        -8.288952,
        41.04359
      ],
      [
        -8.288888,
        41.043663
      ],
      [
        -8.288839,
        41.04372
      ],
      [
        -8.288816,
        41.043746
      ],
      [
        -8.288789,
        41.043775
      ],
      [
        -8.288738,
        41.043818
      ],
      [
        -8.288611,
        41.043918
      ],
      [
        -8.2886,
        41.043928
      ],
      [
        -8.288578,
        41.043949
      ],
      [
        -8.288571,
        41.043977
      ],
      [
        -8.288567,
        41.043992
      ],
      [
        -8.288564,
        41.044003
      ],
      [
        -8.288625,
        41.04407
      ],
      [
        -8.288623,
        41.04409
      ],
      [
        -8.2886,
        41.044103
      ],
      [
        -8.28856,
        41.044117
      ],
      [
        -8.28855,
        41.044118
      ],
      [
        -8.288421,
        41.044132
      ],
      [
        -8.288373,
        41.044145
      ],
      [
        -8.288337,
        41.044166
      ],
      [
        -8.288204,
        41.044241
      ],
      [
        -8.288111,
        41.044303
      ],
      [
        -8.288052,
        41.044344
      ],
      [
        -8.288018,
        41.044353
      ],
      [
        -8.287953,
        41.044341
      ],
      [
        -8.287963,
        41.044343
      ],
      [
        -8.287797,
        41.044316
      ],
      [
        -8.287739,
        41.044315
      ],
      [
        -8.287691,
        41.0443
      ],
      [
        -8.287629,
        41.044265
      ],
      [
        -8.287643,
        41.044273
      ],
      [
        -8.287614,
        41.044257
      ],
      [
        -8.287584,
        41.044254
      ],
      [
        -8.287518,
        41.044261
      ],
      [
        -8.287444,
        41.044268
      ],
      [
        -8.287433,
        41.044268
      ],
      [
        -8.287338,
        41.044244
      ],
      [
        -8.287272,
        41.04422
      ],
      [
        -8.287243,
        41.044209
      ],
      [
        -8.287218,
        41.04412
      ],
      [
        -8.287227,
        41.044034
      ],
      [
        -8.287238,
        41.043928
      ],
      [
        -8.287242,
        41.043894
      ],
      [
        -8.287226,
        41.043829
      ],
      [
        -8.287197,
        41.043785
      ],
      [
        -8.287134,
        41.043688
      ],
      [
        -8.286968,
        41.043429
      ],
      [
        -8.286947,
        41.043396
      ],
      [
        -8.286928,
        41.043332
      ],
      [
        -8.286931,
        41.043279
      ],
      [
        -8.286955,
        41.043118
      ],
      [
        -8.286985,
        41.043069
      ],
      [
        -8.287011,
        41.043026
      ],
      [
        -8.287011,
        41.042959
      ],
      [
        -8.287,
        41.042921
      ],
      [
        -8.287003,
        41.042931
      ],
      [
        -8.28699,
        41.042883
      ],
      [
        -8.28693,
        41.042862
      ],
      [
        -8.286834,
        41.042808
      ],
      [
        -8.286841,
        41.042814
      ],
      [
        -8.286802,
        41.042785
      ],
      [
        -8.286786,
        41.042758
      ],
      [
        -8.286766,
        41.042724
      ],
      [
        -8.286744,
        41.042628
      ],
      [
        -8.286744,
        41.04262
      ],
      [
        -8.28674,
        41.042561
      ],
      [
        -8.286776,
        41.042362
      ],
      [
        -8.286783,
        41.042326
      ],
      [
        -8.286765,
        41.042238
      ],
      [
        -8.286754,
        41.042217
      ],
      [
        -8.286674,
        41.042037
      ],
      [
        -8.286635,
        41.041937
      ],
      [
        -8.286642,
        41.041925
      ],
      [
        -8.286662,
        41.041887
      ],
      [
        -8.286697,
        41.041785
      ],
      [
        -8.286703,
        41.041676
      ],
      [
        -8.28667,
        41.041488
      ],
      [
        -8.286657,
        41.041415
      ],
      [
        -8.286656,
        41.0414
      ],
      [
        -8.2867,
        41.04133
      ],
      [
        -8.28678,
        41.041273
      ],
      [
        -8.286836,
        41.041251
      ],
      [
        -8.287059,
        41.041159
      ],
      [
        -8.287076,
        41.041151
      ],
      [
        -8.287124,
        41.041127
      ],
      [
        -8.287181,
        41.041075
      ],
      [
        -8.287204,
        41.04104
      ],
      [
        -8.287143,
        41.040833
      ],
      [
        -8.287121,
        41.040757
      ],
      [
        -8.287123,
        41.040765
      ],
      [
        -8.287081,
        41.040692
      ],
      [
        -8.28706,
        41.040544
      ],
      [
        -8.287051,
        41.040511
      ],
      [
        -8.287024,
        41.040427
      ],
      [
        -8.287007,
        41.04044
      ],
      [
        -8.286968,
        41.040448
      ],
      [
        -8.286939,
        41.040445
      ],
      [
        -8.286496,
        41.040405
      ],
      [
        -8.286392,
        41.040386
      ],
      [
        -8.286323,
        41.040359
      ],
      [
        -8.285639,
        41.039887
      ],
      [
        -8.285534,
        41.039739
      ],
      [
        -8.285508,
        41.039706
      ],
      [
        -8.285456,
        41.039654
      ],
      [
        -8.28544,
        41.039641
      ],
      [
        -8.285262,
        41.039518
      ],
      [
        -8.285203,
        41.03949
      ],
      [
        -8.2849,
        41.039347
      ],
      [
        -8.284796,
        41.039306
      ],
      [
        -8.284708,
        41.039283
      ],
      [
        -8.284633,
        41.03928
      ],
      [
        -8.284621,
        41.039281
      ],
      [
        -8.284515,
        41.03929
      ],
      [
        -8.284462,
        41.039302
      ],
      [
        -8.284083,
        41.039393
      ],
      [
        -8.284066,
        41.039394
      ],
      [
        -8.283958,
        41.039399
      ],
      [
        -8.283714,
        41.03939
      ],
      [
        -8.283548,
        41.039386
      ],
      [
        -8.283419,
        41.039398
      ],
      [
        -8.283288,
        41.039412
      ],
      [
        -8.28312,
        41.039431
      ],
      [
        -8.282958,
        41.039449
      ],
      [
        -8.282879,
        41.039457
      ],
      [
        -8.282803,
        41.039465
      ],
      [
        -8.282739,
        41.039465
      ],
      [
        -8.282712,
        41.039458
      ],
      [
        -8.282721,
        41.03946
      ],
      [
        -8.282637,
        41.039438
      ],
      [
        -8.282469,
        41.039417
      ],
      [
        -8.282355,
        41.039419
      ],
      [
        -8.282329,
        41.03943
      ],
      [
        -8.28229,
        41.039446
      ],
      [
        -8.282215,
        41.039504
      ],
      [
        -8.282202,
        41.039514
      ],
      [
        -8.282166,
        41.039542
      ],
      [
        -8.281966,
        41.039624
      ],
      [
        -8.281696,
        41.03976
      ],
      [
        -8.281392,
        41.039938
      ],
      [
        -8.281368,
        41.039955
      ],
      [
        -8.281343,
        41.040003
      ],
      [
        -8.281308,
        41.040124
      ],
      [
        -8.28127,
        41.040188
      ],
      [
        -8.281249,
        41.040216
      ],
      [
        -8.281127,
        41.040304
      ],
      [
        -8.281007,
        41.040418
      ],
      [
        -8.280996,
        41.040441
      ],
      [
        -8.280979,
        41.040479
      ],
      [
        -8.280954,
        41.040571
      ],
      [
        -8.28095,
        41.040698
      ],
      [
        -8.280951,
        41.040732
      ],
      [
        -8.281006,
        41.040921
      ],
      [
        -8.281078,
        41.041195
      ],
      [
        -8.281117,
        41.041244
      ],
      [
        -8.281164,
        41.041278
      ],
      [
        -8.281436,
        41.041315
      ],
      [
        -8.281472,
        41.04132
      ],
      [
        -8.281569,
        41.041354
      ],
      [
        -8.281664,
        41.041387
      ],
      [
        -8.281724,
        41.041415
      ],
      [
        -8.281796,
        41.041435
      ],
      [
        -8.282037,
        41.041476
      ],
      [
        -8.282171,
        41.041499
      ],
      [
        -8.282294,
        41.041519
      ],
      [
        -8.282317,
        41.04153
      ],
      [
        -8.282387,
        41.041561
      ],
      [
        -8.282376,
        41.041728
      ],
      [
        -8.282306,
        41.041755
      ],
      [
        -8.282273,
        41.04177
      ],
      [
        -8.282336,
        41.041949
      ],
      [
        -8.282363,
        41.042095
      ],
      [
        -8.282369,
        41.042127
      ],
      [
        -8.2824,
        41.042178
      ],
      [
        -8.282528,
        41.042264
      ],
      [
        -8.282552,
        41.04229
      ],
      [
        -8.282585,
        41.042326
      ],
      [
        -8.282659,
        41.042473
      ],
      [
        -8.282737,
        41.042626
      ],
      [
        -8.28277,
        41.04266
      ],
      [
        -8.283057,
        41.042951
      ],
      [
        -8.283094,
        41.042983
      ],
      [
        -8.283135,
        41.043015
      ],
      [
        -8.283253,
        41.043194
      ],
      [
        -8.283287,
        41.043247
      ],
      [
        -8.283314,
        41.043343
      ],
      [
        -8.283444,
        41.043641
      ],
      [
        -8.283441,
        41.04368
      ],
      [
        -8.283409,
        41.043733
      ],
      [
        -8.283438,
        41.04376
      ],
      [
        -8.283501,
        41.043878
      ],
      [
        -8.283596,
        41.044044
      ],
      [
        -8.283615,
        41.044055
      ],
      [
        -8.283673,
        41.044088
      ],
      [
        -8.283727,
        41.044119
      ],
      [
        -8.283743,
        41.044127
      ],
      [
        -8.283808,
        41.044176
      ],
      [
        -8.283839,
        41.044232
      ],
      [
        -8.283835,
        41.044219
      ],
      [
        -8.283851,
        41.044265
      ],
      [
        -8.283854,
        41.04431
      ],
      [
        -8.283837,
        41.044351
      ],
      [
        -8.283823,
        41.044374
      ],
      [
        -8.283791,
        41.044423
      ],
      [
        -8.283773,
        41.044452
      ],
      [
        -8.283768,
        41.044498
      ],
      [
        -8.283782,
        41.044568
      ],
      [
        -8.283805,
        41.044618
      ],
      [
        -8.283907,
        41.04483
      ],
      [
        -8.283969,
        41.044863
      ],
      [
        -8.283947,
        41.044919
      ],
      [
        -8.283909,
        41.045031
      ],
      [
        -8.283955,
        41.045106
      ],
      [
        -8.283999,
        41.045177
      ],
      [
        -8.283998,
        41.045233
      ],
      [
        -8.283992,
        41.0453
      ],
      [
        -8.283992,
        41.045372
      ],
      [
        -8.284004,
        41.045448
      ],
      [
        -8.284041,
        41.045535
      ],
      [
        -8.284093,
        41.045646
      ],
      [
        -8.284152,
        41.045738
      ],
      [
        -8.284235,
        41.045875
      ],
      [
        -8.284252,
        41.045935
      ],
      [
        -8.284267,
        41.046028
      ],
      [
        -8.284271,
        41.046042
      ],
      [
        -8.284285,
        41.046061
      ],
      [
        -8.284357,
        41.046149
      ],
      [
        -8.284376,
        41.046169
      ],
      [
        -8.284377,
        41.046193
      ],
      [
        -8.284358,
        41.046242
      ],
      [
        -8.284314,
        41.046306
      ],
      [
        -8.28432,
        41.046297
      ],
      [
        -8.284297,
        41.04633
      ],
      [
        -8.284152,
        41.046423
      ],
      [
        -8.28409,
        41.046464
      ],
      [
        -8.28406,
        41.046494
      ],
      [
        -8.284051,
        41.046506
      ],
      [
        -8.284038,
        41.046522
      ],
      [
        -8.283867,
        41.046562
      ],
      [
        -8.283851,
        41.046641
      ],
      [
        -8.283843,
        41.04668
      ],
      [
        -8.283837,
        41.04667
      ],
      [
        -8.283847,
        41.046688
      ],
      [
        -8.284032,
        41.047094
      ],
      [
        -8.284056,
        41.047166
      ],
      [
        -8.284097,
        41.047288
      ],
      [
        -8.284153,
        41.047352
      ],
      [
        -8.284263,
        41.047476
      ],
      [
        -8.284387,
        41.047532
      ],
      [
        -8.284437,
        41.047539
      ],
      [
        -8.284772,
        41.047588
      ],
      [
        -8.284837,
        41.047598
      ],
      [
        -8.28491,
        41.047624
      ],
      [
        -8.285054,
        41.047646
      ],
      [
        -8.285183,
        41.047678
      ],
      [
        -8.285292,
        41.047749
      ],
      [
        -8.285328,
        41.047772
      ],
      [
        -8.285446,
        41.047848
      ],
      [
        -8.285551,
        41.047949
      ],
      [
        -8.285645,
        41.048093
      ],
      [
        -8.285653,
        41.04819
      ],
      [
        -8.285658,
        41.048257
      ],
      [
        -8.285722,
        41.048376
      ],
      [
        -8.285786,
        41.048463
      ],
      [
        -8.285805,
        41.04849
      ],
      [
        -8.285856,
        41.048626
      ],
      [
        -8.285856,
        41.048686
      ],
      [
        -8.285811,
        41.048868
      ],
      [
        -8.285795,
        41.048932
      ],
      [
        -8.285781,
        41.049031
      ],
      [
        -8.28578,
        41.049099
      ],
      [
        -8.285768,
        41.049214
      ],
      [
        -8.285718,
        41.049338
      ],
      [
        -8.285681,
        41.049391
      ],
      [
        -8.285648,
        41.04944
      ],
      [
        -8.285624,
        41.049473
      ],
      [
        -8.285587,
        41.049527
      ],
      [
        -8.285539,
        41.04958
      ],
      [
        -8.285432,
        41.049647
      ],
      [
        -8.285392,
        41.049665
      ],
      [
        -8.285306,
        41.049679
      ],
      [
        -8.285285,
        41.049679
      ],
      [
        -8.285103,
        41.049679
      ],
      [
        -8.284991,
        41.049669
      ],
      [
        -8.284883,
        41.04966
      ],
      [
        -8.284636,
        41.049645
      ],
      [
        -8.284596,
        41.049643
      ],
      [
        -8.28451,
        41.049659
      ],
      [
        -8.284394,
        41.049714
      ],
      [
        -8.284351,
        41.049746
      ],
      [
        -8.284294,
        41.049828
      ],
      [
        -8.28413,
        41.050066
      ],
      [
        -8.284101,
        41.050111
      ],
      [
        -8.284097,
        41.050152
      ],
      [
        -8.284106,
        41.050232
      ],
      [
        -8.284132,
        41.050291
      ],
      [
        -8.284139,
        41.050304
      ],
      [
        -8.284167,
        41.050355
      ],
      [
        -8.284222,
        41.050447
      ],
      [
        -8.284305,
        41.05056
      ],
      [
        -8.284363,
        41.050614
      ],
      [
        -8.284419,
        41.050666
      ],
      [
        -8.284453,
        41.050691
      ],
      [
        -8.284468,
        41.0507
      ],
      [
        -8.284517,
        41.050754
      ],
      [
        -8.284529,
        41.050807
      ],
      [
        -8.284535,
        41.050837
      ],
      [
        -8.284529,
        41.050857
      ],
      [
        -8.284456,
        41.051067
      ],
      [
        -8.284428,
        41.051107
      ],
      [
        -8.284411,
        41.051131
      ],
      [
        -8.284395,
        41.051149
      ],
      [
        -8.284294,
        41.051263
      ],
      [
        -8.284201,
        41.05138
      ],
      [
        -8.284136,
        41.051397
      ],
      [
        -8.284095,
        41.051419
      ],
      [
        -8.284045,
        41.051444
      ],
      [
        -8.283918,
        41.051488
      ],
      [
        -8.283865,
        41.051506
      ],
      [
        -8.283682,
        41.051544
      ],
      [
        -8.283519,
        41.051589
      ],
      [
        -8.283202,
        41.051685
      ],
      [
        -8.283167,
        41.051694
      ],
      [
        -8.283075,
        41.051719
      ],
      [
        -8.282965,
        41.051733
      ],
      [
        -8.282875,
        41.051744
      ],
      [
        -8.282811,
        41.051764
      ],
      [
        -8.282772,
        41.051785
      ],
      [
        -8.282734,
        41.051804
      ],
      [
        -8.282637,
        41.051898
      ],
      [
        -8.282595,
        41.051982
      ],
      [
        -8.282587,
        41.051999
      ],
      [
        -8.282558,
        41.052098
      ],
      [
        -8.282547,
        41.052135
      ],
      [
        -8.282461,
        41.052254
      ],
      [
        -8.282455,
        41.05226
      ],
      [
        -8.282411,
        41.052289
      ],
      [
        -8.282376,
        41.052305
      ],
      [
        -8.282258,
        41.052351
      ],
      [
        -8.282181,
        41.052379
      ],
      [
        -8.282088,
        41.052413
      ],
      [
        -8.281998,
        41.05244
      ],
      [
        -8.281947,
        41.052443
      ],
      [
        -8.281882,
        41.052435
      ],
      [
        -8.281899,
        41.052437
      ],
      [
        -8.281829,
        41.052428
      ],
      [
        -8.281706,
        41.052372
      ],
      [
        -8.281543,
        41.052309
      ],
      [
        -8.281466,
        41.052301
      ],
      [
        -8.281457,
        41.052302
      ],
      [
        -8.281429,
        41.052308
      ],
      [
        -8.281397,
        41.052326
      ],
      [
        -8.281367,
        41.052375
      ],
      [
        -8.281358,
        41.052403
      ],
      [
        -8.281317,
        41.052633
      ],
      [
        -8.281315,
        41.052642
      ],
      [
        -8.281256,
        41.052661
      ],
      [
        -8.281177,
        41.052754
      ],
      [
        -8.281171,
        41.052761
      ],
      [
        -8.281125,
        41.052796
      ],
      [
        -8.281031,
        41.052842
      ],
      [
        -8.280988,
        41.052851
      ],
      [
        -8.280861,
        41.052882
      ],
      [
        -8.280829,
        41.052892
      ],
      [
        -8.280631,
        41.052955
      ],
      [
        -8.280537,
        41.052993
      ],
      [
        -8.280549,
        41.052988
      ],
      [
        -8.280423,
        41.053046
      ],
      [
        -8.280372,
        41.053048
      ],
      [
        -8.280236,
        41.053025
      ],
      [
        -8.280181,
        41.053016
      ],
      [
        -8.280153,
        41.052988
      ],
      [
        -8.280143,
        41.052979
      ],
      [
        -8.280144,
        41.052962
      ],
      [
        -8.28018,
        41.052847
      ],
      [
        -8.280209,
        41.052764
      ],
      [
        -8.280187,
        41.052733
      ],
      [
        -8.280144,
        41.052671
      ],
      [
        -8.280134,
        41.052636
      ],
      [
        -8.280137,
        41.052646
      ],
      [
        -8.280139,
        41.052607
      ],
      [
        -8.280148,
        41.052563
      ],
      [
        -8.280171,
        41.052412
      ],
      [
        -8.280175,
        41.052297
      ],
      [
        -8.280176,
        41.052269
      ],
      [
        -8.280177,
        41.052253
      ],
      [
        -8.28017,
        41.052242
      ],
      [
        -8.280176,
        41.052252
      ],
      [
        -8.280139,
        41.05219
      ],
      [
        -8.280075,
        41.052131
      ],
      [
        -8.280048,
        41.052119
      ],
      [
        -8.280035,
        41.052122
      ],
      [
        -8.280048,
        41.052119
      ],
      [
        -8.280014,
        41.052126
      ],
      [
        -8.27999,
        41.05215
      ],
      [
        -8.279949,
        41.052225
      ],
      [
        -8.279918,
        41.052282
      ],
      [
        -8.279849,
        41.052382
      ],
      [
        -8.279828,
        41.052409
      ],
      [
        -8.279742,
        41.052432
      ],
      [
        -8.279711,
        41.052437
      ],
      [
        -8.279604,
        41.052441
      ],
      [
        -8.279433,
        41.052446
      ],
      [
        -8.27942,
        41.052447
      ],
      [
        -8.279343,
        41.052456
      ],
      [
        -8.279251,
        41.052471
      ],
      [
        -8.279123,
        41.052479
      ],
      [
        -8.279054,
        41.052482
      ],
      [
        -8.278812,
        41.052492
      ],
      [
        -8.278635,
        41.052499
      ],
      [
        -8.278644,
        41.052499
      ],
      [
        -8.278588,
        41.052515
      ],
      [
        -8.278522,
        41.052539
      ],
      [
        -8.278394,
        41.052603
      ],
      [
        -8.278199,
        41.05262
      ],
      [
        -8.278199,
        41.052673
      ],
      [
        -8.278195,
        41.052733
      ],
      [
        -8.278187,
        41.052811
      ],
      [
        -8.278197,
        41.052906
      ],
      [
        -8.278206,
        41.052926
      ],
      [
        -8.278285,
        41.053059
      ],
      [
        -8.278314,
        41.053074
      ],
      [
        -8.278457,
        41.053131
      ],
      [
        -8.278666,
        41.053205
      ],
      [
        -8.278777,
        41.053244
      ],
      [
        -8.278833,
        41.053281
      ],
      [
        -8.278992,
        41.053387
      ],
      [
        -8.27911,
        41.053465
      ],
      [
        -8.279138,
        41.053492
      ],
      [
        -8.279206,
        41.053555
      ],
      [
        -8.27931,
        41.053606
      ],
      [
        -8.279356,
        41.053627
      ],
      [
        -8.279495,
        41.053679
      ],
      [
        -8.279524,
        41.0537
      ],
      [
        -8.27957,
        41.053744
      ],
      [
        -8.279621,
        41.053802
      ],
      [
        -8.279822,
        41.054015
      ],
      [
        -8.279865,
        41.054058
      ],
      [
        -8.279967,
        41.054214
      ],
      [
        -8.280009,
        41.054281
      ],
      [
        -8.280046,
        41.054338
      ],
      [
        -8.280075,
        41.054384
      ],
      [
        -8.28014,
        41.054429
      ],
      [
        -8.280167,
        41.054459
      ],
      [
        -8.280331,
        41.054494
      ],
      [
        -8.280543,
        41.054565
      ],
      [
        -8.280637,
        41.054607
      ],
      [
        -8.280698,
        41.054636
      ],
      [
        -8.280778,
        41.054695
      ],
      [
        -8.280977,
        41.054884
      ],
      [
        -8.281001,
        41.054907
      ],
      [
        -8.281035,
        41.054972
      ],
      [
        -8.281122,
        41.055195
      ],
      [
        -8.281147,
        41.055239
      ],
      [
        -8.281184,
        41.055302
      ],
      [
        -8.281221,
        41.055334
      ],
      [
        -8.281269,
        41.055373
      ],
      [
        -8.281319,
        41.055398
      ],
      [
        -8.281435,
        41.055415
      ],
      [
        -8.281558,
        41.055398
      ],
      [
        -8.281639,
        41.055387
      ],
      [
        -8.281709,
        41.055396
      ],
      [
        -8.28175,
        41.055417
      ],
      [
        -8.281776,
        41.05543
      ],
      [
        -8.281957,
        41.055608
      ],
      [
        -8.281974,
        41.05563
      ],
      [
        -8.282016,
        41.055712
      ],
      [
        -8.282025,
        41.055729
      ],
      [
        -8.282031,
        41.055746
      ],
      [
        -8.282048,
        41.055831
      ],
      [
        -8.282046,
        41.055939
      ],
      [
        -8.282046,
        41.055981
      ],
      [
        -8.282044,
        41.056061
      ],
      [
        -8.282064,
        41.05629
      ],
      [
        -8.282072,
        41.056386
      ],
      [
        -8.28207,
        41.056614
      ],
      [
        -8.282087,
        41.056664
      ],
      [
        -8.282084,
        41.056654
      ],
      [
        -8.282109,
        41.056726
      ],
      [
        -8.282143,
        41.056774
      ],
      [
        -8.28219,
        41.056814
      ],
      [
        -8.282272,
        41.056851
      ],
      [
        -8.282265,
        41.056859
      ],
      [
        -8.282272,
        41.056851
      ],
      [
        -8.282298,
        41.056862
      ],
      [
        -8.28238,
        41.056894
      ],
      [
        -8.282423,
        41.05692
      ],
      [
        -8.282465,
        41.056968
      ],
      [
        -8.282511,
        41.05705
      ],
      [
        -8.282524,
        41.057079
      ],
      [
        -8.282601,
        41.057245
      ],
      [
        -8.282646,
        41.057343
      ],
      [
        -8.282667,
        41.057427
      ],
      [
        -8.282666,
        41.05747
      ],
      [
        -8.282666,
        41.057492
      ],
      [
        -8.282632,
        41.057557
      ],
      [
        -8.282612,
        41.057582
      ],
      [
        -8.282528,
        41.057688
      ],
      [
        -8.282554,
        41.057655
      ],
      [
        -8.282528,
        41.057688
      ],
      [
        -8.28252,
        41.057728
      ],
      [
        -8.282514,
        41.057786
      ],
      [
        -8.282539,
        41.057844
      ],
      [
        -8.282486,
        41.05786
      ],
      [
        -8.28235,
        41.057901
      ],
      [
        -8.2823,
        41.057916
      ],
      [
        -8.282254,
        41.057941
      ],
      [
        -8.282273,
        41.057967
      ],
      [
        -8.28228,
        41.057976
      ],
      [
        -8.282424,
        41.058132
      ],
      [
        -8.282508,
        41.058222
      ],
      [
        -8.282535,
        41.058252
      ],
      [
        -8.282585,
        41.058361
      ],
      [
        -8.282518,
        41.058428
      ],
      [
        -8.282452,
        41.058467
      ],
      [
        -8.282432,
        41.058494
      ],
      [
        -8.282426,
        41.058503
      ],
      [
        -8.282408,
        41.058527
      ],
      [
        -8.282406,
        41.058576
      ],
      [
        -8.282442,
        41.058647
      ],
      [
        -8.282457,
        41.058728
      ],
      [
        -8.282452,
        41.058741
      ],
      [
        -8.28245,
        41.058748
      ],
      [
        -8.282434,
        41.058795
      ],
      [
        -8.282399,
        41.058831
      ],
      [
        -8.28231,
        41.058865
      ],
      [
        -8.2823,
        41.058868
      ],
      [
        -8.282273,
        41.058876
      ],
      [
        -8.282196,
        41.058879
      ],
      [
        -8.282121,
        41.058865
      ],
      [
        -8.281906,
        41.058759
      ],
      [
        -8.281882,
        41.058758
      ],
      [
        -8.281809,
        41.05876
      ],
      [
        -8.281768,
        41.058766
      ],
      [
        -8.281701,
        41.058791
      ],
      [
        -8.281635,
        41.058837
      ],
      [
        -8.281495,
        41.059058
      ],
      [
        -8.281468,
        41.059146
      ],
      [
        -8.281486,
        41.059147
      ],
      [
        -8.2812,
        41.059138
      ],
      [
        -8.281081,
        41.05914
      ],
      [
        -8.280993,
        41.059147
      ],
      [
        -8.280776,
        41.05918
      ],
      [
        -8.280489,
        41.059229
      ],
      [
        -8.280327,
        41.059259
      ],
      [
        -8.280154,
        41.059301
      ],
      [
        -8.279996,
        41.059356
      ],
      [
        -8.279888,
        41.059419
      ],
      [
        -8.279794,
        41.059485
      ],
      [
        -8.279676,
        41.059568
      ],
      [
        -8.279622,
        41.059627
      ],
      [
        -8.279581,
        41.059672
      ],
      [
        -8.279533,
        41.059743
      ],
      [
        -8.279426,
        41.059906
      ],
      [
        -8.279391,
        41.059944
      ],
      [
        -8.2793,
        41.060032
      ],
      [
        -8.279211,
        41.060112
      ],
      [
        -8.27917,
        41.060176
      ],
      [
        -8.279156,
        41.060197
      ],
      [
        -8.278921,
        41.060424
      ],
      [
        -8.278852,
        41.060467
      ],
      [
        -8.278795,
        41.060501
      ],
      [
        -8.278552,
        41.060589
      ],
      [
        -8.278391,
        41.060665
      ],
      [
        -8.278251,
        41.060741
      ],
      [
        -8.278123,
        41.060804
      ],
      [
        -8.278052,
        41.060834
      ],
      [
        -8.278034,
        41.060843
      ],
      [
        -8.277906,
        41.060908
      ],
      [
        -8.277855,
        41.060934
      ],
      [
        -8.27775,
        41.061011
      ],
      [
        -8.277671,
        41.061132
      ],
      [
        -8.277577,
        41.061274
      ],
      [
        -8.277481,
        41.061387
      ],
      [
        -8.277456,
        41.061415
      ],
      [
        -8.277362,
        41.061471
      ],
      [
        -8.277301,
        41.061506
      ],
      [
        -8.277105,
        41.061557
      ],
      [
        -8.277005,
        41.061594
      ],
      [
        -8.276979,
        41.061603
      ],
      [
        -8.276916,
        41.061645
      ],
      [
        -8.276834,
        41.061684
      ],
      [
        -8.276663,
        41.061805
      ],
      [
        -8.276566,
        41.061856
      ],
      [
        -8.276532,
        41.061874
      ],
      [
        -8.276359,
        41.061989
      ],
      [
        -8.27611,
        41.062087
      ],
      [
        -8.275949,
        41.062139
      ],
      [
        -8.2756,
        41.062251
      ],
      [
        -8.275373,
        41.062324
      ],
      [
        -8.275313,
        41.06236
      ],
      [
        -8.275265,
        41.062389
      ],
      [
        -8.275206,
        41.062403
      ],
      [
        -8.275155,
        41.062415
      ],
      [
        -8.275094,
        41.062429
      ],
      [
        -8.274863,
        41.06245
      ],
      [
        -8.274917,
        41.062671
      ],
      [
        -8.275049,
        41.06275
      ],
      [
        -8.275051,
        41.062776
      ],
      [
        -8.275116,
        41.062809
      ],
      [
        -8.275174,
        41.062838
      ],
      [
        -8.275308,
        41.062906
      ],
      [
        -8.275446,
        41.063008
      ],
      [
        -8.275505,
        41.063026
      ],
      [
        -8.275587,
        41.063021
      ],
      [
        -8.275946,
        41.063001
      ],
      [
        -8.276013,
        41.063007
      ],
      [
        -8.276069,
        41.063012
      ],
      [
        -8.276168,
        41.063096
      ],
      [
        -8.276193,
        41.063147
      ],
      [
        -8.276469,
        41.063358
      ],
      [
        -8.276523,
        41.063492
      ],
      [
        -8.276389,
        41.063894
      ],
      [
        -8.276502,
        41.063968
      ],
      [
        -8.27661,
        41.06392
      ],
      [
        -8.276612,
        41.064076
      ],
      [
        -8.276589,
        41.064139
      ],
      [
        -8.276558,
        41.064344
      ],
      [
        -8.276717,
        41.064377
      ],
      [
        -8.276954,
        41.064325
      ],
      [
        -8.277731,
        41.064391
      ],
      [
        -8.277685,
        41.064323
      ],
      [
        -8.278703,
        41.064288
      ],
      [
        -8.278386,
        41.064475
      ],
      [
        -8.278004,
        41.064453
      ],
      [
        -8.277869,
        41.064465
      ],
      [
        -8.277772,
        41.064614
      ],
      [
        -8.277659,
        41.064817
      ],
      [
        -8.27772,
        41.064854
      ],
      [
        -8.277484,
        41.06487
      ],
      [
        -8.277234,
        41.065002
      ],
      [
        -8.277173,
        41.065097
      ],
      [
        -8.277284,
        41.065232
      ],
      [
        -8.277573,
        41.065295
      ],
      [
        -8.277649,
        41.065283
      ],
      [
        -8.277819,
        41.065148
      ],
      [
        -8.277837,
        41.06505
      ],
      [
        -8.278179,
        41.065051
      ],
      [
        -8.278383,
        41.064948
      ],
      [
        -8.278695,
        41.06492
      ],
      [
        -8.27901,
        41.065014
      ],
      [
        -8.279128,
        41.065193
      ],
      [
        -8.279144,
        41.065166
      ],
      [
        -8.279333,
        41.065077
      ],
      [
        -8.279253,
        41.06505
      ],
      [
        -8.27939,
        41.065046
      ],
      [
        -8.279346,
        41.064823
      ],
      [
        -8.279494,
        41.064747
      ],
      [
        -8.279608,
        41.064635
      ],
      [
        -8.279878,
        41.064443
      ],
      [
        -8.279909,
        41.064478
      ],
      [
        -8.2799,
        41.064654
      ],
      [
        -8.279941,
        41.064822
      ],
      [
        -8.279979,
        41.064855
      ],
      [
        -8.279976,
        41.064825
      ],
      [
        -8.280149,
        41.064948
      ],
      [
        -8.280218,
        41.065033
      ],
      [
        -8.280236,
        41.064988
      ],
      [
        -8.280373,
        41.065109
      ],
      [
        -8.280312,
        41.065075
      ],
      [
        -8.280391,
        41.065201
      ],
      [
        -8.280545,
        41.065201
      ],
      [
        -8.280582,
        41.065317
      ],
      [
        -8.280574,
        41.065346
      ],
      [
        -8.280755,
        41.065494
      ],
      [
        -8.280734,
        41.065523
      ],
      [
        -8.280798,
        41.065415
      ],
      [
        -8.280911,
        41.065399
      ],
      [
        -8.280893,
        41.065471
      ],
      [
        -8.281003,
        41.065435
      ],
      [
        -8.281025,
        41.065432
      ],
      [
        -8.281088,
        41.065437
      ],
      [
        -8.281203,
        41.065478
      ],
      [
        -8.28124,
        41.065487
      ],
      [
        -8.281371,
        41.065508
      ],
      [
        -8.281409,
        41.065511
      ],
      [
        -8.281703,
        41.065531
      ],
      [
        -8.281844,
        41.065547
      ],
      [
        -8.281861,
        41.065554
      ],
      [
        -8.281935,
        41.065586
      ],
      [
        -8.281969,
        41.065627
      ],
      [
        -8.281971,
        41.065666
      ],
      [
        -8.281973,
        41.065685
      ],
      [
        -8.282029,
        41.065721
      ],
      [
        -8.282044,
        41.06582
      ],
      [
        -8.282052,
        41.065876
      ],
      [
        -8.282074,
        41.065903
      ],
      [
        -8.282101,
        41.065937
      ],
      [
        -8.282156,
        41.065969
      ],
      [
        -8.282204,
        41.065969
      ],
      [
        -8.282231,
        41.065969
      ],
      [
        -8.282332,
        41.065945
      ],
      [
        -8.282368,
        41.065923
      ],
      [
        -8.282381,
        41.065915
      ],
      [
        -8.282511,
        41.065812
      ],
      [
        -8.282546,
        41.065767
      ],
      [
        -8.282569,
        41.06575
      ],
      [
        -8.282606,
        41.065729
      ],
      [
        -8.282648,
        41.065729
      ],
      [
        -8.28269,
        41.065761
      ],
      [
        -8.282724,
        41.06589
      ],
      [
        -8.28273,
        41.065923
      ],
      [
        -8.282736,
        41.065952
      ],
      [
        -8.28276,
        41.065979
      ],
      [
        -8.282772,
        41.065991
      ],
      [
        -8.282862,
        41.066028
      ],
      [
        -8.282905,
        41.066045
      ],
      [
        -8.282974,
        41.066109
      ],
      [
        -8.283035,
        41.066185
      ],
      [
        -8.283145,
        41.066209
      ],
      [
        -8.283144,
        41.066276
      ],
      [
        -8.28312,
        41.06637
      ],
      [
        -8.283149,
        41.066425
      ],
      [
        -8.283166,
        41.066454
      ],
      [
        -8.283215,
        41.066502
      ],
      [
        -8.283286,
        41.066536
      ],
      [
        -8.283441,
        41.066586
      ],
      [
        -8.28359,
        41.066629
      ],
      [
        -8.283693,
        41.066681
      ],
      [
        -8.283734,
        41.066717
      ],
      [
        -8.283775,
        41.066753
      ],
      [
        -8.283811,
        41.066785
      ],
      [
        -8.283862,
        41.066854
      ],
      [
        -8.283879,
        41.066878
      ],
      [
        -8.283886,
        41.066907
      ],
      [
        -8.283898,
        41.066913
      ],
      [
        -8.283969,
        41.066948
      ],
      [
        -8.283985,
        41.066956
      ],
      [
        -8.284016,
        41.06702
      ],
      [
        -8.284028,
        41.067045
      ],
      [
        -8.284119,
        41.067155
      ],
      [
        -8.28427,
        41.067195
      ],
      [
        -8.284287,
        41.06723
      ],
      [
        -8.284373,
        41.067389
      ],
      [
        -8.284436,
        41.067472
      ],
      [
        -8.284638,
        41.067773
      ],
      [
        -8.284774,
        41.067931
      ],
      [
        -8.284789,
        41.067959
      ],
      [
        -8.284852,
        41.068074
      ],
      [
        -8.284994,
        41.068332
      ],
      [
        -8.285026,
        41.068337
      ],
      [
        -8.285122,
        41.068351
      ],
      [
        -8.285256,
        41.068332
      ],
      [
        -8.285275,
        41.068337
      ],
      [
        -8.285296,
        41.068343
      ],
      [
        -8.28538,
        41.068368
      ],
      [
        -8.285408,
        41.068389
      ],
      [
        -8.285491,
        41.068451
      ],
      [
        -8.285513,
        41.068546
      ],
      [
        -8.285505,
        41.068573
      ],
      [
        -8.285486,
        41.068643
      ],
      [
        -8.285489,
        41.068696
      ],
      [
        -8.285506,
        41.068715
      ],
      [
        -8.285586,
        41.068801
      ],
      [
        -8.285597,
        41.068812
      ],
      [
        -8.285643,
        41.068853
      ],
      [
        -8.285824,
        41.068929
      ],
      [
        -8.28591,
        41.068965
      ],
      [
        -8.286101,
        41.06909
      ],
      [
        -8.286432,
        41.069527
      ],
      [
        -8.286594,
        41.069755
      ],
      [
        -8.286602,
        41.069791
      ],
      [
        -8.286649,
        41.070007
      ],
      [
        -8.286679,
        41.070084
      ],
      [
        -8.286774,
        41.070299
      ],
      [
        -8.286832,
        41.070361
      ],
      [
        -8.286864,
        41.070397
      ],
      [
        -8.286929,
        41.070468
      ],
      [
        -8.286996,
        41.070687
      ],
      [
        -8.287029,
        41.070914
      ],
      [
        -8.287034,
        41.071171
      ],
      [
        -8.28703,
        41.071267
      ],
      [
        -8.287577,
        41.071205
      ],
      [
        -8.287733,
        41.071185
      ],
      [
        -8.287803,
        41.071185
      ],
      [
        -8.287927,
        41.071185
      ],
      [
        -8.288167,
        41.071195
      ],
      [
        -8.288319,
        41.071214
      ],
      [
        -8.288395,
        41.071214
      ],
      [
        -8.288509,
        41.071214
      ],
      [
        -8.288545,
        41.071206
      ],
      [
        -8.288585,
        41.071197
      ],
      [
        -8.28867,
        41.071145
      ],
      [
        -8.288789,
        41.071063
      ],
      [
        -8.288901,
        41.07102
      ],
      [
        -8.289002,
        41.070963
      ],
      [
        -8.289024,
        41.070947
      ],
      [
        -8.289148,
        41.07084
      ],
      [
        -8.289212,
        41.070828
      ],
      [
        -8.28927,
        41.070827
      ],
      [
        -8.289369,
        41.070826
      ],
      [
        -8.28942,
        41.070826
      ],
      [
        -8.289627,
        41.070608
      ],
      [
        -8.289652,
        41.07057
      ],
      [
        -8.289694,
        41.070475
      ],
      [
        -8.289697,
        41.070399
      ],
      [
        -8.289701,
        41.070299
      ],
      [
        -8.289746,
        41.070228
      ],
      [
        -8.289778,
        41.070196
      ],
      [
        -8.2898,
        41.070232
      ],
      [
        -8.289936,
        41.070093
      ],
      [
        -8.289944,
        41.069996
      ],
      [
        -8.290029,
        41.070069
      ],
      [
        -8.290152,
        41.069922
      ],
      [
        -8.290355,
        41.070015
      ],
      [
        -8.2905,
        41.069933
      ],
      [
        -8.29117,
        41.069464
      ],
      [
        -8.291162,
        41.069492
      ],
      [
        -8.29114,
        41.069421
      ],
      [
        -8.290938,
        41.069264
      ],
      [
        -8.290931,
        41.06923
      ],
      [
        -8.290894,
        41.069222
      ],
      [
        -8.290882,
        41.069228
      ],
      [
        -8.290679,
        41.069332
      ],
      [
        -8.290622,
        41.069361
      ],
      [
        -8.290241,
        41.068925
      ],
      [
        -8.290174,
        41.068892
      ],
      [
        -8.290067,
        41.068846
      ],
      [
        -8.289798,
        41.068749
      ],
      [
        -8.289768,
        41.068738
      ],
      [
        -8.289706,
        41.068716
      ],
      [
        -8.289463,
        41.068586
      ],
      [
        -8.289305,
        41.068503
      ],
      [
        -8.289271,
        41.068485
      ],
      [
        -8.289168,
        41.068419
      ],
      [
        -8.289037,
        41.068263
      ],
      [
        -8.289024,
        41.068237
      ],
      [
        -8.288912,
        41.068012
      ],
      [
        -8.288921,
        41.067864
      ],
      [
        -8.288924,
        41.067805
      ],
      [
        -8.288804,
        41.067374
      ],
      [
        -8.288724,
        41.067121
      ],
      [
        -8.288698,
        41.067039
      ],
      [
        -8.288613,
        41.066855
      ],
      [
        -8.288555,
        41.066815
      ],
      [
        -8.288457,
        41.06675
      ],
      [
        -8.287883,
        41.066365
      ],
      [
        -8.287818,
        41.066322
      ],
      [
        -8.287778,
        41.066238
      ],
      [
        -8.287748,
        41.066135
      ],
      [
        -8.287715,
        41.066078
      ],
      [
        -8.287525,
        41.065768
      ],
      [
        -8.287413,
        41.065603
      ],
      [
        -8.287386,
        41.065564
      ],
      [
        -8.287349,
        41.06553
      ],
      [
        -8.287286,
        41.065471
      ],
      [
        -8.28715,
        41.065405
      ],
      [
        -8.287019,
        41.065367
      ],
      [
        -8.286949,
        41.065347
      ],
      [
        -8.286769,
        41.065265
      ],
      [
        -8.286711,
        41.065227
      ],
      [
        -8.286648,
        41.065185
      ],
      [
        -8.286637,
        41.065168
      ],
      [
        -8.286608,
        41.065124
      ],
      [
        -8.286591,
        41.065099
      ],
      [
        -8.286567,
        41.064944
      ],
      [
        -8.286545,
        41.064805
      ],
      [
        -8.286532,
        41.064793
      ],
      [
        -8.286455,
        41.064717
      ],
      [
        -8.286425,
        41.064672
      ],
      [
        -8.286387,
        41.064612
      ],
      [
        -8.286392,
        41.064515
      ],
      [
        -8.286393,
        41.064501
      ],
      [
        -8.2865,
        41.064355
      ],
      [
        -8.286533,
        41.06431
      ],
      [
        -8.286546,
        41.064249
      ],
      [
        -8.286539,
        41.064231
      ],
      [
        -8.286518,
        41.064178
      ],
      [
        -8.286478,
        41.064148
      ],
      [
        -8.286368,
        41.064066
      ],
      [
        -8.28631,
        41.064022
      ],
      [
        -8.286268,
        41.063983
      ],
      [
        -8.28624,
        41.063957
      ],
      [
        -8.286223,
        41.063888
      ],
      [
        -8.286225,
        41.0638
      ],
      [
        -8.28624,
        41.063753
      ],
      [
        -8.286334,
        41.063571
      ],
      [
        -8.286337,
        41.063504
      ],
      [
        -8.286337,
        41.063479
      ],
      [
        -8.286269,
        41.063366
      ],
      [
        -8.286222,
        41.063287
      ],
      [
        -8.286179,
        41.063164
      ],
      [
        -8.286173,
        41.063037
      ],
      [
        -8.286171,
        41.062884
      ],
      [
        -8.286163,
        41.062827
      ],
      [
        -8.286139,
        41.062787
      ],
      [
        -8.286129,
        41.062772
      ],
      [
        -8.285887,
        41.062591
      ],
      [
        -8.285846,
        41.062546
      ],
      [
        -8.285832,
        41.06253
      ],
      [
        -8.285805,
        41.062446
      ],
      [
        -8.285798,
        41.062408
      ],
      [
        -8.285756,
        41.062195
      ],
      [
        -8.285745,
        41.062136
      ],
      [
        -8.285711,
        41.062075
      ],
      [
        -8.285689,
        41.062034
      ],
      [
        -8.285648,
        41.061991
      ],
      [
        -8.285594,
        41.061933
      ],
      [
        -8.285509,
        41.061866
      ],
      [
        -8.285419,
        41.061793
      ],
      [
        -8.285348,
        41.061682
      ],
      [
        -8.285322,
        41.061597
      ],
      [
        -8.28532,
        41.061522
      ],
      [
        -8.285319,
        41.061499
      ],
      [
        -8.285316,
        41.061389
      ],
      [
        -8.285314,
        41.061319
      ],
      [
        -8.285264,
        41.061201
      ],
      [
        -8.28505,
        41.060871
      ],
      [
        -8.285016,
        41.060814
      ],
      [
        -8.284969,
        41.060735
      ],
      [
        -8.284939,
        41.060703
      ],
      [
        -8.284901,
        41.060662
      ],
      [
        -8.284714,
        41.060555
      ],
      [
        -8.284677,
        41.060518
      ],
      [
        -8.284646,
        41.060487
      ],
      [
        -8.284631,
        41.060471
      ],
      [
        -8.284625,
        41.060367
      ],
      [
        -8.284666,
        41.06012
      ],
      [
        -8.284668,
        41.060052
      ],
      [
        -8.284654,
        41.06
      ],
      [
        -8.284642,
        41.059956
      ],
      [
        -8.284581,
        41.059832
      ],
      [
        -8.284436,
        41.059608
      ],
      [
        -8.284396,
        41.059528
      ],
      [
        -8.28439,
        41.059464
      ],
      [
        -8.284398,
        41.059415
      ],
      [
        -8.284402,
        41.059391
      ],
      [
        -8.284415,
        41.059313
      ],
      [
        -8.284409,
        41.059212
      ],
      [
        -8.284361,
        41.059068
      ],
      [
        -8.284315,
        41.058929
      ],
      [
        -8.284259,
        41.05884
      ],
      [
        -8.284246,
        41.058833
      ],
      [
        -8.284044,
        41.058723
      ],
      [
        -8.283974,
        41.058687
      ],
      [
        -8.283724,
        41.058567
      ],
      [
        -8.283579,
        41.058497
      ],
      [
        -8.283518,
        41.058468
      ],
      [
        -8.283509,
        41.058438
      ],
      [
        -8.283479,
        41.058344
      ],
      [
        -8.283432,
        41.058154
      ],
      [
        -8.28342,
        41.058099
      ],
      [
        -8.283483,
        41.057896
      ],
      [
        -8.283482,
        41.05787
      ],
      [
        -8.283474,
        41.057726
      ],
      [
        -8.283435,
        41.057597
      ],
      [
        -8.283327,
        41.05764
      ],
      [
        -8.283169,
        41.057681
      ],
      [
        -8.283032,
        41.057589
      ],
      [
        -8.283007,
        41.057564
      ],
      [
        -8.282949,
        41.057507
      ],
      [
        -8.282969,
        41.057446
      ],
      [
        -8.282973,
        41.057436
      ],
      [
        -8.28302,
        41.057312
      ],
      [
        -8.283125,
        41.05716
      ],
      [
        -8.283158,
        41.057113
      ],
      [
        -8.283208,
        41.057042
      ],
      [
        -8.283243,
        41.056989
      ],
      [
        -8.283268,
        41.05694
      ],
      [
        -8.2833,
        41.056923
      ],
      [
        -8.283385,
        41.05692
      ],
      [
        -8.283435,
        41.056918
      ],
      [
        -8.283544,
        41.056897
      ],
      [
        -8.283731,
        41.056763
      ],
      [
        -8.284128,
        41.056407
      ],
      [
        -8.284305,
        41.056272
      ],
      [
        -8.284397,
        41.056203
      ],
      [
        -8.284519,
        41.056061
      ],
      [
        -8.284655,
        41.055916
      ],
      [
        -8.284699,
        41.055859
      ],
      [
        -8.284719,
        41.055831
      ],
      [
        -8.284867,
        41.055803
      ],
      [
        -8.284918,
        41.055794
      ],
      [
        -8.284994,
        41.055779
      ],
      [
        -8.285099,
        41.055785
      ],
      [
        -8.2852471,
        41.0558547
      ],
      [
        -8.285413,
        41.055946
      ],
      [
        -8.285546,
        41.056028
      ],
      [
        -8.285569,
        41.056025
      ],
      [
        -8.28565,
        41.056011
      ],
      [
        -8.286052,
        41.056033
      ],
      [
        -8.286133,
        41.056062
      ],
      [
        -8.286274,
        41.056112
      ],
      [
        -8.286488,
        41.055944
      ],
      [
        -8.286563,
        41.055663
      ],
      [
        -8.286652,
        41.055406
      ],
      [
        -8.286698,
        41.055277
      ],
      [
        -8.286715,
        41.055256
      ],
      [
        -8.28675,
        41.05521
      ],
      [
        -8.286826,
        41.055165
      ],
      [
        -8.286853,
        41.055157
      ],
      [
        -8.286935,
        41.055132
      ],
      [
        -8.287023,
        41.055116
      ],
      [
        -8.287066,
        41.05512
      ],
      [
        -8.287119,
        41.055125
      ],
      [
        -8.287155,
        41.055138
      ],
      [
        -8.287178,
        41.055145
      ],
      [
        -8.287224,
        41.055187
      ],
      [
        -8.287271,
        41.0552
      ],
      [
        -8.287327,
        41.055146
      ],
      [
        -8.287439,
        41.055098
      ],
      [
        -8.287549,
        41.055054
      ],
      [
        -8.287804,
        41.055038
      ]
    ]
  }
}