{
  "type": "Feature",
  "properties": {
    "id": "balt-vilka-ce-m-jup_yeiu",
    "name": "Baltā vilka ceļš mājup",
    "distanceMeters": 4668.986594129673,
    "elevationGainM": null
  },
  "geometry": {
    "type": "LineString",
    "coordinates": [
      [
        23.337315,
        56.954948
      ],
      [
        23.33791,
        56.954758
      ],
      [
        23.337792,
        56.954609
      ],
      [
        23.336693,
        56.953611
      ],
      [
        23.334315,
        56.95154
      ],
      [
        23.333549,
        56.951121
      ],
      [
        23.333029,
        56.950955
      ],
      [
        23.332396,
        56.950852
      ],
      [
        23.329069,
        56.950739
      ],
      [
        23.322342,
        56.950399
      ],
      [
        23.315305,
        56.950074
      ],
      [
        23.307868,
        56.949668
      ],
      [
        23.301592,
        56.949451
      ],
      [
        23.300209,
        56.949433
      ],
      [
        23.296955,
        56.949938
      ],
      [
        23.291535,
        56.950917
      ],
      [
        23.288542,
        56.948878
      ],
      [
        23.286187,
        56.949287
      ],
      [
        23.28557,
        56.949477
      ],
      [
        23.285263,
        56.949691
      ],
      [
        23.284866,
        56.95027
      ],
      [
        23.284395,
        56.950662
      ],
      [
        23.282823,
        56.951002
      ],
      [
        23.278719,
        56.949363
      ],
      [
        23.278182,
        56.949334
      ],
      [
        23.277732,
        56.949354
      ],
      [
        23.275147,
        56.949746
      ],
      [
        23.274813,
        56.949726
      ],
      [
        23.274567,
        56.949673
      ],
      [
        23.273462,
        56.949027
      ],
      [
        23.272249,
        56.948176
      ],
      [
        23.27183,
        56.947988
      ]
    ]
  }
}