{
  "type": "Feature",
  "properties": {
    "id": "caminho-do-carteiro_e0a0",
    "name": "Caminho do Carteiro",
    "distanceMeters": 6315.18353027141,
    "elevationGainM": 139,
    "elevationsM": [
      201.4,
      200.9,
      201.3,
      200.2,
      200.4,
      199.1,
      200.1,
      201.2,
      201.7,
      202.1,
      203.5,
      203.7,
      204.7,
      204.2,
      203.2,
      201.7,
      200.7,
      200.8,
      201.6,
      203,
      202.9,
      203.3,
      204.1,
      204.6,
      203.6,
      203.8,
      203.4,
      203.2,
      201.9,
      202.3,
      201,
      200.5,
      200.8,
      200.1,
      199.3,
      199.8,
      199.3,
      200.1,
      200.8,
      199.6,
      198.6,
      198.4,
      197.9,
      198.5,
      198.9,
      200.1,
      199,
      198.8,
      197.7,
      197.6,
      199,
      198.3,
      198,
      199.3,
      200.6,
      200.9,
      200.9,
      199.5,
      200.3,
      199,
      199.6,
      198.3,
      199.4,
      199.5,
      198.1,
      199.2,
      198,
      197.1,
      198.4,
      199.7,
      199.8,
      200.3,
      199.1,
      200.5,
      201.3,
      202.7,
      203,
      202,
      201.5,
      201.4,
      200.2,
      199.7,
      198.3,
      197.7,
      198.8,
      199.3,
      200.8,
      202.4,
      202.1,
      202.7,
      201.9,
      202.8,
      202.9,
      204.3,
      203.1,
      203.4,
      203.4,
      202.7,
      203.6,
      203.3,
      203.2,
      203.1,
      203.3,
      204.3,
      204.5,
      203.7,
      204.7,
      205.6,
      206.5,
      205.3,
      205.5,
      206.4,
      206,
      205.1,
      206,
      206.3,
      205.8,
      204.9,
      204.1,
      204.8,
      205.9,
      206.5,
      207.1,
      207.2,
      207.9,
      208.3,
      209.4,
      210.5,
      211.7,
      211.8,
      212.8,
      212.1,
      212.1,
      213.6,
      213,
      212.1,
      211.6,
      212.7,
      212.9,
      211.7,
      212,
      211.4,
      211.4,
      212.9,
      212.9,
      212.4,
      211.8,
      211.1,
      211.9,
      210.5,
      211.1,
      211.3,
      210.5,
      211.1,
      211.9,
      211.5,
      212,
      213,
      213.7,
      214,
      213.8,
      215,
      214,
      215.4,
      214.4,
      214,
      213.2,
      212.7,
      212.3,
      213.4,
      212,
      212.1,
      211.9,
      213.4,
      214.5,
      214.7,
      214.1,
      213.3,
      212,
      213.5,
      215,
      215.3,
      216.8,
      216.5,
      216.6,
      217,
      217.9,
      218.3,
      219.4,
      219.6,
      218.5,
      218.8,
      217.9,
      217.5,
      218.7,
      218.3,
      218.1,
      216.9,
      217.8,
      217.4,
      218.6,
      220.2,
      220.9,
      221.5,
      221.7,
      222.5,
      221.5,
      222.5,
      222,
      221.4,
      221.6,
      221.4,
      222.8,
      222.3,
      223.3,
      224.5,
      225.1,
      224.6,
      225.9,
      225.2,
      225.1,
      223.8,
      222.5,
      223.6,
      224.4,
      225.9,
      224.7,
      225.3,
      224,
      223.5,
      224.9,
      224.1,
      223.8,
      223.4,
      224.5,
      226,
      225,
      225.3,
      224.1,
      224.3,
      223.6,
      223.2,
      222.7,
      221.7,
      221.5,
      223,
      222.9,
      223.1,
      221.9,
      221,
      220.8,
      219.4,
      218.7,
      217.6,
      216.7,
      215.6,
      215.4,
      214.3,
      214.9,
      216.1,
      215.7,
      214.6,
      214.1,
      213.1,
      213.7,
      213.1,
      213.5,
      214.4,
      215.8,
      215.1,
      216,
      215.9,
      215.7,
      216.7,
      217.3,
      216.6,
      216.8,
      215.6,
      215.9,
      215.9,
      217.2,
      216.3,
      217.8,
      219.3,
      220.6,
      220.6,
      220.8,
      221.6,
      221,
      220.4,
      220.5,
      219.3,
      220.1,
      221,
      220.6,
      220.8,
      220.2,
      220.8,
      219.8,
      221.2,
      220.6,
      220.4,
      219.5,
      219.5,
      219.5,
      220.5,
      219.6,
      220.9,
      220,
      221.3,
      220.3,
      218.9,
      220.5,
      219.9,
      220.2,
      220.7,
      221.5,
      220.2,
      220.6,
      220.6,
      220.6,
      220.8,
      222,
      221.6,
      221.4,
      221.7,
      221.5,
      220.6,
      219.4,
      219.3,
      219.7,
      219.8,
      220.8,
      219.7,
      221.1,
      221.2,
      221,
      219.7,
      218.8,
      219.4,
      220.3,
      219.7,
      218.5,
      218.4,
      218.2,
      218.9,
      219.6,
      218.8,
      219.6,
      218.4,
      217,
      216.8,
      215.8,
      217.1,
      216.5,
      216.4
    ]
  },
  "geometry": {
    "type": "LineString",
    "coordinates": [
      [
        -8.19894,
        40.86186
      ],
      [
        -8.198852,
        40.861956
      ],
      [
        -8.1988,
        40.862012
      ],
      [
        -8.198824,
        40.861998
      ],
      [
        -8.198742,
        40.862062
      ],
      [
        -8.198721,
        40.862045
      ],
      [
        -8.19859,
        40.862056
      ],
      [
        -8.198561,
        40.862104
      ],
      [
        -8.198561,
        40.862142
      ],
      [
        -8.198464,
        40.862182
      ],
      [
        -8.198374,
        40.862195
      ],
      [
        -8.198366,
        40.862248
      ],
      [
        -8.198308,
        40.862314
      ],
      [
        -8.198251,
        40.862339
      ],
      [
        -8.198321,
        40.862408
      ],
      [
        -8.198286,
        40.862355
      ],
      [
        -8.198212,
        40.862432
      ],
      [
        -8.198195,
        40.862519
      ],
      [
        -8.198133,
        40.862481
      ],
      [
        -8.198006,
        40.862496
      ],
      [
        -8.197953,
        40.862597
      ],
      [
        -8.197874,
        40.862585
      ],
      [
        -8.197759,
        40.862578
      ],
      [
        -8.19758,
        40.862531
      ],
      [
        -8.19754,
        40.862472
      ],
      [
        -8.197383,
        40.862431
      ],
      [
        -8.197342,
        40.862491
      ],
      [
        -8.197087,
        40.862464
      ],
      [
        -8.196814,
        40.862447
      ],
      [
        -8.196618,
        40.862411
      ],
      [
        -8.196513,
        40.862418
      ],
      [
        -8.196431,
        40.862372
      ],
      [
        -8.196264,
        40.862388
      ],
      [
        -8.196088,
        40.862313
      ],
      [
        -8.195969,
        40.862284
      ],
      [
        -8.195652,
        40.862297
      ],
      [
        -8.19537,
        40.862324
      ],
      [
        -8.195207,
        40.862347
      ],
      [
        -8.195003,
        40.862236
      ],
      [
        -8.194737,
        40.862269
      ],
      [
        -8.194564,
        40.862129
      ],
      [
        -8.194556,
        40.862098
      ],
      [
        -8.194484,
        40.861857
      ],
      [
        -8.194464,
        40.861766
      ],
      [
        -8.194552,
        40.861661
      ],
      [
        -8.194525,
        40.861579
      ],
      [
        -8.194678,
        40.861496
      ],
      [
        -8.194783,
        40.861521
      ],
      [
        -8.194923,
        40.861542
      ],
      [
        -8.194962,
        40.861382
      ],
      [
        -8.194819,
        40.86129
      ],
      [
        -8.194592,
        40.86129
      ],
      [
        -8.19426,
        40.861212
      ],
      [
        -8.194269,
        40.861108
      ],
      [
        -8.194288,
        40.860895
      ],
      [
        -8.194122,
        40.860705
      ],
      [
        -8.194049,
        40.860578
      ],
      [
        -8.193961,
        40.860421
      ],
      [
        -8.193901,
        40.860354
      ],
      [
        -8.193943,
        40.860316
      ],
      [
        -8.194015,
        40.860256
      ],
      [
        -8.193993,
        40.860138
      ],
      [
        -8.193903,
        40.860177
      ],
      [
        -8.193843,
        40.86019
      ],
      [
        -8.193733,
        40.860233
      ],
      [
        -8.193732,
        40.86021
      ],
      [
        -8.193526,
        40.860209
      ],
      [
        -8.193654,
        40.860038
      ],
      [
        -8.193607,
        40.859996
      ],
      [
        -8.193663,
        40.85993
      ],
      [
        -8.193455,
        40.859916
      ],
      [
        -8.193258,
        40.860029
      ],
      [
        -8.193146,
        40.859943
      ],
      [
        -8.19305,
        40.859887
      ],
      [
        -8.192904,
        40.859895
      ],
      [
        -8.192818,
        40.859877
      ],
      [
        -8.192835,
        40.859803
      ],
      [
        -8.192654,
        40.85961
      ],
      [
        -8.192631,
        40.859404
      ],
      [
        -8.192596,
        40.8593
      ],
      [
        -8.192436,
        40.859152
      ],
      [
        -8.192297,
        40.859023
      ],
      [
        -8.19221,
        40.858871
      ],
      [
        -8.192125,
        40.858889
      ],
      [
        -8.191792,
        40.858752
      ],
      [
        -8.191647,
        40.858775
      ],
      [
        -8.191575,
        40.858834
      ],
      [
        -8.191422,
        40.85893
      ],
      [
        -8.191278,
        40.859096
      ],
      [
        -8.191037,
        40.859213
      ],
      [
        -8.190791,
        40.859086
      ],
      [
        -8.19056,
        40.859072
      ],
      [
        -8.190209,
        40.858965
      ],
      [
        -8.190211,
        40.85894
      ],
      [
        -8.190185,
        40.859023
      ],
      [
        -8.190095,
        40.859032
      ],
      [
        -8.189863,
        40.859155
      ],
      [
        -8.189582,
        40.859179
      ],
      [
        -8.189412,
        40.859248
      ],
      [
        -8.189268,
        40.859341
      ],
      [
        -8.18911,
        40.859244
      ],
      [
        -8.189124,
        40.859187
      ],
      [
        -8.189079,
        40.85912
      ],
      [
        -8.188845,
        40.85895
      ],
      [
        -8.18832,
        40.85841
      ],
      [
        -8.188294,
        40.85831
      ],
      [
        -8.188341,
        40.858218
      ],
      [
        -8.18819,
        40.857932
      ],
      [
        -8.188252,
        40.857898
      ],
      [
        -8.188217,
        40.857591
      ],
      [
        -8.188093,
        40.857232
      ],
      [
        -8.189272,
        40.859271
      ],
      [
        -8.189331,
        40.859295
      ],
      [
        -8.189457,
        40.859474
      ],
      [
        -8.189509,
        40.859552
      ],
      [
        -8.189314,
        40.85968
      ],
      [
        -8.188624,
        40.860046
      ],
      [
        -8.188351,
        40.86009
      ],
      [
        -8.188209,
        40.860183
      ],
      [
        -8.18808,
        40.860251
      ],
      [
        -8.1881,
        40.86031
      ],
      [
        -8.188067,
        40.860485
      ],
      [
        -8.188103,
        40.860629
      ],
      [
        -8.188209,
        40.860753
      ],
      [
        -8.188314,
        40.860852
      ],
      [
        -8.18847,
        40.86115
      ],
      [
        -8.188597,
        40.861282
      ],
      [
        -8.188695,
        40.861356
      ],
      [
        -8.188869,
        40.861455
      ],
      [
        -8.188976,
        40.861645
      ],
      [
        -8.188927,
        40.861749
      ],
      [
        -8.18888,
        40.861776
      ],
      [
        -8.188722,
        40.861828
      ],
      [
        -8.188568,
        40.861865
      ],
      [
        -8.188279,
        40.861798
      ],
      [
        -8.188162,
        40.861774
      ],
      [
        -8.187946,
        40.861856
      ],
      [
        -8.187658,
        40.861821
      ],
      [
        -8.187582,
        40.86182
      ],
      [
        -8.187622,
        40.861901
      ],
      [
        -8.187599,
        40.862051
      ],
      [
        -8.187748,
        40.862105
      ],
      [
        -8.187821,
        40.862192
      ],
      [
        -8.187958,
        40.862379
      ],
      [
        -8.188143,
        40.862365
      ],
      [
        -8.188235,
        40.862436
      ],
      [
        -8.188355,
        40.86258
      ],
      [
        -8.188436,
        40.862691
      ],
      [
        -8.188421,
        40.862899
      ],
      [
        -8.18837,
        40.862967
      ],
      [
        -8.18834,
        40.863062
      ],
      [
        -8.188309,
        40.863207
      ],
      [
        -8.188296,
        40.863413
      ],
      [
        -8.188334,
        40.863492
      ],
      [
        -8.188225,
        40.863495
      ],
      [
        -8.188319,
        40.863572
      ],
      [
        -8.18834,
        40.863603
      ],
      [
        -8.188396,
        40.863742
      ],
      [
        -8.188532,
        40.863829
      ],
      [
        -8.18855,
        40.863815
      ],
      [
        -8.188661,
        40.863938
      ],
      [
        -8.188832,
        40.864168
      ],
      [
        -8.188892,
        40.864293
      ],
      [
        -8.188854,
        40.864388
      ],
      [
        -8.188885,
        40.864476
      ],
      [
        -8.188905,
        40.864587
      ],
      [
        -8.188912,
        40.864604
      ],
      [
        -8.188819,
        40.864633
      ],
      [
        -8.188835,
        40.864653
      ],
      [
        -8.188799,
        40.86482
      ],
      [
        -8.188823,
        40.864956
      ],
      [
        -8.188907,
        40.864961
      ],
      [
        -8.188902,
        40.865048
      ],
      [
        -8.188972,
        40.865151
      ],
      [
        -8.189136,
        40.865216
      ],
      [
        -8.189355,
        40.865447
      ],
      [
        -8.189538,
        40.865589
      ],
      [
        -8.189538,
        40.865742
      ],
      [
        -8.189636,
        40.865862
      ],
      [
        -8.189782,
        40.866198
      ],
      [
        -8.189811,
        40.866344
      ],
      [
        -8.189718,
        40.866425
      ],
      [
        -8.189708,
        40.866557
      ],
      [
        -8.189445,
        40.866772
      ],
      [
        -8.189203,
        40.866936
      ],
      [
        -8.18921,
        40.866974
      ],
      [
        -8.189306,
        40.867044
      ],
      [
        -8.189471,
        40.867086
      ],
      [
        -8.189781,
        40.867185
      ],
      [
        -8.189937,
        40.867269
      ],
      [
        -8.189993,
        40.867384
      ],
      [
        -8.190111,
        40.867393
      ],
      [
        -8.190228,
        40.867656
      ],
      [
        -8.190473,
        40.867981
      ],
      [
        -8.190497,
        40.868028
      ],
      [
        -8.190684,
        40.868355
      ],
      [
        -8.190719,
        40.868316
      ],
      [
        -8.190514,
        40.868392
      ],
      [
        -8.190497,
        40.868424
      ],
      [
        -8.190557,
        40.868455
      ],
      [
        -8.190656,
        40.86849
      ],
      [
        -8.19083,
        40.868491
      ],
      [
        -8.190932,
        40.868481
      ],
      [
        -8.190856,
        40.868541
      ],
      [
        -8.190804,
        40.868575
      ],
      [
        -8.190779,
        40.868661
      ],
      [
        -8.190765,
        40.868672
      ],
      [
        -8.190618,
        40.868731
      ],
      [
        -8.190443,
        40.868823
      ],
      [
        -8.190459,
        40.86898
      ],
      [
        -8.1907,
        40.869013
      ],
      [
        -8.190819,
        40.869084
      ],
      [
        -8.190866,
        40.869271
      ],
      [
        -8.190872,
        40.869351
      ],
      [
        -8.190822,
        40.869503
      ],
      [
        -8.190744,
        40.86964
      ],
      [
        -8.190647,
        40.869746
      ],
      [
        -8.190572,
        40.869874
      ],
      [
        -8.190432,
        40.870006
      ],
      [
        -8.190517,
        40.870073
      ],
      [
        -8.190613,
        40.870164
      ],
      [
        -8.19075,
        40.870225
      ],
      [
        -8.190824,
        40.870341
      ],
      [
        -8.190862,
        40.870446
      ],
      [
        -8.190914,
        40.870458
      ],
      [
        -8.190956,
        40.870661
      ],
      [
        -8.191134,
        40.870789
      ],
      [
        -8.19117,
        40.870791
      ],
      [
        -8.191162,
        40.870942
      ],
      [
        -8.191002,
        40.871052
      ],
      [
        -8.19099,
        40.871096
      ],
      [
        -8.19135,
        40.87112
      ],
      [
        -8.191502,
        40.871197
      ],
      [
        -8.191633,
        40.871206
      ],
      [
        -8.191651,
        40.87133
      ],
      [
        -8.19165,
        40.871381
      ],
      [
        -8.191469,
        40.871459
      ],
      [
        -8.191364,
        40.871549
      ],
      [
        -8.191158,
        40.871662
      ],
      [
        -8.190912,
        40.871631
      ],
      [
        -8.190752,
        40.871683
      ],
      [
        -8.190761,
        40.871692
      ],
      [
        -8.190796,
        40.871902
      ],
      [
        -8.191053,
        40.872065
      ],
      [
        -8.191014,
        40.872231
      ],
      [
        -8.190997,
        40.87228
      ],
      [
        -8.191074,
        40.872356
      ],
      [
        -8.191091,
        40.872623
      ],
      [
        -8.190953,
        40.872752
      ],
      [
        -8.190659,
        40.872952
      ],
      [
        -8.190528,
        40.873106
      ],
      [
        -8.190377,
        40.873124
      ],
      [
        -8.190182,
        40.873252
      ],
      [
        -8.189998,
        40.873271
      ],
      [
        -8.189825,
        40.873451
      ],
      [
        -8.189788,
        40.873568
      ],
      [
        -8.19013,
        40.873743
      ],
      [
        -8.190361,
        40.873869
      ],
      [
        -8.190585,
        40.873929
      ],
      [
        -8.190666,
        40.874077
      ],
      [
        -8.190672,
        40.874115
      ],
      [
        -8.190606,
        40.874229
      ],
      [
        -8.1905,
        40.874334
      ],
      [
        -8.1905,
        40.874383
      ],
      [
        -8.190607,
        40.874478
      ],
      [
        -8.190766,
        40.87476
      ],
      [
        -8.190704,
        40.874968
      ],
      [
        -8.190686,
        40.875059
      ],
      [
        -8.190671,
        40.87514
      ],
      [
        -8.190681,
        40.875167
      ],
      [
        -8.190604,
        40.875336
      ],
      [
        -8.190694,
        40.875693
      ],
      [
        -8.190843,
        40.875883
      ],
      [
        -8.191043,
        40.876014
      ],
      [
        -8.191207,
        40.876138
      ],
      [
        -8.191357,
        40.876243
      ],
      [
        -8.191508,
        40.876354
      ],
      [
        -8.191709,
        40.87648
      ],
      [
        -8.191906,
        40.876472
      ],
      [
        -8.192636,
        40.876431
      ],
      [
        -8.192766,
        40.876521
      ],
      [
        -8.192603,
        40.876708
      ],
      [
        -8.192302,
        40.876956
      ],
      [
        -8.192228,
        40.877261
      ],
      [
        -8.191845,
        40.87775
      ],
      [
        -8.191877,
        40.877779
      ],
      [
        -8.192655,
        40.877904
      ],
      [
        -8.193135,
        40.878235
      ],
      [
        -8.193403,
        40.878575
      ],
      [
        -8.193458,
        40.87862
      ],
      [
        -8.193522,
        40.878671
      ],
      [
        -8.193793,
        40.878732
      ],
      [
        -8.193976,
        40.878699
      ],
      [
        -8.194089,
        40.878644
      ],
      [
        -8.194153,
        40.878654
      ],
      [
        -8.194269,
        40.878561
      ],
      [
        -8.194474,
        40.878579
      ],
      [
        -8.194567,
        40.878549
      ],
      [
        -8.194637,
        40.878465
      ],
      [
        -8.194824,
        40.878588
      ],
      [
        -8.194985,
        40.878647
      ],
      [
        -8.195036,
        40.878755
      ],
      [
        -8.195137,
        40.878839
      ],
      [
        -8.195128,
        40.878929
      ],
      [
        -8.195134,
        40.878938
      ],
      [
        -8.195124,
        40.878996
      ],
      [
        -8.195091,
        40.879084
      ],
      [
        -8.194997,
        40.879081
      ],
      [
        -8.194897,
        40.878972
      ],
      [
        -8.194714,
        40.878862
      ],
      [
        -8.194709,
        40.878869
      ],
      [
        -8.194591,
        40.878867
      ],
      [
        -8.194487,
        40.878972
      ],
      [
        -8.194256,
        40.879027
      ],
      [
        -8.194017,
        40.879227
      ],
      [
        -8.193726,
        40.879358
      ],
      [
        -8.193585,
        40.879419
      ],
      [
        -8.19348,
        40.87944
      ],
      [
        -8.193349,
        40.879451
      ],
      [
        -8.193248,
        40.879393
      ],
      [
        -8.193148,
        40.87937
      ],
      [
        -8.193053,
        40.879381
      ],
      [
        -8.19298,
        40.879337
      ],
      [
        -8.192907,
        40.879335
      ],
      [
        -8.192782,
        40.879337
      ],
      [
        -8.192738,
        40.879417
      ],
      [
        -8.192648,
        40.879433
      ],
      [
        -8.192549,
        40.879492
      ],
      [
        -8.192578,
        40.879714
      ],
      [
        -8.192678,
        40.879987
      ],
      [
        -8.192738,
        40.880144
      ],
      [
        -8.193016,
        40.880406
      ],
      [
        -8.193362,
        40.881102
      ],
      [
        -8.193369,
        40.881205
      ],
      [
        -8.193318,
        40.881213
      ],
      [
        -8.19332,
        40.881268
      ],
      [
        -8.192716,
        40.881482
      ],
      [
        -8.192128,
        40.881549
      ],
      [
        -8.191834,
        40.881725
      ],
      [
        -8.191448,
        40.881981
      ],
      [
        -8.191104,
        40.882132
      ],
      [
        -8.190886,
        40.882172
      ],
      [
        -8.19079,
        40.882314
      ],
      [
        -8.190861,
        40.882491
      ],
      [
        -8.191049,
        40.882585
      ],
      [
        -8.191356,
        40.882726
      ],
      [
        -8.191339,
        40.8829
      ],
      [
        -8.191371,
        40.882879
      ],
      [
        -8.191311,
        40.8829
      ],
      [
        -8.191133,
        40.883032
      ],
      [
        -8.190754,
        40.883082
      ],
      [
        -8.190257,
        40.883209
      ],
      [
        -8.189713,
        40.883501
      ],
      [
        -8.189449,
        40.883569
      ],
      [
        -8.189062,
        40.883634
      ],
      [
        -8.188605,
        40.883711
      ]
    ]
  }
}