{
  "type": "Feature",
  "properties": {
    "id": "cieceres-dabas-taka-sald-turp-un-atpaka_xxol",
    "name": "Cieceres dabas taka Saldū (turp un atpakaļ)",
    "distanceMeters": 5093.361112183898,
    "elevationGainM": null
  },
  "geometry": {
    "type": "LineString",
    "coordinates": [
      [
        22.4864,
        56.66342
      ],
      [
        22.48641,
        56.66347
      ],
      [
        22.48643,
        56.66352
      ],
      [
        22.48647,
        56.66358
      ],
      [
        22.48652,
        56.66363
      ],
      [
        22.48656,
        56.66366
      ],
      [
        22.48659,
        56.66371
      ],
      [
        22.48665,
        56.66374
      ],
      [
        22.48672,
        56.66378
      ],
      [
        22.48678,
        56.66382
      ],
      [
        22.48683,
        56.66387
      ],
      [
        22.48687,
        56.66392
      ],
      [
        22.48691,
        56.66396
      ],
      [
        22.48695,
        56.66401
      ],
      [
        22.48698,
        56.66406
      ],
      [
        22.48702,
        56.66411
      ],
      [
        22.4871,
        56.66414
      ],
      [
        22.4871,
        56.66415
      ],
      [
        22.48717,
        56.66418
      ],
      [
        22.48721,
        56.66421
      ],
      [
        22.48725,
        56.66427
      ],
      [
        22.48731,
        56.66434
      ],
      [
        22.48741,
        56.66437
      ],
      [
        22.48751,
        56.6644
      ],
      [
        22.48761,
        56.66443
      ],
      [
        22.4877,
        56.66447
      ],
      [
        22.4878,
        56.66452
      ],
      [
        22.48789,
        56.66455
      ],
      [
        22.48803,
        56.66454
      ],
      [
        22.4881,
        56.66451
      ],
      [
        22.48821,
        56.6645
      ],
      [
        22.48833,
        56.66447
      ],
      [
        22.48845,
        56.66445
      ],
      [
        22.48855,
        56.66441
      ],
      [
        22.48863,
        56.66438
      ],
      [
        22.48871,
        56.66435
      ],
      [
        22.4888,
        56.66433
      ],
      [
        22.4889,
        56.66431
      ],
      [
        22.48899,
        56.66431
      ],
      [
        22.4891,
        56.66432
      ],
      [
        22.48919,
        56.66434
      ],
      [
        22.48927,
        56.66438
      ],
      [
        22.48933,
        56.66442
      ],
      [
        22.48939,
        56.66446
      ],
      [
        22.48946,
        56.6645
      ],
      [
        22.48953,
        56.66453
      ],
      [
        22.4896,
        56.66456
      ],
      [
        22.48967,
        56.66459
      ],
      [
        22.48968,
        56.66464
      ],
      [
        22.48964,
        56.66468
      ],
      [
        22.48957,
        56.66472
      ],
      [
        22.48949,
        56.66474
      ],
      [
        22.48942,
        56.66476
      ],
      [
        22.48936,
        56.6648
      ],
      [
        22.48931,
        56.66484
      ],
      [
        22.48931,
        56.66485
      ],
      [
        22.4893,
        56.66486
      ],
      [
        22.48925,
        56.6649
      ],
      [
        22.48919,
        56.66494
      ],
      [
        22.48913,
        56.66498
      ],
      [
        22.48908,
        56.66503
      ],
      [
        22.48905,
        56.66508
      ],
      [
        22.48904,
        56.66513
      ],
      [
        22.48908,
        56.66517
      ],
      [
        22.48913,
        56.66522
      ],
      [
        22.48919,
        56.66526
      ],
      [
        22.48922,
        56.6653
      ],
      [
        22.48928,
        56.66534
      ],
      [
        22.48934,
        56.66537
      ],
      [
        22.48942,
        56.6654
      ],
      [
        22.48951,
        56.66543
      ],
      [
        22.4896,
        56.66545
      ],
      [
        22.48969,
        56.66547
      ],
      [
        22.48977,
        56.6655
      ],
      [
        22.48986,
        56.66553
      ],
      [
        22.48989,
        56.66556
      ],
      [
        22.48988,
        56.66557
      ],
      [
        22.48991,
        56.6656
      ],
      [
        22.48995,
        56.66565
      ],
      [
        22.49003,
        56.66566
      ],
      [
        22.49012,
        56.66564
      ],
      [
        22.49021,
        56.66562
      ],
      [
        22.49029,
        56.66558
      ],
      [
        22.49036,
        56.66553
      ],
      [
        22.4904,
        56.66552
      ],
      [
        22.49048,
        56.66548
      ],
      [
        22.49058,
        56.66545
      ],
      [
        22.49066,
        56.66544
      ],
      [
        22.49074,
        56.66544
      ],
      [
        22.49078,
        56.66549
      ],
      [
        22.4908,
        56.66551
      ],
      [
        22.49084,
        56.66557
      ],
      [
        22.49091,
        56.66563
      ],
      [
        22.49099,
        56.66567
      ],
      [
        22.49102,
        56.66569
      ],
      [
        22.49106,
        56.66574
      ],
      [
        22.49111,
        56.66579
      ],
      [
        22.49113,
        56.66584
      ],
      [
        22.49116,
        56.66589
      ],
      [
        22.49119,
        56.66593
      ],
      [
        22.49121,
        56.66599
      ],
      [
        22.49124,
        56.66603
      ],
      [
        22.49128,
        56.66608
      ],
      [
        22.49134,
        56.66612
      ],
      [
        22.49138,
        56.66616
      ],
      [
        22.49137,
        56.66616
      ],
      [
        22.49128,
        56.66619
      ],
      [
        22.4912,
        56.66623
      ],
      [
        22.49109,
        56.66626
      ],
      [
        22.49102,
        56.66629
      ],
      [
        22.49096,
        56.66635
      ],
      [
        22.49088,
        56.66639
      ],
      [
        22.4908,
        56.66644
      ],
      [
        22.49071,
        56.66648
      ],
      [
        22.49062,
        56.66653
      ],
      [
        22.49055,
        56.66658
      ],
      [
        22.49049,
        56.66663
      ],
      [
        22.49043,
        56.66666
      ],
      [
        22.49037,
        56.6667
      ],
      [
        22.49033,
        56.66674
      ],
      [
        22.49031,
        56.66679
      ],
      [
        22.49026,
        56.66683
      ],
      [
        22.49026,
        56.66687
      ],
      [
        22.49027,
        56.66693
      ],
      [
        22.49028,
        56.66698
      ],
      [
        22.49028,
        56.66704
      ],
      [
        22.49027,
        56.66709
      ],
      [
        22.49024,
        56.66714
      ],
      [
        22.49024,
        56.66719
      ],
      [
        22.49024,
        56.66723
      ],
      [
        22.49022,
        56.66727
      ],
      [
        22.4902,
        56.66733
      ],
      [
        22.4902,
        56.66738
      ],
      [
        22.49021,
        56.66743
      ],
      [
        22.49023,
        56.66748
      ],
      [
        22.49028,
        56.66752
      ],
      [
        22.49035,
        56.66755
      ],
      [
        22.49044,
        56.66758
      ],
      [
        22.49052,
        56.66761
      ],
      [
        22.4906,
        56.66763
      ],
      [
        22.49067,
        56.66765
      ],
      [
        22.49065,
        56.66767
      ],
      [
        22.49066,
        56.66767
      ],
      [
        22.49073,
        56.66768
      ],
      [
        22.4908,
        56.6677
      ],
      [
        22.49089,
        56.66773
      ],
      [
        22.49098,
        56.66775
      ],
      [
        22.49106,
        56.66777
      ],
      [
        22.49114,
        56.66777
      ],
      [
        22.49124,
        56.66776
      ],
      [
        22.49133,
        56.66775
      ],
      [
        22.49143,
        56.66775
      ],
      [
        22.49152,
        56.66775
      ],
      [
        22.49159,
        56.66775
      ],
      [
        22.49168,
        56.66773
      ],
      [
        22.49176,
        56.66771
      ],
      [
        22.49184,
        56.66769
      ],
      [
        22.49194,
        56.66767
      ],
      [
        22.49198,
        56.66769
      ],
      [
        22.49203,
        56.66765
      ],
      [
        22.4921,
        56.66763
      ],
      [
        22.49219,
        56.66762
      ],
      [
        22.49225,
        56.66764
      ],
      [
        22.49232,
        56.66766
      ],
      [
        22.49232,
        56.66765
      ],
      [
        22.49233,
        56.66765
      ],
      [
        22.49235,
        56.66766
      ],
      [
        22.49231,
        56.6677
      ],
      [
        22.49225,
        56.66774
      ],
      [
        22.49222,
        56.66776
      ],
      [
        22.49219,
        56.6678
      ],
      [
        22.49213,
        56.66785
      ],
      [
        22.49207,
        56.66789
      ],
      [
        22.49201,
        56.66794
      ],
      [
        22.49196,
        56.66798
      ],
      [
        22.49189,
        56.66802
      ],
      [
        22.49183,
        56.66804
      ],
      [
        22.49182,
        56.6681
      ],
      [
        22.49188,
        56.66814
      ],
      [
        22.49194,
        56.66817
      ],
      [
        22.49199,
        56.66821
      ],
      [
        22.49206,
        56.66819
      ],
      [
        22.49214,
        56.66816
      ],
      [
        22.4922,
        56.66812
      ],
      [
        22.49224,
        56.6681
      ],
      [
        22.49234,
        56.66809
      ],
      [
        22.49242,
        56.66808
      ],
      [
        22.49251,
        56.66808
      ],
      [
        22.49261,
        56.66809
      ],
      [
        22.4927,
        56.6681
      ],
      [
        22.49281,
        56.66812
      ],
      [
        22.49289,
        56.66813
      ],
      [
        22.49298,
        56.66815
      ],
      [
        22.49307,
        56.66817
      ],
      [
        22.49317,
        56.66818
      ],
      [
        22.49326,
        56.66819
      ],
      [
        22.49336,
        56.66821
      ],
      [
        22.49344,
        56.66822
      ],
      [
        22.49353,
        56.66823
      ],
      [
        22.49361,
        56.66825
      ],
      [
        22.49371,
        56.66827
      ],
      [
        22.49381,
        56.66829
      ],
      [
        22.4939,
        56.66831
      ],
      [
        22.49397,
        56.66834
      ],
      [
        22.49407,
        56.66835
      ],
      [
        22.49415,
        56.66838
      ],
      [
        22.49422,
        56.66841
      ],
      [
        22.49428,
        56.66841
      ],
      [
        22.49435,
        56.66843
      ],
      [
        22.49444,
        56.66846
      ],
      [
        22.49452,
        56.66848
      ],
      [
        22.4946,
        56.6685
      ],
      [
        22.49468,
        56.66852
      ],
      [
        22.49476,
        56.66853
      ],
      [
        22.49484,
        56.66854
      ],
      [
        22.49495,
        56.66854
      ],
      [
        22.49503,
        56.66854
      ],
      [
        22.49505,
        56.66854
      ],
      [
        22.49507,
        56.66854
      ],
      [
        22.49516,
        56.66854
      ],
      [
        22.49527,
        56.66854
      ],
      [
        22.49537,
        56.66854
      ],
      [
        22.49548,
        56.66855
      ],
      [
        22.49556,
        56.66855
      ],
      [
        22.49566,
        56.66855
      ],
      [
        22.49575,
        56.66855
      ],
      [
        22.49584,
        56.66855
      ],
      [
        22.49592,
        56.66856
      ],
      [
        22.49601,
        56.66857
      ],
      [
        22.49611,
        56.66857
      ],
      [
        22.4962,
        56.66857
      ],
      [
        22.49628,
        56.66856
      ],
      [
        22.49637,
        56.66856
      ],
      [
        22.49645,
        56.66857
      ],
      [
        22.49657,
        56.66859
      ],
      [
        22.49664,
        56.66861
      ],
      [
        22.49673,
        56.66862
      ],
      [
        22.49685,
        56.66864
      ],
      [
        22.49695,
        56.66867
      ],
      [
        22.49704,
        56.66869
      ],
      [
        22.49713,
        56.66869
      ],
      [
        22.49724,
        56.66869
      ],
      [
        22.49733,
        56.6687
      ],
      [
        22.49742,
        56.6687
      ],
      [
        22.49752,
        56.66871
      ],
      [
        22.4976,
        56.66872
      ],
      [
        22.49769,
        56.66872
      ],
      [
        22.49777,
        56.66873
      ],
      [
        22.49785,
        56.66876
      ],
      [
        22.49793,
        56.66878
      ],
      [
        22.49802,
        56.66879
      ],
      [
        22.49811,
        56.6688
      ],
      [
        22.4982,
        56.66881
      ],
      [
        22.49828,
        56.66882
      ],
      [
        22.49838,
        56.66883
      ],
      [
        22.49848,
        56.66885
      ],
      [
        22.49857,
        56.66886
      ],
      [
        22.49867,
        56.66887
      ],
      [
        22.49876,
        56.66888
      ],
      [
        22.49886,
        56.66889
      ],
      [
        22.49895,
        56.66891
      ],
      [
        22.49898,
        56.66894
      ],
      [
        22.49902,
        56.66898
      ],
      [
        22.4991,
        56.669
      ],
      [
        22.49915,
        56.66904
      ],
      [
        22.49919,
        56.66908
      ],
      [
        22.49927,
        56.66911
      ],
      [
        22.49935,
        56.66914
      ],
      [
        22.49939,
        56.66919
      ],
      [
        22.49941,
        56.66923
      ],
      [
        22.49945,
        56.66927
      ],
      [
        22.49953,
        56.6693
      ],
      [
        22.49962,
        56.66933
      ],
      [
        22.49972,
        56.66937
      ],
      [
        22.49982,
        56.66942
      ],
      [
        22.4999,
        56.66946
      ],
      [
        22.49999,
        56.66952
      ],
      [
        22.5001,
        56.66953
      ],
      [
        22.50022,
        56.66953
      ],
      [
        22.50032,
        56.66955
      ],
      [
        22.50042,
        56.66961
      ],
      [
        22.50051,
        56.66965
      ],
      [
        22.50055,
        56.66972
      ],
      [
        22.5006,
        56.66978
      ],
      [
        22.50066,
        56.66982
      ],
      [
        22.50066,
        56.66982
      ],
      [
        22.50065,
        56.66983
      ],
      [
        22.50074,
        56.66986
      ],
      [
        22.50108,
        56.66966
      ],
      [
        22.5015,
        56.66939
      ],
      [
        22.5018,
        56.66915
      ],
      [
        22.50202,
        56.66899
      ],
      [
        22.50202,
        56.66899
      ],
      [
        22.50202,
        56.66899
      ],
      [
        22.50211,
        56.66893
      ],
      [
        22.50229,
        56.66882
      ],
      [
        22.50249,
        56.66871
      ],
      [
        22.50278,
        56.66852
      ],
      [
        22.50278,
        56.66852
      ],
      [
        22.50278,
        56.66852
      ],
      [
        22.50284,
        56.66855
      ],
      [
        22.50288,
        56.66859
      ],
      [
        22.5031,
        56.66881
      ],
      [
        22.5032,
        56.66889
      ],
      [
        22.50326,
        56.66894
      ],
      [
        22.50333,
        56.66898
      ],
      [
        22.5035,
        56.66909
      ],
      [
        22.50356,
        56.66913
      ],
      [
        22.50363,
        56.66919
      ],
      [
        22.50367,
        56.66925
      ],
      [
        22.50374,
        56.66936
      ],
      [
        22.50374,
        56.66936
      ],
      [
        22.50374,
        56.66936
      ],
      [
        22.50383,
        56.66951
      ],
      [
        22.50386,
        56.66959
      ],
      [
        22.50386,
        56.66967
      ],
      [
        22.5039,
        56.67008
      ],
      [
        22.50397,
        56.67021
      ],
      [
        22.50399,
        56.67022
      ],
      [
        22.50399,
        56.67022
      ],
      [
        22.50399,
        56.67022
      ],
      [
        22.50406,
        56.67027
      ],
      [
        22.50414,
        56.67031
      ],
      [
        22.50424,
        56.67035
      ],
      [
        22.50459,
        56.67043
      ],
      [
        22.50473,
        56.67047
      ],
      [
        22.50482,
        56.67051
      ],
      [
        22.5049,
        56.67055
      ],
      [
        22.50497,
        56.67059
      ],
      [
        22.5051,
        56.67069
      ],
      [
        22.5051,
        56.67069
      ],
      [
        22.5051,
        56.67069
      ],
      [
        22.50515,
        56.67072
      ],
      [
        22.50526,
        56.6708
      ],
      [
        22.50534,
        56.67084
      ],
      [
        22.50545,
        56.67087
      ],
      [
        22.50708,
        56.67133
      ],
      [
        22.50713,
        56.67137
      ],
      [
        22.50715,
        56.6714
      ],
      [
        22.50713,
        56.67143
      ],
      [
        22.50713,
        56.67143
      ],
      [
        22.50707,
        56.67176
      ],
      [
        22.50707,
        56.67176
      ],
      [
        22.50704,
        56.67198
      ],
      [
        22.50704,
        56.67198
      ],
      [
        22.50609,
        56.67225
      ],
      [
        22.50609,
        56.67225
      ],
      [
        22.50516,
        56.6726
      ],
      [
        22.50423,
        56.67295
      ],
      [
        22.50423,
        56.67295
      ],
      [
        22.50435,
        56.67319
      ],
      [
        22.50423,
        56.67295
      ],
      [
        22.50423,
        56.67295
      ],
      [
        22.50516,
        56.6726
      ],
      [
        22.50609,
        56.67225
      ],
      [
        22.50609,
        56.67225
      ],
      [
        22.50704,
        56.67198
      ],
      [
        22.50704,
        56.67198
      ],
      [
        22.50707,
        56.67176
      ],
      [
        22.50707,
        56.67176
      ],
      [
        22.50713,
        56.67143
      ],
      [
        22.50713,
        56.67143
      ],
      [
        22.50715,
        56.6714
      ],
      [
        22.50713,
        56.67137
      ],
      [
        22.50708,
        56.67133
      ],
      [
        22.50545,
        56.67087
      ],
      [
        22.50534,
        56.67084
      ],
      [
        22.50526,
        56.6708
      ],
      [
        22.50515,
        56.67072
      ],
      [
        22.5051,
        56.67069
      ],
      [
        22.5051,
        56.67069
      ],
      [
        22.5051,
        56.67069
      ],
      [
        22.50497,
        56.67059
      ],
      [
        22.5049,
        56.67055
      ],
      [
        22.50482,
        56.67051
      ],
      [
        22.50473,
        56.67047
      ],
      [
        22.50459,
        56.67043
      ],
      [
        22.50424,
        56.67035
      ],
      [
        22.50414,
        56.67031
      ],
      [
        22.50406,
        56.67027
      ],
      [
        22.50399,
        56.67022
      ],
      [
        22.50399,
        56.67022
      ],
      [
        22.50399,
        56.67022
      ],
      [
        22.50397,
        56.67021
      ],
      [
        22.5039,
        56.67008
      ],
      [
        22.50386,
        56.66967
      ],
      [
        22.50386,
        56.66959
      ],
      [
        22.50383,
        56.66951
      ],
      [
        22.50374,
        56.66936
      ],
      [
        22.50374,
        56.66936
      ],
      [
        22.50374,
        56.66936
      ],
      [
        22.50367,
        56.66925
      ],
      [
        22.50363,
        56.66919
      ],
      [
        22.50356,
        56.66913
      ],
      [
        22.5035,
        56.66909
      ],
      [
        22.50333,
        56.66898
      ],
      [
        22.50326,
        56.66894
      ],
      [
        22.5032,
        56.66889
      ],
      [
        22.5031,
        56.66881
      ],
      [
        22.50288,
        56.66859
      ],
      [
        22.50284,
        56.66855
      ],
      [
        22.50278,
        56.66852
      ],
      [
        22.50278,
        56.66852
      ],
      [
        22.50278,
        56.66852
      ],
      [
        22.50249,
        56.66871
      ],
      [
        22.50229,
        56.66882
      ],
      [
        22.50211,
        56.66893
      ],
      [
        22.50202,
        56.66899
      ],
      [
        22.50202,
        56.66899
      ],
      [
        22.50202,
        56.66899
      ],
      [
        22.5018,
        56.66915
      ],
      [
        22.5015,
        56.66939
      ],
      [
        22.50108,
        56.66966
      ],
      [
        22.50074,
        56.66986
      ],
      [
        22.50065,
        56.66983
      ],
      [
        22.50066,
        56.66982
      ],
      [
        22.50066,
        56.66982
      ],
      [
        22.5006,
        56.66978
      ],
      [
        22.50055,
        56.66972
      ],
      [
        22.50051,
        56.66965
      ],
      [
        22.50042,
        56.66961
      ],
      [
        22.50032,
        56.66955
      ],
      [
        22.50022,
        56.66953
      ],
      [
        22.5001,
        56.66953
      ],
      [
        22.49999,
        56.66952
      ],
      [
        22.4999,
        56.66946
      ],
      [
        22.49982,
        56.66942
      ],
      [
        22.49972,
        56.66937
      ],
      [
        22.49962,
        56.66933
      ],
      [
        22.49953,
        56.6693
      ],
      [
        22.49945,
        56.66927
      ],
      [
        22.49941,
        56.66923
      ],
      [
        22.49939,
        56.66919
      ],
      [
        22.49935,
        56.66914
      ],
      [
        22.49927,
        56.66911
      ],
      [
        22.49919,
        56.66908
      ],
      [
        22.49915,
        56.66904
      ],
      [
        22.4991,
        56.669
      ],
      [
        22.49902,
        56.66898
      ],
      [
        22.49898,
        56.66894
      ],
      [
        22.49895,
        56.66891
      ],
      [
        22.49886,
        56.66889
      ],
      [
        22.49876,
        56.66888
      ],
      [
        22.49867,
        56.66887
      ],
      [
        22.49857,
        56.66886
      ],
      [
        22.49848,
        56.66885
      ],
      [
        22.49838,
        56.66883
      ],
      [
        22.49828,
        56.66882
      ],
      [
        22.4982,
        56.66881
      ],
      [
        22.49811,
        56.6688
      ],
      [
        22.49802,
        56.66879
      ],
      [
        22.49793,
        56.66878
      ],
      [
        22.49785,
        56.66876
      ],
      [
        22.49777,
        56.66873
      ],
      [
        22.49769,
        56.66872
      ],
      [
        22.4976,
        56.66872
      ],
      [
        22.49752,
        56.66871
      ],
      [
        22.49742,
        56.6687
      ],
      [
        22.49733,
        56.6687
      ],
      [
        22.49724,
        56.66869
      ],
      [
        22.49713,
        56.66869
      ],
      [
        22.49704,
        56.66869
      ],
      [
        22.49695,
        56.66867
      ],
      [
        22.49685,
        56.66864
      ],
      [
        22.49673,
        56.66862
      ],
      [
        22.49664,
        56.66861
      ],
      [
        22.49657,
        56.66859
      ],
      [
        22.49645,
        56.66857
      ],
      [
        22.49637,
        56.66856
      ],
      [
        22.49628,
        56.66856
      ],
      [
        22.4962,
        56.66857
      ],
      [
        22.49611,
        56.66857
      ],
      [
        22.49601,
        56.66857
      ],
      [
        22.49592,
        56.66856
      ],
      [
        22.49584,
        56.66855
      ],
      [
        22.49575,
        56.66855
      ],
      [
        22.49566,
        56.66855
      ],
      [
        22.49556,
        56.66855
      ],
      [
        22.49548,
        56.66855
      ],
      [
        22.49537,
        56.66854
      ],
      [
        22.49527,
        56.66854
      ],
      [
        22.49516,
        56.66854
      ],
      [
        22.49507,
        56.66854
      ],
      [
        22.49505,
        56.66854
      ],
      [
        22.49503,
        56.66854
      ],
      [
        22.49495,
        56.66854
      ],
      [
        22.49484,
        56.66854
      ],
      [
        22.49476,
        56.66853
      ],
      [
        22.49468,
        56.66852
      ],
      [
        22.4946,
        56.6685
      ],
      [
        22.49452,
        56.66848
      ],
      [
        22.49444,
        56.66846
      ],
      [
        22.49435,
        56.66843
      ],
      [
        22.49428,
        56.66841
      ],
      [
        22.49422,
        56.66841
      ],
      [
        22.49415,
        56.66838
      ],
      [
        22.49407,
        56.66835
      ],
      [
        22.49397,
        56.66834
      ],
      [
        22.4939,
        56.66831
      ],
      [
        22.49381,
        56.66829
      ],
      [
        22.49371,
        56.66827
      ],
      [
        22.49361,
        56.66825
      ],
      [
        22.49353,
        56.66823
      ],
      [
        22.49344,
        56.66822
      ],
      [
        22.49336,
        56.66821
      ],
      [
        22.49326,
        56.66819
      ],
      [
        22.49317,
        56.66818
      ],
      [
        22.49307,
        56.66817
      ],
      [
        22.49298,
        56.66815
      ],
      [
        22.49289,
        56.66813
      ],
      [
        22.49281,
        56.66812
      ],
      [
        22.4927,
        56.6681
      ],
      [
        22.49261,
        56.66809
      ],
      [
        22.49251,
        56.66808
      ],
      [
        22.49242,
        56.66808
      ],
      [
        22.49234,
        56.66809
      ],
      [
        22.49224,
        56.6681
      ],
      [
        22.4922,
        56.66812
      ],
      [
        22.49214,
        56.66816
      ],
      [
        22.49206,
        56.66819
      ],
      [
        22.49199,
        56.66821
      ],
      [
        22.49194,
        56.66817
      ],
      [
        22.49188,
        56.66814
      ],
      [
        22.49182,
        56.6681
      ],
      [
        22.49183,
        56.66804
      ],
      [
        22.49189,
        56.66802
      ],
      [
        22.49196,
        56.66798
      ],
      [
        22.49201,
        56.66794
      ],
      [
        22.49207,
        56.66789
      ],
      [
        22.49213,
        56.66785
      ],
      [
        22.49219,
        56.6678
      ],
      [
        22.49222,
        56.66776
      ],
      [
        22.49225,
        56.66774
      ],
      [
        22.49231,
        56.6677
      ],
      [
        22.49235,
        56.66766
      ],
      [
        22.49233,
        56.66765
      ],
      [
        22.49232,
        56.66765
      ],
      [
        22.49232,
        56.66766
      ],
      [
        22.49225,
        56.66764
      ],
      [
        22.49219,
        56.66762
      ],
      [
        22.4921,
        56.66763
      ],
      [
        22.49203,
        56.66765
      ],
      [
        22.49198,
        56.66769
      ],
      [
        22.49194,
        56.66767
      ],
      [
        22.49184,
        56.66769
      ],
      [
        22.49176,
        56.66771
      ],
      [
        22.49168,
        56.66773
      ],
      [
        22.49159,
        56.66775
      ],
      [
        22.49152,
        56.66775
      ],
      [
        22.49143,
        56.66775
      ],
      [
        22.49133,
        56.66775
      ],
      [
        22.49124,
        56.66776
      ],
      [
        22.49114,
        56.66777
      ],
      [
        22.49106,
        56.66777
      ],
      [
        22.49098,
        56.66775
      ],
      [
        22.49089,
        56.66773
      ],
      [
        22.4908,
        56.6677
      ],
      [
        22.49073,
        56.66768
      ],
      [
        22.49066,
        56.66767
      ],
      [
        22.49065,
        56.66767
      ],
      [
        22.49067,
        56.66765
      ],
      [
        22.4906,
        56.66763
      ],
      [
        22.49052,
        56.66761
      ],
      [
        22.49044,
        56.66758
      ],
      [
        22.49035,
        56.66755
      ],
      [
        22.49028,
        56.66752
      ],
      [
        22.49023,
        56.66748
      ],
      [
        22.49021,
        56.66743
      ],
      [
        22.4902,
        56.66738
      ],
      [
        22.4902,
        56.66733
      ],
      [
        22.49022,
        56.66727
      ],
      [
        22.49024,
        56.66723
      ],
      [
        22.49024,
        56.66719
      ],
      [
        22.49024,
        56.66714
      ],
      [
        22.49027,
        56.66709
      ],
      [
        22.49028,
        56.66704
      ],
      [
        22.49028,
        56.66698
      ],
      [
        22.49027,
        56.66693
      ],
      [
        22.49026,
        56.66687
      ],
      [
        22.49026,
        56.66683
      ],
      [
        22.49031,
        56.66679
      ],
      [
        22.49033,
        56.66674
      ],
      [
        22.49037,
        56.6667
      ],
      [
        22.49043,
        56.66666
      ],
      [
        22.49049,
        56.66663
      ],
      [
        22.49055,
        56.66658
      ],
      [
        22.49062,
        56.66653
      ],
      [
        22.49071,
        56.66648
      ],
      [
        22.4908,
        56.66644
      ],
      [
        22.49088,
        56.66639
      ],
      [
        22.49096,
        56.66635
      ],
      [
        22.49102,
        56.66629
      ],
      [
        22.49109,
        56.66626
      ],
      [
        22.4912,
        56.66623
      ],
      [
        22.49128,
        56.66619
      ],
      [
        22.49137,
        56.66616
      ],
      [
        22.49138,
        56.66616
      ],
      [
        22.49134,
        56.66612
      ],
      [
        22.49128,
        56.66608
      ],
      [
        22.49124,
        56.66603
      ],
      [
        22.49121,
        56.66599
      ],
      [
        22.49119,
        56.66593
      ],
      [
        22.49116,
        56.66589
      ],
      [
        22.49113,
        56.66584
      ],
      [
        22.49111,
        56.66579
      ],
      [
        22.49106,
        56.66574
      ],
      [
        22.49102,
        56.66569
      ],
      [
        22.49099,
        56.66567
      ],
      [
        22.49091,
        56.66563
      ],
      [
        22.49084,
        56.66557
      ],
      [
        22.4908,
        56.66551
      ],
      [
        22.49078,
        56.66549
      ],
      [
        22.49074,
        56.66544
      ],
      [
        22.49066,
        56.66544
      ],
      [
        22.49058,
        56.66545
      ],
      [
        22.49048,
        56.66548
      ],
      [
        22.4904,
        56.66552
      ],
      [
        22.49036,
        56.66553
      ],
      [
        22.49029,
        56.66558
      ],
      [
        22.49021,
        56.66562
      ],
      [
        22.49012,
        56.66564
      ],
      [
        22.49003,
        56.66566
      ],
      [
        22.48995,
        56.66565
      ],
      [
        22.48991,
        56.6656
      ],
      [
        22.48988,
        56.66557
      ],
      [
        22.48989,
        56.66556
      ],
      [
        22.48986,
        56.66553
      ],
      [
        22.48977,
        56.6655
      ],
      [
        22.48969,
        56.66547
      ],
      [
        22.4896,
        56.66545
      ],
      [
        22.48951,
        56.66543
      ],
      [
        22.48942,
        56.6654
      ],
      [
        22.48934,
        56.66537
      ],
      [
        22.48928,
        56.66534
      ],
      [
        22.48922,
        56.6653
      ],
      [
        22.48919,
        56.66526
      ],
      [
        22.48913,
        56.66522
      ],
      [
        22.48908,
        56.66517
      ],
      [
        22.48904,
        56.66513
      ],
      [
        22.48905,
        56.66508
      ],
      [
        22.48908,
        56.66503
      ],
      [
        22.48913,
        56.66498
      ],
      [
        22.48919,
        56.66494
      ],
      [
        22.48925,
        56.6649
      ],
      [
        22.4893,
        56.66486
      ],
      [
        22.48931,
        56.66485
      ],
      [
        22.48931,
        56.66484
      ],
      [
        22.48936,
        56.6648
      ],
      [
        22.48942,
        56.66476
      ],
      [
        22.48949,
        56.66474
      ],
      [
        22.48957,
        56.66472
      ],
      [
        22.48964,
        56.66468
      ],
      [
        22.48968,
        56.66464
      ],
      [
        22.48967,
        56.66459
      ],
      [
        22.4896,
        56.66456
      ],
      [
        22.48953,
        56.66453
      ],
      [
        22.48946,
        56.6645
      ],
      [
        22.48939,
        56.66446
      ],
      [
        22.48933,
        56.66442
      ],
      [
        22.48927,
        56.66438
      ],
      [
        22.48919,
        56.66434
      ],
      [
        22.4891,
        56.66432
      ],
      [
        22.48899,
        56.66431
      ],
      [
        22.4889,
        56.66431
      ],
      [
        22.4888,
        56.66433
      ],
      [
        22.48871,
        56.66435
      ],
      [
        22.48863,
        56.66438
      ],
      [
        22.48855,
        56.66441
      ],
      [
        22.48845,
        56.66445
      ],
      [
        22.48833,
        56.66447
      ],
      [
        22.48821,
        56.6645
      ],
      [
        22.4881,
        56.66451
      ],
      [
        22.48803,
        56.66454
      ],
      [
        22.48789,
        56.66455
      ],
      [
        22.4878,
        56.66452
      ],
      [
        22.4877,
        56.66447
      ],
      [
        22.48761,
        56.66443
      ],
      [
        22.48751,
        56.6644
      ],
      [
        22.48741,
        56.66437
      ],
      [
        22.48731,
        56.66434
      ],
      [
        22.48725,
        56.66427
      ],
      [
        22.48721,
        56.66421
      ],
      [
        22.48717,
        56.66418
      ],
      [
        22.4871,
        56.66415
      ],
      [
        22.4871,
        56.66414
      ],
      [
        22.48702,
        56.66411
      ],
      [
        22.48698,
        56.66406
      ],
      [
        22.48695,
        56.66401
      ],
      [
        22.48691,
        56.66396
      ],
      [
        22.48687,
        56.66392
      ],
      [
        22.48683,
        56.66387
      ],
      [
        22.48678,
        56.66382
      ],
      [
        22.48672,
        56.66378
      ],
      [
        22.48665,
        56.66374
      ],
      [
        22.48659,
        56.66371
      ],
      [
        22.48656,
        56.66366
      ],
      [
        22.48652,
        56.66363
      ],
      [
        22.48647,
        56.66358
      ],
      [
        22.48643,
        56.66352
      ],
      [
        22.48641,
        56.66347
      ],
      [
        22.4864,
        56.66342
      ]
    ]
  }
}