{
  "type": "Feature",
  "properties": {
    "id": "esta-o-da-biodiversidade-de-macieira-de-alc-ba_dv4x",
    "name": "Estação da Biodiversidade de Macieira de Alcôba",
    "distanceMeters": 1408.8875028269688,
    "elevationGainM": 27,
    "elevationsM": [
      131.8,
      132.3,
      133.3,
      131.9,
      131.6,
      130.3,
      130.6,
      129.8,
      130.4,
      130.6,
      129.6,
      130.9,
      131.2,
      132.7,
      132.4,
      132.7,
      132.8,
      133.1,
      133.3,
      133.5,
      132.5,
      133.4,
      134.1,
      133,
      132.9,
      133,
      134.4,
      133.9,
      133.2,
      134.3,
      134,
      134.8,
      134,
      133.8,
      135.2,
      135.3,
      136.1,
      134.8,
      135.1,
      136.1,
      136.8,
      136.6,
      135.6,
      136.2,
      136.7,
      136,
      136.6,
      136.8,
      136.3,
      134.9,
      133.7,
      133.5,
      133.4,
      134.7,
      134.8,
      134.1,
      134.5,
      135.8,
      135.8,
      136.8,
      138.1,
      137.2,
      138.4,
      137.4,
      137.7,
      138.5,
      138.2,
      137.8,
      136.9,
      135.8,
      135.8,
      134.9,
      135.7,
      135.1,
      134.3,
      134.1,
      134.4
    ]
  },
  "geometry": {
    "type": "LineString",
    "coordinates": [
      [
        -8.275969,
        40.621121
      ],
      [
        -8.276031,
        40.621254
      ],
      [
        -8.275966,
        40.621296
      ],
      [
        -8.27601,
        40.621414
      ],
      [
        -8.275923,
        40.621677
      ],
      [
        -8.275746,
        40.621723
      ],
      [
        -8.275879,
        40.621753
      ],
      [
        -8.275805,
        40.621787
      ],
      [
        -8.275968,
        40.62193
      ],
      [
        -8.275931,
        40.621949
      ],
      [
        -8.275942,
        40.622154
      ],
      [
        -8.276049,
        40.622153
      ],
      [
        -8.276032,
        40.622215
      ],
      [
        -8.275877,
        40.622096
      ],
      [
        -8.275923,
        40.622122
      ],
      [
        -8.275799,
        40.622158
      ],
      [
        -8.27573,
        40.622166
      ],
      [
        -8.275573,
        40.622073
      ],
      [
        -8.275242,
        40.622107
      ],
      [
        -8.275219,
        40.62221
      ],
      [
        -8.275215,
        40.62217
      ],
      [
        -8.275241,
        40.62214
      ],
      [
        -8.275102,
        40.622203
      ],
      [
        -8.275018,
        40.622244
      ],
      [
        -8.274996,
        40.622315
      ],
      [
        -8.27491,
        40.622313
      ],
      [
        -8.27488,
        40.622238
      ],
      [
        -8.274829,
        40.622318
      ],
      [
        -8.274797,
        40.622345
      ],
      [
        -8.274777,
        40.622321
      ],
      [
        -8.274746,
        40.622315
      ],
      [
        -8.27473,
        40.622083
      ],
      [
        -8.274644,
        40.622005
      ],
      [
        -8.274654,
        40.621998
      ],
      [
        -8.275056,
        40.621846
      ],
      [
        -8.275172,
        40.621802
      ],
      [
        -8.275382,
        40.621484
      ],
      [
        -8.275517,
        40.621269
      ],
      [
        -8.27598,
        40.621266
      ],
      [
        -8.27599,
        40.621079
      ],
      [
        -8.276084,
        40.620979
      ],
      [
        -8.276163,
        40.620801
      ],
      [
        -8.27605,
        40.620688
      ],
      [
        -8.276124,
        40.620478
      ],
      [
        -8.276214,
        40.620088
      ],
      [
        -8.276318,
        40.620106
      ],
      [
        -8.27637,
        40.619898
      ],
      [
        -8.276372,
        40.619841
      ],
      [
        -8.276306,
        40.619743
      ],
      [
        -8.276259,
        40.619389
      ],
      [
        -8.276226,
        40.619001
      ],
      [
        -8.276338,
        40.619035
      ],
      [
        -8.276449,
        40.619285
      ],
      [
        -8.277104,
        40.619321
      ],
      [
        -8.277333,
        40.619283
      ],
      [
        -8.277537,
        40.619299
      ],
      [
        -8.2776,
        40.619313
      ],
      [
        -8.277665,
        40.619334
      ],
      [
        -8.277736,
        40.619359
      ],
      [
        -8.27769,
        40.619444
      ],
      [
        -8.277823,
        40.619575
      ],
      [
        -8.277837,
        40.619709
      ],
      [
        -8.277966,
        40.619758
      ],
      [
        -8.277934,
        40.620191
      ],
      [
        -8.27829,
        40.620127
      ],
      [
        -8.278592,
        40.620124
      ],
      [
        -8.278434,
        40.62027
      ],
      [
        -8.278356,
        40.620475
      ],
      [
        -8.278276,
        40.620428
      ],
      [
        -8.278216,
        40.620595
      ],
      [
        -8.278009,
        40.620809
      ],
      [
        -8.277877,
        40.620939
      ],
      [
        -8.277661,
        40.62127
      ],
      [
        -8.277387,
        40.621309
      ],
      [
        -8.276734,
        40.621334
      ],
      [
        -8.276398,
        40.621244
      ],
      [
        -8.276091,
        40.621222
      ]
    ]
  }
}