{
  "type": "Feature",
  "properties": {
    "id": "esta-o-da-biodiversidade-do-merujal_dyqh",
    "name": "Estação da Biodiversidade do Merujal",
    "distanceMeters": 4149.098916362642,
    "elevationGainM": 68,
    "elevationsM": [
      140.1,
      138.7,
      138.1,
      138.9,
      137.5,
      137.2,
      137.2,
      136.5,
      135.4,
      135.9,
      136.2,
      137,
      137.3,
      136.9,
      136.8,
      138.3,
      136.9,
      138,
      138.5,
      138.7,
      139.5,
      138.1,
      137.2,
      136.2,
      137.7,
      138.9,
      139.1,
      138.8,
      138.6,
      137.3,
      137.8,
      138.5,
      139.2,
      137.9,
      138.2,
      137.4,
      137.3,
      137.8,
      139.3,
      138.4,
      138,
      138.1,
      138.3,
      139.9,
      141.4,
      140.9,
      141.5,
      141,
      140.3,
      140.2,
      139.2,
      138.6,
      139.2,
      139.6,
      138.8,
      137.6,
      137.3,
      136.7,
      138.1,
      139.4,
      139,
      139.9,
      140.3,
      141.1,
      141.4,
      140.5,
      141,
      142.1,
      143.6,
      143.1,
      144.3,
      143.6,
      145.1,
      144,
      142.5,
      141.2,
      141.7,
      140.4,
      140.4,
      140,
      139.1,
      137.8,
      136.4,
      137.5,
      136.1,
      135.5,
      134.7,
      133.7,
      132.8,
      133.6,
      133.3,
      132.1,
      131.3,
      132.4,
      133.7,
      132.3,
      132,
      131.5,
      131.4,
      131.7,
      130.6,
      131.5,
      131.1,
      130.9,
      130.9,
      131.1,
      131.3,
      130.7,
      129.5,
      130.7,
      131.8,
      131.8,
      132.9,
      133.7,
      134.8,
      133.4,
      134.9,
      136.2,
      135.1,
      135.4,
      136.1,
      137.4,
      138.2,
      138,
      138.6,
      139,
      139,
      137.8,
      138.3,
      137.8,
      137.1,
      137.8,
      136.9,
      136.1,
      136.9,
      136.4,
      135.5,
      135.1,
      135.4,
      134.1,
      133.2,
      132.6,
      131.8,
      131.5,
      131.3,
      131.7,
      131.1,
      131,
      130.2,
      130.5,
      131,
      129.9,
      129,
      129.3,
      128.3,
      127.5,
      126.4,
      126.9,
      126.9,
      125.6,
      126.8,
      125.9,
      125.8,
      126.3,
      127.3,
      128.6,
      127.4,
      126.7,
      126.9,
      125.8,
      125.3,
      125.6,
      125.1,
      126.5,
      125.4,
      124.9,
      124.2,
      123.3,
      124.6,
      125.5,
      126.5,
      127.2,
      126.5,
      125.5,
      126.3,
      127.6,
      126.2,
      126.5,
      125.4,
      126.1,
      127.2,
      127.8,
      127.2,
      128.4,
      127.4,
      126.1,
      125.5
    ]
  },
  "geometry": {
    "type": "LineString",
    "coordinates": [
      [
        -8.288145,
        40.858145
      ],
      [
        -8.288144,
        40.857927
      ],
      [
        -8.288113,
        40.858138
      ],
      [
        -8.288007,
        40.85823
      ],
      [
        -8.288051,
        40.858084
      ],
      [
        -8.287817,
        40.858175
      ],
      [
        -8.287794,
        40.858201
      ],
      [
        -8.287547,
        40.858119
      ],
      [
        -8.287363,
        40.858353
      ],
      [
        -8.287243,
        40.858301
      ],
      [
        -8.286664,
        40.858446
      ],
      [
        -8.286742,
        40.858426
      ],
      [
        -8.286483,
        40.858531
      ],
      [
        -8.286055,
        40.858683
      ],
      [
        -8.285892,
        40.858596
      ],
      [
        -8.285819,
        40.858667
      ],
      [
        -8.28559,
        40.85888
      ],
      [
        -8.28571,
        40.85871
      ],
      [
        -8.285434,
        40.858856
      ],
      [
        -8.285318,
        40.858809
      ],
      [
        -8.285452,
        40.858873
      ],
      [
        -8.285578,
        40.859022
      ],
      [
        -8.285622,
        40.859053
      ],
      [
        -8.285639,
        40.859061
      ],
      [
        -8.285533,
        40.859126
      ],
      [
        -8.285666,
        40.859161
      ],
      [
        -8.285612,
        40.859152
      ],
      [
        -8.285701,
        40.859167
      ],
      [
        -8.285763,
        40.85924
      ],
      [
        -8.28573,
        40.859153
      ],
      [
        -8.285785,
        40.859288
      ],
      [
        -8.285611,
        40.859288
      ],
      [
        -8.285766,
        40.859305
      ],
      [
        -8.285512,
        40.859515
      ],
      [
        -8.28532,
        40.859446
      ],
      [
        -8.285424,
        40.859566
      ],
      [
        -8.285564,
        40.859487
      ],
      [
        -8.285672,
        40.859677
      ],
      [
        -8.285663,
        40.859913
      ],
      [
        -8.285453,
        40.859838
      ],
      [
        -8.285657,
        40.859824
      ],
      [
        -8.285556,
        40.859889
      ],
      [
        -8.2858,
        40.859801
      ],
      [
        -8.285924,
        40.859776
      ],
      [
        -8.285803,
        40.859792
      ],
      [
        -8.286072,
        40.859994
      ],
      [
        -8.285946,
        40.860086
      ],
      [
        -8.286165,
        40.860109
      ],
      [
        -8.286148,
        40.860035
      ],
      [
        -8.286175,
        40.860055
      ],
      [
        -8.285943,
        40.86014
      ],
      [
        -8.286066,
        40.860311
      ],
      [
        -8.286229,
        40.860188
      ],
      [
        -8.285976,
        40.860326
      ],
      [
        -8.286219,
        40.860544
      ],
      [
        -8.286252,
        40.860445
      ],
      [
        -8.286324,
        40.860476
      ],
      [
        -8.286167,
        40.8606
      ],
      [
        -8.286044,
        40.860627
      ],
      [
        -8.286145,
        40.860756
      ],
      [
        -8.286077,
        40.860812
      ],
      [
        -8.286174,
        40.860967
      ],
      [
        -8.286005,
        40.861038
      ],
      [
        -8.286168,
        40.860947
      ],
      [
        -8.286016,
        40.861156
      ],
      [
        -8.286065,
        40.86118
      ],
      [
        -8.285856,
        40.861014
      ],
      [
        -8.285909,
        40.861242
      ],
      [
        -8.285476,
        40.861147
      ],
      [
        -8.285397,
        40.861335
      ],
      [
        -8.285548,
        40.861286
      ],
      [
        -8.285286,
        40.861187
      ],
      [
        -8.285536,
        40.861402
      ],
      [
        -8.285607,
        40.861419
      ],
      [
        -8.285335,
        40.861554
      ],
      [
        -8.285427,
        40.861524
      ],
      [
        -8.285391,
        40.861638
      ],
      [
        -8.285224,
        40.861549
      ],
      [
        -8.285175,
        40.861726
      ],
      [
        -8.285341,
        40.861822
      ],
      [
        -8.285154,
        40.861772
      ],
      [
        -8.285139,
        40.861924
      ],
      [
        -8.285302,
        40.861823
      ],
      [
        -8.285359,
        40.862111
      ],
      [
        -8.285245,
        40.862156
      ],
      [
        -8.28524,
        40.862262
      ],
      [
        -8.285106,
        40.86205
      ],
      [
        -8.285221,
        40.862218
      ],
      [
        -8.285256,
        40.86235
      ],
      [
        -8.285469,
        40.862316
      ],
      [
        -8.285411,
        40.862569
      ],
      [
        -8.285571,
        40.862726
      ],
      [
        -8.285564,
        40.862675
      ],
      [
        -8.285589,
        40.862754
      ],
      [
        -8.285632,
        40.862628
      ],
      [
        -8.285935,
        40.86274
      ],
      [
        -8.285975,
        40.862695
      ],
      [
        -8.285981,
        40.862866
      ],
      [
        -8.286109,
        40.862868
      ],
      [
        -8.286046,
        40.862962
      ],
      [
        -8.286202,
        40.862744
      ],
      [
        -8.286275,
        40.863054
      ],
      [
        -8.286162,
        40.862945
      ],
      [
        -8.285882,
        40.862985
      ],
      [
        -8.285881,
        40.863071
      ],
      [
        -8.286056,
        40.862892
      ],
      [
        -8.286272,
        40.862929
      ],
      [
        -8.286271,
        40.863124
      ],
      [
        -8.286462,
        40.862948
      ],
      [
        -8.286508,
        40.86297
      ],
      [
        -8.286648,
        40.862866
      ],
      [
        -8.286465,
        40.862913
      ],
      [
        -8.28642,
        40.862732
      ],
      [
        -8.286462,
        40.862732
      ],
      [
        -8.286352,
        40.862633
      ],
      [
        -8.286311,
        40.862452
      ],
      [
        -8.286307,
        40.862379
      ],
      [
        -8.286142,
        40.862422
      ],
      [
        -8.286314,
        40.862551
      ],
      [
        -8.286251,
        40.86257
      ],
      [
        -8.286594,
        40.862587
      ],
      [
        -8.286786,
        40.862738
      ],
      [
        -8.286834,
        40.862658
      ],
      [
        -8.286829,
        40.862731
      ],
      [
        -8.287058,
        40.862739
      ],
      [
        -8.287238,
        40.862882
      ],
      [
        -8.287039,
        40.862923
      ],
      [
        -8.287141,
        40.863007
      ],
      [
        -8.287341,
        40.863332
      ],
      [
        -8.287079,
        40.863288
      ],
      [
        -8.287154,
        40.863296
      ],
      [
        -8.286882,
        40.863376
      ],
      [
        -8.286232,
        40.863748
      ],
      [
        -8.28589,
        40.863854
      ],
      [
        -8.285836,
        40.863839
      ],
      [
        -8.285357,
        40.864104
      ],
      [
        -8.285355,
        40.864157
      ],
      [
        -8.285414,
        40.864043
      ],
      [
        -8.285265,
        40.864237
      ],
      [
        -8.285179,
        40.864557
      ],
      [
        -8.285142,
        40.864822
      ],
      [
        -8.284944,
        40.864833
      ],
      [
        -8.2848,
        40.864549
      ],
      [
        -8.284953,
        40.864932
      ],
      [
        -8.284884,
        40.865052
      ],
      [
        -8.284642,
        40.865076
      ],
      [
        -8.284728,
        40.865507
      ],
      [
        -8.285037,
        40.866002
      ],
      [
        -8.28519,
        40.866444
      ],
      [
        -8.285353,
        40.866552
      ],
      [
        -8.285446,
        40.866513
      ],
      [
        -8.285361,
        40.86696
      ],
      [
        -8.28532,
        40.867176
      ],
      [
        -8.285368,
        40.867116
      ],
      [
        -8.285509,
        40.867356
      ],
      [
        -8.28563,
        40.867336
      ],
      [
        -8.286018,
        40.867708
      ],
      [
        -8.286546,
        40.868152
      ],
      [
        -8.28704,
        40.868371
      ],
      [
        -8.287236,
        40.868802
      ],
      [
        -8.28745,
        40.868823
      ],
      [
        -8.287656,
        40.869263
      ],
      [
        -8.287786,
        40.869477
      ],
      [
        -8.288404,
        40.869885
      ],
      [
        -8.288329,
        40.870001
      ],
      [
        -8.288318,
        40.86999
      ],
      [
        -8.288367,
        40.870089
      ],
      [
        -8.288606,
        40.870164
      ],
      [
        -8.288835,
        40.869939
      ],
      [
        -8.288975,
        40.870109
      ],
      [
        -8.28921,
        40.870423
      ],
      [
        -8.289313,
        40.87028
      ],
      [
        -8.289532,
        40.870425
      ],
      [
        -8.289546,
        40.870746
      ],
      [
        -8.289813,
        40.870915
      ],
      [
        -8.28999,
        40.8712
      ],
      [
        -8.290261,
        40.871368
      ],
      [
        -8.290266,
        40.871504
      ],
      [
        -8.290515,
        40.871683
      ],
      [
        -8.290844,
        40.871868
      ],
      [
        -8.290962,
        40.871872
      ],
      [
        -8.29101,
        40.872032
      ],
      [
        -8.290827,
        40.872087
      ],
      [
        -8.291152,
        40.872128
      ],
      [
        -8.291189,
        40.872138
      ],
      [
        -8.291214,
        40.872045
      ],
      [
        -8.291187,
        40.872295
      ],
      [
        -8.291643,
        40.872242
      ],
      [
        -8.291491,
        40.872557
      ],
      [
        -8.291402,
        40.872415
      ],
      [
        -8.291507,
        40.872658
      ],
      [
        -8.291427,
        40.872685
      ],
      [
        -8.291444,
        40.872521
      ],
      [
        -8.291299,
        40.872662
      ],
      [
        -8.291376,
        40.872893
      ],
      [
        -8.291375,
        40.872892
      ],
      [
        -8.291614,
        40.872837
      ]
    ]
  }
}