{
  "type": "Feature",
  "properties": {
    "id": "kazdangas-parka-mazais-loks_xmy6",
    "name": "Kazdangas parka mazais loks",
    "distanceMeters": 5299.15344278478,
    "elevationGainM": 354,
    "elevationsM": [
      67.51,
      66.59,
      66.4,
      67.16,
      68.65,
      70.45,
      70.66,
      69.94,
      68.86,
      67.78,
      66.75,
      66.02,
      65.5,
      64.85,
      64.23,
      64,
      63.66,
      63.27,
      63,
      63,
      63,
      62.49,
      61.91,
      61.63,
      61.49,
      61.42,
      61.63,
      61.96,
      63.36,
      64.64,
      64.48,
      64.34,
      64.51,
      64.85,
      64.29,
      63.12,
      62.44,
      62.2,
      62.75,
      63.59,
      64.03,
      63.42,
      63.02,
      64.35,
      66.66,
      68.59,
      70.35,
      70.81,
      70.31,
      69.46,
      68.73,
      68.05,
      67.22,
      66.21,
      65.14,
      63.9,
      62.85,
      62.61,
      62.57,
      62.62,
      62.47,
      62.27,
      62.16,
      62.07,
      62.34,
      60.35,
      56.98,
      54.67,
      51.84,
      51.26,
      50.61,
      49.87,
      49.46,
      48.88,
      48.27,
      47.96,
      47.69,
      47.59,
      47.41,
      47.25,
      47.11,
      46.84,
      46.43,
      45.98,
      46.08,
      46.87,
      47.57,
      48.4,
      49.72,
      51.02,
      51.59,
      52.9,
      53.23,
      54.89,
      56.35,
      57.6,
      58.11,
      58.27,
      57.09,
      56.81,
      56.76,
      56.76,
      56.7,
      56.85,
      57.64,
      57.8,
      57.3,
      57.95,
      58.41,
      59.84,
      61.13,
      61.56,
      61.7,
      61.61,
      61.33,
      62.06,
      62.64,
      63.06,
      62.51,
      62.51,
      62.12,
      61.69,
      61.8,
      62.87,
      63.53,
      64.12,
      64.4,
      65.05,
      65.14,
      64.07,
      63.29,
      62.52,
      61.62,
      61.14,
      61.14,
      60.83,
      60.27,
      59.4,
      58.3,
      58.12,
      57.75,
      57.57,
      57.18,
      56.99,
      56.99,
      56.99,
      57.07,
      56.81,
      56.94,
      57.36,
      58.18,
      59.33,
      61.31,
      62.91,
      65.21,
      67.31,
      68.93,
      69.98,
      71.3,
      72.63,
      73.89,
      75.15,
      76.23,
      76.95,
      77.5,
      78.2,
      79.05,
      79.85,
      80.52,
      80.95,
      80.38,
      79.51,
      77.64,
      75.4,
      73.66,
      72.76,
      72.12,
      72,
      72.21,
      72.32,
      72.9,
      73.08,
      73.39,
      74.93,
      76.72,
      80.07,
      83.57,
      86.96,
      88.59,
      90.01,
      90.72,
      90.83,
      91.5,
      91.98,
      92.43,
      93.03,
      93.46,
      94.03,
      94.8,
      95.82,
      96.54,
      97.56,
      98.96,
      99.83,
      99.38,
      99.06,
      97.37,
      94.45,
      91.17,
      90.86,
      89.77,
      88.17,
      87.75,
      87.67,
      89.34,
      90.69,
      91.28,
      90.87,
      89.92,
      88.57,
      87.49,
      86.81,
      85.9,
      85.39,
      85.77,
      86.6,
      88.68,
      90.41,
      91.37,
      92.1,
      93.22,
      93.5,
      93.18,
      91.9,
      91.78,
      91.9,
      91.97,
      91.93,
      91.16,
      90.03,
      88.92,
      87.85,
      86.79,
      85.46,
      84.24,
      83.84,
      84.36,
      84.9,
      85.34,
      85.16,
      85.24,
      85.02,
      84.55,
      84.34,
      84.34,
      84.11,
      83.41,
      82.37,
      81.51,
      80.74,
      80.43,
      80.24,
      80.19,
      80.19,
      80.17,
      80.14,
      79.58,
      79.15,
      78.78,
      78.93,
      79.5,
      79.6,
      79.8,
      80.17,
      79.99,
      79.45,
      78.97,
      78.7,
      78.52,
      78.4,
      78.47,
      78.58,
      78.61,
      78.83,
      79.39,
      79.87,
      80.32,
      80.75,
      81.22,
      81.3,
      81.36,
      80.85,
      80.25,
      80.01,
      80.05,
      80.51,
      80.25,
      79.62,
      79,
      78.57,
      77.75,
      77.26,
      77.51,
      78.09,
      78.65,
      79.14,
      79.43,
      79.43,
      80.15,
      81.19,
      82.01,
      81.81,
      82.11,
      82.96,
      83.17,
      81.75,
      81.1,
      81.29,
      81.32,
      80.47,
      79.28,
      78.39,
      78.41,
      78.62,
      78.77,
      78.99,
      79.48,
      79.56,
      79.82,
      80.24,
      80.49,
      80.91,
      81.54,
      81.4,
      80.98,
      79.82,
      79.88,
      78.66,
      77.32,
      76.65,
      76.36,
      76.57,
      76.76,
      76.85,
      76.96,
      77.24,
      77.57,
      78.61,
      79.44,
      79.96,
      81.21,
      83.64,
      85.39,
      86.07,
      86.83,
      87.46,
      88.27,
      89.12,
      90.46,
      91.35,
      92.48,
      92.87,
      92.66,
      92.48,
      92.4,
      92.26,
      92.22,
      92.08,
      92.38,
      92.27,
      91.52,
      90.27,
      89.11,
      88.19,
      87.69,
      87.09,
      86.44,
      86.29,
      86.38,
      84.91,
      82.95,
      81.31,
      80.12,
      79.44,
      78.84,
      78.44,
      79.51,
      80.52,
      81.15,
      82.16,
      83.49,
      84.68,
      85.76,
      86.51,
      87.34,
      88.22,
      88.72,
      89.21,
      89.25,
      88.56,
      89.58,
      90.14,
      89.92,
      89.04,
      88.32,
      88.15,
      87.76,
      87.54,
      87.19,
      86.7,
      85.78,
      84.38,
      81.98,
      79.66,
      77.75,
      78.3,
      80.04,
      81.51,
      80.56,
      79.73,
      80.83,
      84.84,
      88.82,
      88.7,
      87.08,
      85.51,
      84.4,
      82.74,
      81.87,
      81.22,
      80.34,
      79.2,
      78.09,
      77.69,
      77.35,
      76.61,
      75.97,
      75.56,
      74.94,
      74.51,
      74.08,
      73.43,
      72.51,
      72.2,
      72.18,
      72.21,
      72.17,
      73.06,
      73.82,
      74.36,
      75.1,
      75.35,
      75.67,
      76.07,
      76.18,
      75.86,
      75.64,
      75.59,
      75.62,
      76.01,
      76.49,
      76.88,
      76.9,
      76.69,
      76.73,
      77.03,
      76.89,
      76.62,
      76.59,
      76.09,
      76.16,
      76.48,
      76.7,
      76.7,
      76.38,
      76.09,
      75.66,
      74.85,
      74.27,
      73.32,
      72.17,
      71.3,
      70.09,
      69.32,
      69.33,
      70.16,
      71.12,
      72.22,
      73.73,
      75.08,
      76.28,
      76.42,
      76.71,
      76.51,
      76.82,
      77.73,
      78.12,
      77.88,
      77.11,
      76.72,
      75.59,
      74.35,
      73.58,
      73.58,
      74.07,
      74.26,
      72.02,
      69.7,
      67.01,
      64.38,
      62.16,
      61.06,
      60.19,
      59.85,
      59.9,
      59.9,
      60.29,
      59.99,
      60.19,
      59.58,
      59.7,
      59.01,
      59.29,
      59.79,
      61.58,
      63.4,
      64.64,
      66.29,
      68.32,
      69.84,
      71.97,
      73.33,
      74.29,
      74.91,
      74.95,
      73.55,
      72.38,
      72.16,
      71.81,
      71.45,
      70.7,
      70.05,
      68.85,
      67.33,
      65.89,
      64.66,
      64.14,
      63.43,
      63.68,
      63.5,
      63.29,
      64.33,
      65.88,
      67.48,
      68.97,
      70.52,
      69.5,
      69.13,
      70,
      71.51,
      73.55,
      75.29,
      75.38,
      74.48,
      74.14,
      73.41,
      72.77,
      72.7,
      72.71,
      73.75,
      75.96,
      77.91,
      78.48,
      78.51,
      79.37,
      79.91,
      80.15,
      80.96,
      81.9,
      81.4,
      81.12,
      80.69,
      81.02,
      79.15,
      75.72,
      72.92,
      75.22,
      76.79,
      77.12,
      76.58,
      77.12,
      78.2,
      79.28,
      80.36,
      80.25,
      78.77,
      77.18,
      77.17,
      77.62,
      77.44,
      77.22,
      78.04,
      77.84,
      77.99,
      75.76,
      72.18,
      68.84,
      68.72,
      68.59,
      69.55,
      69.75,
      69.87,
      68.74,
      69.02,
      67.88,
      68.72,
      68.88,
      68.7,
      66.87,
      66.62,
      68.6,
      71.62,
      75.12,
      78.19,
      78.79,
      79.51,
      80.44,
      81.58,
      81.12,
      81.98,
      83.04,
      82.81,
      82.12,
      82.11,
      82.62,
      83.66,
      85.28,
      87.8,
      88.03,
      84.8,
      83.74,
      82.52,
      82.37,
      83.18,
      81.72,
      79.81,
      77.25,
      78.47,
      80.34,
      81.9,
      82.96,
      83.9,
      83.89,
      83.41,
      82.04,
      79.99,
      78.7,
      79.24,
      80.09,
      80.87,
      82.4,
      82.05,
      80.84,
      79.26,
      79.24,
      79.59,
      77.52,
      75.59,
      74.27,
      70.4,
      66.47,
      65.83,
      67.46,
      67.46,
      67.46,
      67.46,
      67.91,
      70.71,
      73.23,
      75.71,
      77.17,
      79.11,
      80.91,
      82.57,
      82.08,
      80.17,
      77.73,
      75.75,
      73.4,
      73.68,
      74.98,
      78.04,
      80.06,
      81.78,
      82.74,
      83.51,
      84.17,
      83.43,
      82.43,
      81.37,
      79.71,
      77.73,
      78.52,
      79.2,
      80.14,
      80.02,
      79.4,
      78.07,
      76.22,
      74.44,
      72.7,
      71.38,
      71.26,
      72.06,
      72.6,
      73.5,
      74.58,
      75.48,
      75.53,
      76.86,
      77.37,
      76.62,
      75.4,
      73.11,
      70.62,
      69.78,
      70.14,
      71.32,
      72.44,
      74.91,
      76.52,
      77.98,
      80.33,
      81.25,
      80.35,
      80.12,
      80.2,
      80.58,
      79.39,
      76.73,
      73.6,
      71.11,
      68.5,
      66.06,
      63.79,
      63.04,
      64.27,
      64.71,
      64.33,
      64.08,
      63.4,
      62.47,
      61.74,
      61.15,
      60.6,
      59.82,
      58.69,
      57.37,
      56.11,
      54.58,
      53.04,
      51.75,
      50.31,
      48.73,
      47.72,
      46.96,
      46.27,
      46.12,
      46.4,
      46.73,
      47.03,
      47.12,
      47.28,
      47.42,
      47.43,
      47.49,
      47.59,
      48.29,
      48.93,
      49.47,
      50.2,
      51.08,
      51.79,
      53.26,
      57.55,
      62.36,
      62.12,
      62.28,
      62.57,
      62.61,
      62.85,
      63.9,
      65.14,
      66.21,
      67.22,
      68.05,
      68.73,
      69.46,
      70.31,
      70.81,
      70.35,
      68.59,
      66.66,
      64.35,
      63.02,
      63.42,
      64.03,
      63.59,
      62.75,
      62.2,
      62.44,
      63.12,
      64.29,
      64.85,
      64.51,
      64.34,
      64.48,
      64.64,
      63.36,
      61.96,
      61.63,
      61.42,
      61.49,
      61.63,
      61.91,
      62.49,
      63,
      63,
      63,
      63.27,
      63.66,
      64,
      64.23,
      64.85,
      65.5,
      66.02,
      66.75,
      67.78,
      68.86,
      69.94,
      70.66,
      70.45,
      68.65,
      67.16,
      66.4,
      66.59,
      67.51
    ]
  },
  "geometry": {
    "type": "LineString",
    "coordinates": [
      [
        21.7356,
        56.72485
      ],
      [
        21.73567,
        56.72484
      ],
      [
        21.73569,
        56.72483
      ],
      [
        21.73564,
        56.72483
      ],
      [
        21.73557,
        56.7248
      ],
      [
        21.73549,
        56.72477
      ],
      [
        21.73552,
        56.72472
      ],
      [
        21.73559,
        56.72467
      ],
      [
        21.73568,
        56.72462
      ],
      [
        21.73577,
        56.72457
      ],
      [
        21.73586,
        56.72453
      ],
      [
        21.73594,
        56.7245
      ],
      [
        21.736,
        56.72446
      ],
      [
        21.73606,
        56.72443
      ],
      [
        21.73613,
        56.7244
      ],
      [
        21.7362,
        56.72438
      ],
      [
        21.73628,
        56.72435
      ],
      [
        21.73635,
        56.72432
      ],
      [
        21.73641,
        56.72428
      ],
      [
        21.73646,
        56.72423
      ],
      [
        21.73645,
        56.72418
      ],
      [
        21.73643,
        56.72413
      ],
      [
        21.7364,
        56.72409
      ],
      [
        21.73636,
        56.72405
      ],
      [
        21.73632,
        56.72401
      ],
      [
        21.73626,
        56.72396
      ],
      [
        21.7362,
        56.72393
      ],
      [
        21.73613,
        56.7239
      ],
      [
        21.73605,
        56.72387
      ],
      [
        21.73599,
        56.72383
      ],
      [
        21.736,
        56.72378
      ],
      [
        21.73601,
        56.72373
      ],
      [
        21.736,
        56.72374
      ],
      [
        21.73598,
        56.72379
      ],
      [
        21.73601,
        56.72378
      ],
      [
        21.73608,
        56.72373
      ],
      [
        21.73615,
        56.72368
      ],
      [
        21.73621,
        56.72363
      ],
      [
        21.73626,
        56.72357
      ],
      [
        21.73632,
        56.72351
      ],
      [
        21.73639,
        56.72347
      ],
      [
        21.73649,
        56.72342
      ],
      [
        21.73656,
        56.72338
      ],
      [
        21.73657,
        56.72331
      ],
      [
        21.73654,
        56.72324
      ],
      [
        21.73653,
        56.72317
      ],
      [
        21.73653,
        56.7231
      ],
      [
        21.73658,
        56.72304
      ],
      [
        21.73658,
        56.72298
      ],
      [
        21.73661,
        56.72291
      ],
      [
        21.73665,
        56.72286
      ],
      [
        21.73667,
        56.72279
      ],
      [
        21.73672,
        56.72273
      ],
      [
        21.73679,
        56.72269
      ],
      [
        21.73685,
        56.72263
      ],
      [
        21.73691,
        56.72256
      ],
      [
        21.73697,
        56.72249
      ],
      [
        21.73704,
        56.72245
      ],
      [
        21.73715,
        56.72245
      ],
      [
        21.73714,
        56.72244
      ],
      [
        21.73718,
        56.72246
      ],
      [
        21.73727,
        56.72247
      ],
      [
        21.73738,
        56.72247
      ],
      [
        21.73746,
        56.72247
      ],
      [
        21.73748,
        56.72248
      ],
      [
        21.73756,
        56.72249
      ],
      [
        21.73765,
        56.72251
      ],
      [
        21.73771,
        56.72252
      ],
      [
        21.7378,
        56.7225
      ],
      [
        21.73788,
        56.7225
      ],
      [
        21.73797,
        56.72252
      ],
      [
        21.73806,
        56.72253
      ],
      [
        21.73814,
        56.72254
      ],
      [
        21.73823,
        56.72256
      ],
      [
        21.73831,
        56.72258
      ],
      [
        21.73839,
        56.72259
      ],
      [
        21.73849,
        56.72261
      ],
      [
        21.73857,
        56.72262
      ],
      [
        21.73864,
        56.72265
      ],
      [
        21.73874,
        56.72265
      ],
      [
        21.73882,
        56.72266
      ],
      [
        21.73892,
        56.72267
      ],
      [
        21.73901,
        56.72269
      ],
      [
        21.73911,
        56.7227
      ],
      [
        21.7392,
        56.72272
      ],
      [
        21.73929,
        56.72274
      ],
      [
        21.73938,
        56.72276
      ],
      [
        21.73947,
        56.72277
      ],
      [
        21.73955,
        56.72279
      ],
      [
        21.73963,
        56.7228
      ],
      [
        21.73966,
        56.72281
      ],
      [
        21.73974,
        56.72282
      ],
      [
        21.73976,
        56.72282
      ],
      [
        21.73985,
        56.72284
      ],
      [
        21.73994,
        56.72285
      ],
      [
        21.74002,
        56.72285
      ],
      [
        21.74005,
        56.72285
      ],
      [
        21.74006,
        56.72286
      ],
      [
        21.73998,
        56.72288
      ],
      [
        21.73996,
        56.72288
      ],
      [
        21.73996,
        56.72287
      ],
      [
        21.73996,
        56.72287
      ],
      [
        21.73996,
        56.72286
      ],
      [
        21.73997,
        56.72286
      ],
      [
        21.74002,
        56.72287
      ],
      [
        21.74003,
        56.72287
      ],
      [
        21.74,
        56.72286
      ],
      [
        21.74004,
        56.72286
      ],
      [
        21.74007,
        56.72289
      ],
      [
        21.74017,
        56.72289
      ],
      [
        21.74026,
        56.72289
      ],
      [
        21.74033,
        56.72291
      ],
      [
        21.74033,
        56.7229
      ],
      [
        21.74032,
        56.7229
      ],
      [
        21.74032,
        56.72292
      ],
      [
        21.7404,
        56.72292
      ],
      [
        21.74049,
        56.72294
      ],
      [
        21.74056,
        56.72296
      ],
      [
        21.74057,
        56.72302
      ],
      [
        21.74059,
        56.72304
      ],
      [
        21.74053,
        56.72302
      ],
      [
        21.74051,
        56.72304
      ],
      [
        21.74051,
        56.72303
      ],
      [
        21.74059,
        56.723
      ],
      [
        21.74066,
        56.72298
      ],
      [
        21.74074,
        56.72295
      ],
      [
        21.74081,
        56.72291
      ],
      [
        21.7409,
        56.72287
      ],
      [
        21.74099,
        56.72283
      ],
      [
        21.74106,
        56.72278
      ],
      [
        21.74112,
        56.72274
      ],
      [
        21.74113,
        56.7227
      ],
      [
        21.74116,
        56.72265
      ],
      [
        21.74116,
        56.72263
      ],
      [
        21.74116,
        56.72263
      ],
      [
        21.74124,
        56.7226
      ],
      [
        21.74132,
        56.72257
      ],
      [
        21.74137,
        56.72254
      ],
      [
        21.74143,
        56.7225
      ],
      [
        21.74149,
        56.72245
      ],
      [
        21.74153,
        56.7224
      ],
      [
        21.74159,
        56.72236
      ],
      [
        21.74162,
        56.72232
      ],
      [
        21.74158,
        56.72232
      ],
      [
        21.74158,
        56.72232
      ],
      [
        21.74158,
        56.72232
      ],
      [
        21.74157,
        56.72233
      ],
      [
        21.74163,
        56.72229
      ],
      [
        21.7417,
        56.72226
      ],
      [
        21.74178,
        56.72223
      ],
      [
        21.74187,
        56.72222
      ],
      [
        21.74194,
        56.72224
      ],
      [
        21.74203,
        56.72226
      ],
      [
        21.74211,
        56.72227
      ],
      [
        21.7422,
        56.72231
      ],
      [
        21.74228,
        56.72236
      ],
      [
        21.74234,
        56.72241
      ],
      [
        21.74243,
        56.7224
      ],
      [
        21.74254,
        56.7224
      ],
      [
        21.74264,
        56.72243
      ],
      [
        21.7427,
        56.72248
      ],
      [
        21.74276,
        56.72253
      ],
      [
        21.74285,
        56.72258
      ],
      [
        21.74292,
        56.72263
      ],
      [
        21.74303,
        56.72266
      ],
      [
        21.74314,
        56.72269
      ],
      [
        21.74325,
        56.72272
      ],
      [
        21.74336,
        56.72275
      ],
      [
        21.74347,
        56.72278
      ],
      [
        21.74359,
        56.72278
      ],
      [
        21.7437,
        56.72278
      ],
      [
        21.74382,
        56.72278
      ],
      [
        21.74395,
        56.72277
      ],
      [
        21.74406,
        56.72276
      ],
      [
        21.74418,
        56.72277
      ],
      [
        21.7443,
        56.7228
      ],
      [
        21.7444,
        56.72284
      ],
      [
        21.74449,
        56.72287
      ],
      [
        21.74461,
        56.72289
      ],
      [
        21.74472,
        56.7229
      ],
      [
        21.74481,
        56.72295
      ],
      [
        21.74492,
        56.72299
      ],
      [
        21.74503,
        56.72297
      ],
      [
        21.74514,
        56.72294
      ],
      [
        21.74526,
        56.72292
      ],
      [
        21.74537,
        56.7229
      ],
      [
        21.74548,
        56.72291
      ],
      [
        21.74561,
        56.7229
      ],
      [
        21.74571,
        56.72287
      ],
      [
        21.74581,
        56.72283
      ],
      [
        21.74591,
        56.72281
      ],
      [
        21.74597,
        56.72275
      ],
      [
        21.74608,
        56.72271
      ],
      [
        21.74618,
        56.72268
      ],
      [
        21.74628,
        56.72265
      ],
      [
        21.7464,
        56.72266
      ],
      [
        21.74651,
        56.72263
      ],
      [
        21.7466,
        56.72259
      ],
      [
        21.74668,
        56.72254
      ],
      [
        21.74678,
        56.7225
      ],
      [
        21.74688,
        56.72247
      ],
      [
        21.747,
        56.72247
      ],
      [
        21.74714,
        56.72247
      ],
      [
        21.74723,
        56.72251
      ],
      [
        21.74734,
        56.72252
      ],
      [
        21.74744,
        56.72249
      ],
      [
        21.74754,
        56.72246
      ],
      [
        21.74765,
        56.72244
      ],
      [
        21.74777,
        56.72242
      ],
      [
        21.74788,
        56.72241
      ],
      [
        21.74797,
        56.72237
      ],
      [
        21.74805,
        56.72232
      ],
      [
        21.74811,
        56.72227
      ],
      [
        21.74815,
        56.7222
      ],
      [
        21.7482,
        56.72214
      ],
      [
        21.74827,
        56.72209
      ],
      [
        21.74833,
        56.72203
      ],
      [
        21.74835,
        56.72197
      ],
      [
        21.74839,
        56.72192
      ],
      [
        21.74848,
        56.72188
      ],
      [
        21.74859,
        56.72186
      ],
      [
        21.74871,
        56.72186
      ],
      [
        21.74882,
        56.7219
      ],
      [
        21.74893,
        56.72192
      ],
      [
        21.74906,
        56.72192
      ],
      [
        21.74914,
        56.72197
      ],
      [
        21.74919,
        56.72203
      ],
      [
        21.74924,
        56.72209
      ],
      [
        21.74928,
        56.72214
      ],
      [
        21.74924,
        56.72217
      ],
      [
        21.74925,
        56.72223
      ],
      [
        21.74928,
        56.72227
      ],
      [
        21.74934,
        56.7223
      ],
      [
        21.74944,
        56.7223
      ],
      [
        21.74952,
        56.72231
      ],
      [
        21.74959,
        56.72235
      ],
      [
        21.74965,
        56.7224
      ],
      [
        21.74971,
        56.72246
      ],
      [
        21.7498,
        56.7225
      ],
      [
        21.7499,
        56.72252
      ],
      [
        21.75001,
        56.72253
      ],
      [
        21.75014,
        56.72254
      ],
      [
        21.75026,
        56.72255
      ],
      [
        21.75038,
        56.72256
      ],
      [
        21.7505,
        56.72255
      ],
      [
        21.7506,
        56.72252
      ],
      [
        21.7507,
        56.72248
      ],
      [
        21.75081,
        56.72245
      ],
      [
        21.75091,
        56.72241
      ],
      [
        21.75101,
        56.7224
      ],
      [
        21.75113,
        56.72237
      ],
      [
        21.75124,
        56.72235
      ],
      [
        21.75137,
        56.72234
      ],
      [
        21.75148,
        56.72233
      ],
      [
        21.7516,
        56.72231
      ],
      [
        21.75171,
        56.72229
      ],
      [
        21.75182,
        56.72227
      ],
      [
        21.75194,
        56.72226
      ],
      [
        21.75205,
        56.72227
      ],
      [
        21.75218,
        56.72227
      ],
      [
        21.7523,
        56.72228
      ],
      [
        21.75239,
        56.72231
      ],
      [
        21.75242,
        56.72232
      ],
      [
        21.75242,
        56.72232
      ],
      [
        21.7524,
        56.72232
      ],
      [
        21.75238,
        56.72232
      ],
      [
        21.75236,
        56.72238
      ],
      [
        21.75237,
        56.72243
      ],
      [
        21.75239,
        56.72248
      ],
      [
        21.75248,
        56.7225
      ],
      [
        21.75256,
        56.72249
      ],
      [
        21.75259,
        56.72254
      ],
      [
        21.75263,
        56.72258
      ],
      [
        21.75269,
        56.72258
      ],
      [
        21.75266,
        56.72258
      ],
      [
        21.75257,
        56.72256
      ],
      [
        21.75249,
        56.72255
      ],
      [
        21.7524,
        56.72255
      ],
      [
        21.75232,
        56.72257
      ],
      [
        21.75224,
        56.7226
      ],
      [
        21.75218,
        56.72263
      ],
      [
        21.75211,
        56.72266
      ],
      [
        21.75202,
        56.72267
      ],
      [
        21.75192,
        56.7227
      ],
      [
        21.75182,
        56.72275
      ],
      [
        21.75173,
        56.7228
      ],
      [
        21.75163,
        56.72283
      ],
      [
        21.75152,
        56.72284
      ],
      [
        21.75141,
        56.72286
      ],
      [
        21.75135,
        56.72292
      ],
      [
        21.75135,
        56.72294
      ],
      [
        21.75125,
        56.72297
      ],
      [
        21.75115,
        56.723
      ],
      [
        21.75106,
        56.72304
      ],
      [
        21.75094,
        56.72306
      ],
      [
        21.75085,
        56.72312
      ],
      [
        21.75074,
        56.72316
      ],
      [
        21.75063,
        56.72317
      ],
      [
        21.75053,
        56.7232
      ],
      [
        21.75046,
        56.72325
      ],
      [
        21.7504,
        56.72331
      ],
      [
        21.75032,
        56.72336
      ],
      [
        21.75024,
        56.72341
      ],
      [
        21.75016,
        56.72345
      ],
      [
        21.75007,
        56.7235
      ],
      [
        21.74999,
        56.72355
      ],
      [
        21.74997,
        56.72357
      ],
      [
        21.74997,
        56.72357
      ],
      [
        21.74992,
        56.72359
      ],
      [
        21.74983,
        56.72364
      ],
      [
        21.74972,
        56.72368
      ],
      [
        21.74963,
        56.72373
      ],
      [
        21.74956,
        56.72378
      ],
      [
        21.74949,
        56.72383
      ],
      [
        21.7494,
        56.72388
      ],
      [
        21.74933,
        56.72393
      ],
      [
        21.74927,
        56.72399
      ],
      [
        21.7492,
        56.72405
      ],
      [
        21.74912,
        56.7241
      ],
      [
        21.74904,
        56.72414
      ],
      [
        21.74896,
        56.72418
      ],
      [
        21.7489,
        56.72423
      ],
      [
        21.74884,
        56.72428
      ],
      [
        21.74878,
        56.72434
      ],
      [
        21.74868,
        56.72438
      ],
      [
        21.74859,
        56.72442
      ],
      [
        21.74847,
        56.72445
      ],
      [
        21.74839,
        56.7245
      ],
      [
        21.7483,
        56.72454
      ],
      [
        21.7482,
        56.72457
      ],
      [
        21.74814,
        56.72463
      ],
      [
        21.74807,
        56.72467
      ],
      [
        21.74798,
        56.72472
      ],
      [
        21.74791,
        56.72478
      ],
      [
        21.74783,
        56.72483
      ],
      [
        21.74779,
        56.7249
      ],
      [
        21.74775,
        56.72489
      ],
      [
        21.74766,
        56.72494
      ],
      [
        21.74759,
        56.725
      ],
      [
        21.74753,
        56.72506
      ],
      [
        21.74746,
        56.72512
      ],
      [
        21.74736,
        56.72516
      ],
      [
        21.74724,
        56.7252
      ],
      [
        21.74715,
        56.72525
      ],
      [
        21.74708,
        56.72531
      ],
      [
        21.74702,
        56.72536
      ],
      [
        21.74694,
        56.72541
      ],
      [
        21.74684,
        56.72544
      ],
      [
        21.74676,
        56.72537
      ],
      [
        21.74669,
        56.72532
      ],
      [
        21.7466,
        56.72528
      ],
      [
        21.74647,
        56.72527
      ],
      [
        21.74636,
        56.72526
      ],
      [
        21.74625,
        56.72527
      ],
      [
        21.74614,
        56.72529
      ],
      [
        21.74602,
        56.7253
      ],
      [
        21.74591,
        56.72534
      ],
      [
        21.74581,
        56.72536
      ],
      [
        21.7457,
        56.72539
      ],
      [
        21.74567,
        56.72546
      ],
      [
        21.74559,
        56.72552
      ],
      [
        21.74552,
        56.72556
      ],
      [
        21.74546,
        56.72562
      ],
      [
        21.74541,
        56.7256
      ],
      [
        21.74539,
        56.72561
      ],
      [
        21.74535,
        56.7256
      ],
      [
        21.74534,
        56.72559
      ],
      [
        21.74533,
        56.72553
      ],
      [
        21.74544,
        56.72552
      ],
      [
        21.74551,
        56.72547
      ],
      [
        21.74563,
        56.72544
      ],
      [
        21.74573,
        56.7254
      ],
      [
        21.7458,
        56.72535
      ],
      [
        21.74589,
        56.72532
      ],
      [
        21.74601,
        56.72533
      ],
      [
        21.7461,
        56.72529
      ],
      [
        21.74621,
        56.72526
      ],
      [
        21.7463,
        56.72521
      ],
      [
        21.74637,
        56.72516
      ],
      [
        21.74648,
        56.72516
      ],
      [
        21.74657,
        56.7252
      ],
      [
        21.74661,
        56.72526
      ],
      [
        21.74667,
        56.72532
      ],
      [
        21.74676,
        56.72537
      ],
      [
        21.74682,
        56.72543
      ],
      [
        21.74685,
        56.72549
      ],
      [
        21.74677,
        56.72555
      ],
      [
        21.74669,
        56.7256
      ],
      [
        21.74663,
        56.72566
      ],
      [
        21.74655,
        56.7257
      ],
      [
        21.74645,
        56.72573
      ],
      [
        21.74635,
        56.72576
      ],
      [
        21.74624,
        56.72579
      ],
      [
        21.74616,
        56.72584
      ],
      [
        21.7461,
        56.72589
      ],
      [
        21.74603,
        56.72595
      ],
      [
        21.74597,
        56.726
      ],
      [
        21.74588,
        56.72604
      ],
      [
        21.74576,
        56.72606
      ],
      [
        21.74567,
        56.7261
      ],
      [
        21.74559,
        56.72617
      ],
      [
        21.74552,
        56.72621
      ],
      [
        21.74543,
        56.72624
      ],
      [
        21.74531,
        56.72626
      ],
      [
        21.74519,
        56.72626
      ],
      [
        21.74509,
        56.72629
      ],
      [
        21.74499,
        56.72633
      ],
      [
        21.74489,
        56.72636
      ],
      [
        21.74478,
        56.72639
      ],
      [
        21.74466,
        56.7264
      ],
      [
        21.74455,
        56.72643
      ],
      [
        21.74445,
        56.72647
      ],
      [
        21.74436,
        56.72652
      ],
      [
        21.74427,
        56.72657
      ],
      [
        21.74416,
        56.72661
      ],
      [
        21.74408,
        56.72666
      ],
      [
        21.74399,
        56.7267
      ],
      [
        21.74387,
        56.72673
      ],
      [
        21.74377,
        56.72675
      ],
      [
        21.74365,
        56.72678
      ],
      [
        21.74357,
        56.72682
      ],
      [
        21.74346,
        56.72686
      ],
      [
        21.74336,
        56.72688
      ],
      [
        21.74324,
        56.72691
      ],
      [
        21.74312,
        56.72694
      ],
      [
        21.74301,
        56.72696
      ],
      [
        21.74291,
        56.72699
      ],
      [
        21.74278,
        56.72701
      ],
      [
        21.74268,
        56.72703
      ],
      [
        21.74258,
        56.72707
      ],
      [
        21.74247,
        56.7271
      ],
      [
        21.74235,
        56.72713
      ],
      [
        21.74225,
        56.72715
      ],
      [
        21.74214,
        56.72718
      ],
      [
        21.74204,
        56.72722
      ],
      [
        21.74195,
        56.72725
      ],
      [
        21.74183,
        56.72727
      ],
      [
        21.74173,
        56.72728
      ],
      [
        21.74163,
        56.72732
      ],
      [
        21.74155,
        56.72736
      ],
      [
        21.74144,
        56.7274
      ],
      [
        21.74134,
        56.72742
      ],
      [
        21.74124,
        56.72746
      ],
      [
        21.74114,
        56.72751
      ],
      [
        21.74104,
        56.72754
      ],
      [
        21.74093,
        56.72758
      ],
      [
        21.74082,
        56.7276
      ],
      [
        21.7407,
        56.72761
      ],
      [
        21.74059,
        56.72764
      ],
      [
        21.74052,
        56.72765
      ],
      [
        21.74042,
        56.72769
      ],
      [
        21.74043,
        56.72764
      ],
      [
        21.7404,
        56.72764
      ],
      [
        21.74033,
        56.72767
      ],
      [
        21.74026,
        56.7277
      ],
      [
        21.74019,
        56.72774
      ],
      [
        21.74013,
        56.72777
      ],
      [
        21.74007,
        56.7278
      ],
      [
        21.74,
        56.72783
      ],
      [
        21.73993,
        56.72786
      ],
      [
        21.73985,
        56.72788
      ],
      [
        21.73977,
        56.7279
      ],
      [
        21.7397,
        56.72793
      ],
      [
        21.73963,
        56.72797
      ],
      [
        21.73956,
        56.728
      ],
      [
        21.73948,
        56.72802
      ],
      [
        21.7394,
        56.72805
      ],
      [
        21.73933,
        56.72806
      ],
      [
        21.73928,
        56.72804
      ],
      [
        21.73917,
        56.72805
      ],
      [
        21.73909,
        56.72807
      ],
      [
        21.73902,
        56.7281
      ],
      [
        21.73895,
        56.72812
      ],
      [
        21.73886,
        56.72814
      ],
      [
        21.73877,
        56.72817
      ],
      [
        21.7387,
        56.72819
      ],
      [
        21.73861,
        56.72821
      ],
      [
        21.73849,
        56.72823
      ],
      [
        21.73839,
        56.72825
      ],
      [
        21.73828,
        56.72827
      ],
      [
        21.73818,
        56.72829
      ],
      [
        21.73808,
        56.72833
      ],
      [
        21.73796,
        56.72835
      ],
      [
        21.73785,
        56.72838
      ],
      [
        21.73776,
        56.72843
      ],
      [
        21.73769,
        56.72849
      ],
      [
        21.7376,
        56.72854
      ],
      [
        21.7375,
        56.72858
      ],
      [
        21.73741,
        56.72862
      ],
      [
        21.73731,
        56.72867
      ],
      [
        21.73721,
        56.7287
      ],
      [
        21.7371,
        56.72871
      ],
      [
        21.73698,
        56.72873
      ],
      [
        21.73686,
        56.72874
      ],
      [
        21.73676,
        56.72877
      ],
      [
        21.73668,
        56.72881
      ],
      [
        21.73657,
        56.72884
      ],
      [
        21.73645,
        56.72885
      ],
      [
        21.73633,
        56.72886
      ],
      [
        21.73623,
        56.72889
      ],
      [
        21.73614,
        56.72893
      ],
      [
        21.73606,
        56.72898
      ],
      [
        21.73602,
        56.72898
      ],
      [
        21.73602,
        56.72898
      ],
      [
        21.73605,
        56.72895
      ],
      [
        21.73607,
        56.72889
      ],
      [
        21.73608,
        56.72882
      ],
      [
        21.73609,
        56.72875
      ],
      [
        21.73602,
        56.7287
      ],
      [
        21.73594,
        56.72865
      ],
      [
        21.73585,
        56.72861
      ],
      [
        21.73582,
        56.72856
      ],
      [
        21.7358,
        56.72851
      ],
      [
        21.73584,
        56.72849
      ],
      [
        21.73585,
        56.72849
      ],
      [
        21.73585,
        56.72849
      ],
      [
        21.73589,
        56.7285
      ],
      [
        21.73592,
        56.72848
      ],
      [
        21.73597,
        56.72848
      ],
      [
        21.73603,
        56.72845
      ],
      [
        21.73608,
        56.72845
      ],
      [
        21.73614,
        56.72842
      ],
      [
        21.73618,
        56.72842
      ],
      [
        21.7362,
        56.72843
      ],
      [
        21.73624,
        56.72847
      ],
      [
        21.73631,
        56.7285
      ],
      [
        21.73639,
        56.72851
      ],
      [
        21.73648,
        56.72853
      ],
      [
        21.73655,
        56.72856
      ],
      [
        21.73656,
        56.72859
      ],
      [
        21.73664,
        56.72862
      ],
      [
        21.73672,
        56.72864
      ],
      [
        21.7368,
        56.72865
      ],
      [
        21.73689,
        56.72864
      ],
      [
        21.73697,
        56.72861
      ],
      [
        21.73704,
        56.72858
      ],
      [
        21.73714,
        56.72855
      ],
      [
        21.73723,
        56.72854
      ],
      [
        21.73733,
        56.72854
      ],
      [
        21.73743,
        56.72854
      ],
      [
        21.73751,
        56.72852
      ],
      [
        21.73759,
        56.72849
      ],
      [
        21.73762,
        56.72843
      ],
      [
        21.73757,
        56.72837
      ],
      [
        21.73755,
        56.72831
      ],
      [
        21.73757,
        56.72824
      ],
      [
        21.73763,
        56.72818
      ],
      [
        21.73766,
        56.72812
      ],
      [
        21.73774,
        56.72807
      ],
      [
        21.73781,
        56.72802
      ],
      [
        21.73788,
        56.72797
      ],
      [
        21.73799,
        56.72794
      ],
      [
        21.7381,
        56.72791
      ],
      [
        21.73819,
        56.72786
      ],
      [
        21.73826,
        56.7278
      ],
      [
        21.73834,
        56.72776
      ],
      [
        21.73841,
        56.7277
      ],
      [
        21.73848,
        56.72764
      ],
      [
        21.73857,
        56.7276
      ],
      [
        21.73868,
        56.72756
      ],
      [
        21.73881,
        56.72755
      ],
      [
        21.73892,
        56.72752
      ],
      [
        21.739,
        56.72747
      ],
      [
        21.73904,
        56.72742
      ],
      [
        21.73912,
        56.72737
      ],
      [
        21.73919,
        56.72731
      ],
      [
        21.73925,
        56.72726
      ],
      [
        21.73935,
        56.72721
      ],
      [
        21.73943,
        56.72717
      ],
      [
        21.73953,
        56.72713
      ],
      [
        21.73965,
        56.72712
      ],
      [
        21.73977,
        56.72713
      ],
      [
        21.73989,
        56.72713
      ],
      [
        21.74002,
        56.72711
      ],
      [
        21.74014,
        56.72711
      ],
      [
        21.74026,
        56.7271
      ],
      [
        21.74036,
        56.72708
      ],
      [
        21.74047,
        56.72707
      ],
      [
        21.74059,
        56.72709
      ],
      [
        21.7407,
        56.72712
      ],
      [
        21.74074,
        56.72713
      ],
      [
        21.74079,
        56.72714
      ],
      [
        21.74075,
        56.72712
      ],
      [
        21.74088,
        56.72713
      ],
      [
        21.74099,
        56.72716
      ],
      [
        21.74113,
        56.72715
      ],
      [
        21.74125,
        56.72714
      ],
      [
        21.74137,
        56.72716
      ],
      [
        21.74149,
        56.72716
      ],
      [
        21.74159,
        56.72719
      ],
      [
        21.74156,
        56.72716
      ],
      [
        21.74162,
        56.7271
      ],
      [
        21.74157,
        56.72704
      ],
      [
        21.74152,
        56.72698
      ],
      [
        21.74148,
        56.72691
      ],
      [
        21.74143,
        56.72685
      ],
      [
        21.74144,
        56.72678
      ],
      [
        21.74153,
        56.72675
      ],
      [
        21.74159,
        56.72675
      ],
      [
        21.74161,
        56.72673
      ],
      [
        21.74151,
        56.72676
      ],
      [
        21.7416,
        56.72677
      ],
      [
        21.74164,
        56.72674
      ],
      [
        21.74174,
        56.72671
      ],
      [
        21.74168,
        56.72664
      ],
      [
        21.74162,
        56.72658
      ],
      [
        21.74158,
        56.72652
      ],
      [
        21.74168,
        56.7265
      ],
      [
        21.74177,
        56.72648
      ],
      [
        21.74187,
        56.72648
      ],
      [
        21.74194,
        56.72647
      ],
      [
        21.74195,
        56.72647
      ],
      [
        21.74197,
        56.72644
      ],
      [
        21.74199,
        56.72644
      ],
      [
        21.74194,
        56.72643
      ],
      [
        21.74193,
        56.72645
      ],
      [
        21.74185,
        56.72647
      ],
      [
        21.74173,
        56.72649
      ],
      [
        21.74164,
        56.72647
      ],
      [
        21.74161,
        56.72647
      ],
      [
        21.74172,
        56.72649
      ],
      [
        21.74178,
        56.72654
      ],
      [
        21.74179,
        56.72661
      ],
      [
        21.74182,
        56.72668
      ],
      [
        21.74189,
        56.72673
      ],
      [
        21.74202,
        56.72673
      ],
      [
        21.7421,
        56.72669
      ],
      [
        21.74221,
        56.72666
      ],
      [
        21.74232,
        56.72663
      ],
      [
        21.74244,
        56.72663
      ],
      [
        21.74254,
        56.72665
      ],
      [
        21.74265,
        56.72668
      ],
      [
        21.74275,
        56.72671
      ],
      [
        21.74284,
        56.72675
      ],
      [
        21.74292,
        56.72679
      ],
      [
        21.74304,
        56.72682
      ],
      [
        21.74314,
        56.72682
      ],
      [
        21.74326,
        56.72684
      ],
      [
        21.74336,
        56.72683
      ],
      [
        21.74344,
        56.72678
      ],
      [
        21.74347,
        56.72676
      ],
      [
        21.7435,
        56.72669
      ],
      [
        21.74348,
        56.72663
      ],
      [
        21.74341,
        56.72658
      ],
      [
        21.74343,
        56.7265
      ],
      [
        21.74349,
        56.72644
      ],
      [
        21.74361,
        56.72641
      ],
      [
        21.74371,
        56.72638
      ],
      [
        21.74383,
        56.72636
      ],
      [
        21.74393,
        56.72632
      ],
      [
        21.74402,
        56.72629
      ],
      [
        21.74409,
        56.72623
      ],
      [
        21.74406,
        56.72618
      ],
      [
        21.74397,
        56.72614
      ],
      [
        21.74385,
        56.72615
      ],
      [
        21.74373,
        56.72614
      ],
      [
        21.74364,
        56.7261
      ],
      [
        21.7436,
        56.72604
      ],
      [
        21.74357,
        56.72597
      ],
      [
        21.74356,
        56.7259
      ],
      [
        21.74359,
        56.72583
      ],
      [
        21.74364,
        56.72578
      ],
      [
        21.74367,
        56.7257
      ],
      [
        21.74365,
        56.72563
      ],
      [
        21.74367,
        56.72561
      ],
      [
        21.74368,
        56.72562
      ],
      [
        21.74361,
        56.72558
      ],
      [
        21.74355,
        56.72553
      ],
      [
        21.74346,
        56.72552
      ],
      [
        21.74339,
        56.72546
      ],
      [
        21.74333,
        56.72541
      ],
      [
        21.74335,
        56.72539
      ],
      [
        21.7434,
        56.7254
      ],
      [
        21.7434,
        56.7254
      ],
      [
        21.7434,
        56.7254
      ],
      [
        21.7434,
        56.7254
      ],
      [
        21.74337,
        56.72542
      ],
      [
        21.74341,
        56.72546
      ],
      [
        21.74345,
        56.7255
      ],
      [
        21.74352,
        56.72554
      ],
      [
        21.74357,
        56.72558
      ],
      [
        21.74369,
        56.72558
      ],
      [
        21.74379,
        56.72556
      ],
      [
        21.74389,
        56.72554
      ],
      [
        21.74393,
        56.7255
      ],
      [
        21.7439,
        56.72545
      ],
      [
        21.74388,
        56.72538
      ],
      [
        21.74387,
        56.72532
      ],
      [
        21.74381,
        56.72526
      ],
      [
        21.74377,
        56.7252
      ],
      [
        21.74377,
        56.72514
      ],
      [
        21.74384,
        56.72508
      ],
      [
        21.74386,
        56.72501
      ],
      [
        21.74391,
        56.72495
      ],
      [
        21.74396,
        56.72489
      ],
      [
        21.74393,
        56.72483
      ],
      [
        21.74388,
        56.72477
      ],
      [
        21.74378,
        56.72472
      ],
      [
        21.74372,
        56.72466
      ],
      [
        21.74366,
        56.72461
      ],
      [
        21.74359,
        56.72455
      ],
      [
        21.74353,
        56.72449
      ],
      [
        21.74356,
        56.72442
      ],
      [
        21.74359,
        56.72436
      ],
      [
        21.74366,
        56.72431
      ],
      [
        21.74368,
        56.72425
      ],
      [
        21.74365,
        56.72419
      ],
      [
        21.74361,
        56.72413
      ],
      [
        21.74357,
        56.72407
      ],
      [
        21.74352,
        56.72401
      ],
      [
        21.74345,
        56.72395
      ],
      [
        21.74338,
        56.7239
      ],
      [
        21.7434,
        56.72389
      ],
      [
        21.74333,
        56.72383
      ],
      [
        21.74324,
        56.7238
      ],
      [
        21.74315,
        56.72375
      ],
      [
        21.74312,
        56.72369
      ],
      [
        21.74306,
        56.72364
      ],
      [
        21.74297,
        56.72368
      ],
      [
        21.74286,
        56.72367
      ],
      [
        21.74273,
        56.72367
      ],
      [
        21.74261,
        56.72367
      ],
      [
        21.7425,
        56.7237
      ],
      [
        21.7424,
        56.72373
      ],
      [
        21.74231,
        56.72377
      ],
      [
        21.74229,
        56.72379
      ],
      [
        21.74223,
        56.72373
      ],
      [
        21.74221,
        56.72367
      ],
      [
        21.74218,
        56.72361
      ],
      [
        21.74213,
        56.72354
      ],
      [
        21.74207,
        56.72349
      ],
      [
        21.74198,
        56.72344
      ],
      [
        21.74192,
        56.72338
      ],
      [
        21.74183,
        56.72332
      ],
      [
        21.74177,
        56.72327
      ],
      [
        21.74174,
        56.72321
      ],
      [
        21.74172,
        56.72315
      ],
      [
        21.74166,
        56.7231
      ],
      [
        21.74159,
        56.72304
      ],
      [
        21.74154,
        56.72298
      ],
      [
        21.74148,
        56.72291
      ],
      [
        21.74142,
        56.72286
      ],
      [
        21.74135,
        56.72281
      ],
      [
        21.74127,
        56.72277
      ],
      [
        21.74118,
        56.72273
      ],
      [
        21.74107,
        56.72273
      ],
      [
        21.74099,
        56.72279
      ],
      [
        21.7409,
        56.72284
      ],
      [
        21.74081,
        56.72288
      ],
      [
        21.74072,
        56.72292
      ],
      [
        21.74063,
        56.72297
      ],
      [
        21.74052,
        56.72298
      ],
      [
        21.74042,
        56.72296
      ],
      [
        21.74033,
        56.72294
      ],
      [
        21.74026,
        56.72293
      ],
      [
        21.74018,
        56.72291
      ],
      [
        21.74009,
        56.72289
      ],
      [
        21.74,
        56.72288
      ],
      [
        21.73992,
        56.72286
      ],
      [
        21.73983,
        56.72284
      ],
      [
        21.73974,
        56.72283
      ],
      [
        21.73966,
        56.72282
      ],
      [
        21.73958,
        56.7228
      ],
      [
        21.73948,
        56.72279
      ],
      [
        21.7394,
        56.72278
      ],
      [
        21.7393,
        56.72277
      ],
      [
        21.73921,
        56.72276
      ],
      [
        21.73911,
        56.72275
      ],
      [
        21.73903,
        56.72273
      ],
      [
        21.73895,
        56.72272
      ],
      [
        21.73886,
        56.72271
      ],
      [
        21.73878,
        56.72269
      ],
      [
        21.73869,
        56.72267
      ],
      [
        21.7386,
        56.72266
      ],
      [
        21.73852,
        56.72265
      ],
      [
        21.73844,
        56.72264
      ],
      [
        21.73835,
        56.72263
      ],
      [
        21.73826,
        56.72261
      ],
      [
        21.73817,
        56.7226
      ],
      [
        21.73809,
        56.72259
      ],
      [
        21.73801,
        56.72257
      ],
      [
        21.73792,
        56.72256
      ],
      [
        21.73784,
        56.72255
      ],
      [
        21.73775,
        56.72254
      ],
      [
        21.73763,
        56.72253
      ],
      [
        21.73751,
        56.72251
      ],
      [
        21.73741,
        56.72247
      ],
      [
        21.73728,
        56.72246
      ],
      [
        21.73715,
        56.72245
      ],
      [
        21.73704,
        56.72245
      ],
      [
        21.73697,
        56.72249
      ],
      [
        21.73691,
        56.72256
      ],
      [
        21.73685,
        56.72263
      ],
      [
        21.73679,
        56.72269
      ],
      [
        21.73672,
        56.72273
      ],
      [
        21.73667,
        56.72279
      ],
      [
        21.73665,
        56.72286
      ],
      [
        21.73661,
        56.72291
      ],
      [
        21.73658,
        56.72298
      ],
      [
        21.73658,
        56.72304
      ],
      [
        21.73653,
        56.7231
      ],
      [
        21.73653,
        56.72317
      ],
      [
        21.73654,
        56.72324
      ],
      [
        21.73657,
        56.72331
      ],
      [
        21.73656,
        56.72338
      ],
      [
        21.73649,
        56.72342
      ],
      [
        21.73639,
        56.72347
      ],
      [
        21.73632,
        56.72351
      ],
      [
        21.73626,
        56.72357
      ],
      [
        21.73621,
        56.72363
      ],
      [
        21.73615,
        56.72368
      ],
      [
        21.73608,
        56.72373
      ],
      [
        21.73601,
        56.72378
      ],
      [
        21.73598,
        56.72379
      ],
      [
        21.736,
        56.72374
      ],
      [
        21.73601,
        56.72373
      ],
      [
        21.736,
        56.72378
      ],
      [
        21.73599,
        56.72383
      ],
      [
        21.73605,
        56.72387
      ],
      [
        21.73613,
        56.7239
      ],
      [
        21.7362,
        56.72393
      ],
      [
        21.73626,
        56.72396
      ],
      [
        21.73632,
        56.72401
      ],
      [
        21.73636,
        56.72405
      ],
      [
        21.7364,
        56.72409
      ],
      [
        21.73643,
        56.72413
      ],
      [
        21.73645,
        56.72418
      ],
      [
        21.73646,
        56.72423
      ],
      [
        21.73641,
        56.72428
      ],
      [
        21.73635,
        56.72432
      ],
      [
        21.73628,
        56.72435
      ],
      [
        21.7362,
        56.72438
      ],
      [
        21.73613,
        56.7244
      ],
      [
        21.73606,
        56.72443
      ],
      [
        21.736,
        56.72446
      ],
      [
        21.73594,
        56.7245
      ],
      [
        21.73586,
        56.72453
      ],
      [
        21.73577,
        56.72457
      ],
      [
        21.73568,
        56.72462
      ],
      [
        21.73559,
        56.72467
      ],
      [
        21.73552,
        56.72472
      ],
      [
        21.73549,
        56.72477
      ],
      [
        21.73557,
        56.7248
      ],
      [
        21.73564,
        56.72483
      ],
      [
        21.73569,
        56.72483
      ],
      [
        21.73567,
        56.72484
      ],
      [
        21.7356,
        56.72485
      ]
    ]
  }
}