{
  "type": "Feature",
  "properties": {
    "id": "levada-de-santa-cruz_dxjj",
    "name": "Levada de Santa Cruz",
    "distanceMeters": 903.6241070974403,
    "elevationGainM": 12,
    "elevationsM": [
      336.2,
      336.4,
      337.2,
      336.3,
      335.1,
      333.8,
      332.8,
      331.8,
      332.8,
      334.1,
      333.6,
      334,
      333.1,
      332.5,
      333.2,
      334.5,
      335.7,
      335,
      336.1,
      336.2,
      335.2,
      334.1,
      335.6,
      334.6,
      335.2,
      334.8,
      334.7,
      335.4,
      336.8,
      337
    ]
  },
  "geometry": {
    "type": "LineString",
    "coordinates": [
      [
        -8.344091,
        40.848588
      ],
      [
        -8.344058,
        40.848528
      ],
      [
        -8.344355,
        40.848579
      ],
      [
        -8.344724,
        40.848648
      ],
      [
        -8.345057,
        40.848185
      ],
      [
        -8.34522,
        40.848146
      ],
      [
        -8.345599,
        40.848044
      ],
      [
        -8.346247,
        40.848176
      ],
      [
        -8.346928,
        40.84839
      ],
      [
        -8.347468,
        40.848515
      ],
      [
        -8.348123,
        40.848549
      ],
      [
        -8.348504,
        40.848632
      ],
      [
        -8.349172,
        40.848691
      ],
      [
        -8.349697,
        40.848718
      ],
      [
        -8.350259,
        40.848666
      ],
      [
        -8.351031,
        40.848755
      ],
      [
        -8.351686,
        40.848695
      ],
      [
        -8.35186,
        40.848882
      ],
      [
        -8.351911,
        40.848802
      ],
      [
        -8.351953,
        40.848769
      ],
      [
        -8.35224,
        40.849043
      ],
      [
        -8.352186,
        40.848973
      ],
      [
        -8.352261,
        40.849017
      ],
      [
        -8.352429,
        40.849043
      ],
      [
        -8.352645,
        40.849087
      ],
      [
        -8.352677,
        40.848916
      ],
      [
        -8.352787,
        40.849002
      ],
      [
        -8.352951,
        40.848999
      ],
      [
        -8.352904,
        40.849099
      ],
      [
        -8.353095,
        40.848989
      ]
    ]
  }
}