{
  "type": "Feature",
  "properties": {
    "id": "mazb-n-a-taka-mazirbe-s-krags_y9ns",
    "name": "Mazbānīša taka: Mazirbe–Sīkrags",
    "distanceMeters": 6378.934188418475,
    "elevationGainM": null
  },
  "geometry": {
    "type": "LineString",
    "coordinates": [
      [
        22.31759,
        57.67998
      ],
      [
        22.31753,
        57.67994
      ],
      [
        22.3175,
        57.6799
      ],
      [
        22.31748,
        57.67985
      ],
      [
        22.31741,
        57.67982
      ],
      [
        22.31739,
        57.67982
      ],
      [
        22.31735,
        57.67977
      ],
      [
        22.3173,
        57.67973
      ],
      [
        22.31727,
        57.67968
      ],
      [
        22.31723,
        57.67964
      ],
      [
        22.31719,
        57.6796
      ],
      [
        22.31717,
        57.67955
      ],
      [
        22.31715,
        57.6795
      ],
      [
        22.31713,
        57.67945
      ],
      [
        22.31712,
        57.6794
      ],
      [
        22.31713,
        57.67935
      ],
      [
        22.3171,
        57.6793
      ],
      [
        22.31707,
        57.67924
      ],
      [
        22.31704,
        57.6792
      ],
      [
        22.31696,
        57.67916
      ],
      [
        22.3169,
        57.67913
      ],
      [
        22.31686,
        57.67908
      ],
      [
        22.31681,
        57.67904
      ],
      [
        22.31678,
        57.67899
      ],
      [
        22.3167,
        57.67893
      ],
      [
        22.31663,
        57.67886
      ],
      [
        22.31653,
        57.67881
      ],
      [
        22.31644,
        57.67877
      ],
      [
        22.31639,
        57.67869
      ],
      [
        22.31637,
        57.67863
      ],
      [
        22.31631,
        57.67857
      ],
      [
        22.31622,
        57.67853
      ],
      [
        22.31613,
        57.67849
      ],
      [
        22.31604,
        57.67845
      ],
      [
        22.31595,
        57.67841
      ],
      [
        22.31585,
        57.67837
      ],
      [
        22.31576,
        57.67833
      ],
      [
        22.31566,
        57.6783
      ],
      [
        22.31557,
        57.67825
      ],
      [
        22.31549,
        57.67821
      ],
      [
        22.31539,
        57.67817
      ],
      [
        22.3153,
        57.67815
      ],
      [
        22.31522,
        57.67813
      ],
      [
        22.31514,
        57.6781
      ],
      [
        22.31506,
        57.67808
      ],
      [
        22.31497,
        57.67807
      ],
      [
        22.31488,
        57.67804
      ],
      [
        22.31481,
        57.67802
      ],
      [
        22.31473,
        57.678
      ],
      [
        22.31464,
        57.67799
      ],
      [
        22.31454,
        57.67798
      ],
      [
        22.31445,
        57.67796
      ],
      [
        22.31437,
        57.67793
      ],
      [
        22.31427,
        57.67792
      ],
      [
        22.31417,
        57.67792
      ],
      [
        22.31408,
        57.67788
      ],
      [
        22.31397,
        57.67785
      ],
      [
        22.31386,
        57.67783
      ],
      [
        22.31383,
        57.67788
      ],
      [
        22.31382,
        57.67785
      ],
      [
        22.31381,
        57.67781
      ],
      [
        22.31372,
        57.67778
      ],
      [
        22.31361,
        57.67777
      ],
      [
        22.31359,
        57.6777
      ],
      [
        22.31347,
        57.67769
      ],
      [
        22.31334,
        57.6777
      ],
      [
        22.31325,
        57.67766
      ],
      [
        22.31314,
        57.67763
      ],
      [
        22.31301,
        57.67761
      ],
      [
        22.3129,
        57.67758
      ],
      [
        22.31287,
        57.67751
      ],
      [
        22.31291,
        57.67746
      ],
      [
        22.31279,
        57.67749
      ],
      [
        22.31267,
        57.67751
      ],
      [
        22.31256,
        57.67752
      ],
      [
        22.31249,
        57.67747
      ],
      [
        22.3124,
        57.67743
      ],
      [
        22.31229,
        57.67741
      ],
      [
        22.31217,
        57.6774
      ],
      [
        22.31206,
        57.67737
      ],
      [
        22.31194,
        57.67735
      ],
      [
        22.31182,
        57.67732
      ],
      [
        22.31169,
        57.67732
      ],
      [
        22.31157,
        57.6773
      ],
      [
        22.31145,
        57.67732
      ],
      [
        22.31134,
        57.67733
      ],
      [
        22.31123,
        57.67734
      ],
      [
        22.31111,
        57.67734
      ],
      [
        22.31099,
        57.67734
      ],
      [
        22.31086,
        57.67733
      ],
      [
        22.31075,
        57.67734
      ],
      [
        22.31064,
        57.67736
      ],
      [
        22.31052,
        57.67737
      ],
      [
        22.31042,
        57.67739
      ],
      [
        22.31032,
        57.67739
      ],
      [
        22.31022,
        57.67739
      ],
      [
        22.31012,
        57.67738
      ],
      [
        22.31008,
        57.67734
      ],
      [
        22.31009,
        57.67733
      ],
      [
        22.31,
        57.67732
      ],
      [
        22.30991,
        57.6773
      ],
      [
        22.30981,
        57.67729
      ],
      [
        22.30971,
        57.67727
      ],
      [
        22.30961,
        57.67725
      ],
      [
        22.3095,
        57.67722
      ],
      [
        22.30939,
        57.6772
      ],
      [
        22.30935,
        57.67721
      ],
      [
        22.30948,
        57.67722
      ],
      [
        22.3096,
        57.67723
      ],
      [
        22.3097,
        57.67727
      ],
      [
        22.30966,
        57.67733
      ],
      [
        22.30953,
        57.67733
      ],
      [
        22.3094,
        57.67733
      ],
      [
        22.30928,
        57.67733
      ],
      [
        22.30915,
        57.67733
      ],
      [
        22.30903,
        57.67732
      ],
      [
        22.30893,
        57.67729
      ],
      [
        22.30881,
        57.67727
      ],
      [
        22.30869,
        57.67727
      ],
      [
        22.30855,
        57.67728
      ],
      [
        22.30837,
        57.67723
      ],
      [
        22.30824,
        57.67723
      ],
      [
        22.30811,
        57.67725
      ],
      [
        22.308,
        57.67725
      ],
      [
        22.30788,
        57.67723
      ],
      [
        22.30777,
        57.67724
      ],
      [
        22.30765,
        57.67723
      ],
      [
        22.30752,
        57.67723
      ],
      [
        22.30745,
        57.67722
      ],
      [
        22.30734,
        57.6772
      ],
      [
        22.30723,
        57.67721
      ],
      [
        22.30711,
        57.67722
      ],
      [
        22.30701,
        57.67719
      ],
      [
        22.30692,
        57.67718
      ],
      [
        22.30683,
        57.67719
      ],
      [
        22.30675,
        57.6772
      ],
      [
        22.30674,
        57.67719
      ],
      [
        22.30669,
        57.67718
      ],
      [
        22.30659,
        57.67718
      ],
      [
        22.3065,
        57.67718
      ],
      [
        22.30638,
        57.67718
      ],
      [
        22.30628,
        57.67716
      ],
      [
        22.3062,
        57.67713
      ],
      [
        22.30612,
        57.67714
      ],
      [
        22.30613,
        57.67714
      ],
      [
        22.30604,
        57.67714
      ],
      [
        22.30592,
        57.67715
      ],
      [
        22.3058,
        57.67715
      ],
      [
        22.3057,
        57.67717
      ],
      [
        22.30562,
        57.67722
      ],
      [
        22.3055,
        57.67721
      ],
      [
        22.30547,
        57.67715
      ],
      [
        22.3054,
        57.67712
      ],
      [
        22.3053,
        57.67712
      ],
      [
        22.30521,
        57.67711
      ],
      [
        22.30513,
        57.67709
      ],
      [
        22.30505,
        57.67706
      ],
      [
        22.30495,
        57.67706
      ],
      [
        22.30486,
        57.67706
      ],
      [
        22.30476,
        57.67705
      ],
      [
        22.30467,
        57.67702
      ],
      [
        22.3046,
        57.67698
      ],
      [
        22.30454,
        57.67694
      ],
      [
        22.30447,
        57.67691
      ],
      [
        22.30438,
        57.67689
      ],
      [
        22.30431,
        57.67687
      ],
      [
        22.3043,
        57.67683
      ],
      [
        22.30431,
        57.6768
      ],
      [
        22.30427,
        57.6768
      ],
      [
        22.30427,
        57.67679
      ],
      [
        22.30418,
        57.67681
      ],
      [
        22.3041,
        57.67679
      ],
      [
        22.30401,
        57.67677
      ],
      [
        22.30392,
        57.67674
      ],
      [
        22.30381,
        57.67672
      ],
      [
        22.30374,
        57.67668
      ],
      [
        22.30365,
        57.67666
      ],
      [
        22.30356,
        57.67665
      ],
      [
        22.30347,
        57.67664
      ],
      [
        22.30338,
        57.67663
      ],
      [
        22.30329,
        57.67661
      ],
      [
        22.30321,
        57.67657
      ],
      [
        22.30311,
        57.67654
      ],
      [
        22.30298,
        57.67652
      ],
      [
        22.30286,
        57.6765
      ],
      [
        22.30278,
        57.67646
      ],
      [
        22.30268,
        57.67643
      ],
      [
        22.30258,
        57.6764
      ],
      [
        22.30248,
        57.67635
      ],
      [
        22.30236,
        57.67633
      ],
      [
        22.30226,
        57.6763
      ],
      [
        22.30215,
        57.67628
      ],
      [
        22.30202,
        57.67626
      ],
      [
        22.30189,
        57.67625
      ],
      [
        22.30179,
        57.67621
      ],
      [
        22.30171,
        57.67616
      ],
      [
        22.3016,
        57.67612
      ],
      [
        22.30149,
        57.67609
      ],
      [
        22.30139,
        57.67605
      ],
      [
        22.30128,
        57.67602
      ],
      [
        22.30115,
        57.67601
      ],
      [
        22.30103,
        57.67601
      ],
      [
        22.30091,
        57.676
      ],
      [
        22.30084,
        57.67595
      ],
      [
        22.30074,
        57.67592
      ],
      [
        22.30061,
        57.67591
      ],
      [
        22.30052,
        57.67587
      ],
      [
        22.30042,
        57.67583
      ],
      [
        22.30032,
        57.6758
      ],
      [
        22.30019,
        57.67577
      ],
      [
        22.30008,
        57.67575
      ],
      [
        22.30001,
        57.67569
      ],
      [
        22.2999,
        57.67565
      ],
      [
        22.29977,
        57.67563
      ],
      [
        22.29965,
        57.6756
      ],
      [
        22.29954,
        57.67558
      ],
      [
        22.29944,
        57.67554
      ],
      [
        22.29935,
        57.67551
      ],
      [
        22.29926,
        57.67547
      ],
      [
        22.29915,
        57.67545
      ],
      [
        22.29903,
        57.67543
      ],
      [
        22.29891,
        57.6754
      ],
      [
        22.29878,
        57.6754
      ],
      [
        22.29864,
        57.67539
      ],
      [
        22.29853,
        57.67537
      ],
      [
        22.29843,
        57.67534
      ],
      [
        22.29832,
        57.67531
      ],
      [
        22.29821,
        57.67527
      ],
      [
        22.29811,
        57.67523
      ],
      [
        22.29799,
        57.67521
      ],
      [
        22.29788,
        57.67519
      ],
      [
        22.29777,
        57.67517
      ],
      [
        22.29767,
        57.67513
      ],
      [
        22.29755,
        57.67511
      ],
      [
        22.29744,
        57.67508
      ],
      [
        22.29731,
        57.67507
      ],
      [
        22.29718,
        57.67508
      ],
      [
        22.29706,
        57.67507
      ],
      [
        22.29695,
        57.67503
      ],
      [
        22.29686,
        57.67498
      ],
      [
        22.29677,
        57.67494
      ],
      [
        22.29666,
        57.67489
      ],
      [
        22.29653,
        57.67488
      ],
      [
        22.29643,
        57.67487
      ],
      [
        22.29634,
        57.67487
      ],
      [
        22.29623,
        57.67486
      ],
      [
        22.29614,
        57.67486
      ],
      [
        22.29605,
        57.67485
      ],
      [
        22.29595,
        57.67485
      ],
      [
        22.29586,
        57.67483
      ],
      [
        22.29576,
        57.67484
      ],
      [
        22.29566,
        57.67484
      ],
      [
        22.29557,
        57.67483
      ],
      [
        22.29549,
        57.67481
      ],
      [
        22.29539,
        57.67479
      ],
      [
        22.29529,
        57.67477
      ],
      [
        22.2952,
        57.67476
      ],
      [
        22.29511,
        57.67475
      ],
      [
        22.29502,
        57.67475
      ],
      [
        22.29492,
        57.67475
      ],
      [
        22.29483,
        57.67475
      ],
      [
        22.29473,
        57.67475
      ],
      [
        22.29465,
        57.67473
      ],
      [
        22.29455,
        57.67472
      ],
      [
        22.29447,
        57.67471
      ],
      [
        22.29437,
        57.6747
      ],
      [
        22.29428,
        57.67469
      ],
      [
        22.29419,
        57.67469
      ],
      [
        22.29408,
        57.67468
      ],
      [
        22.29399,
        57.67467
      ],
      [
        22.2939,
        57.67467
      ],
      [
        22.29381,
        57.67467
      ],
      [
        22.29373,
        57.67465
      ],
      [
        22.29363,
        57.67464
      ],
      [
        22.29355,
        57.67463
      ],
      [
        22.29345,
        57.67461
      ],
      [
        22.29337,
        57.67459
      ],
      [
        22.29328,
        57.67459
      ],
      [
        22.29319,
        57.6746
      ],
      [
        22.29309,
        57.6746
      ],
      [
        22.293,
        57.6746
      ],
      [
        22.2929,
        57.67458
      ],
      [
        22.29282,
        57.67457
      ],
      [
        22.29276,
        57.67457
      ],
      [
        22.29268,
        57.67458
      ],
      [
        22.29258,
        57.6746
      ],
      [
        22.29247,
        57.67459
      ],
      [
        22.2924,
        57.67456
      ],
      [
        22.29246,
        57.67452
      ],
      [
        22.29245,
        57.67451
      ],
      [
        22.29236,
        57.67453
      ],
      [
        22.29224,
        57.67453
      ],
      [
        22.29213,
        57.6745
      ],
      [
        22.29205,
        57.67448
      ],
      [
        22.29195,
        57.67449
      ],
      [
        22.29184,
        57.6745
      ],
      [
        22.29176,
        57.67449
      ],
      [
        22.29166,
        57.67447
      ],
      [
        22.29157,
        57.67445
      ],
      [
        22.29149,
        57.67442
      ],
      [
        22.29141,
        57.6744
      ],
      [
        22.29131,
        57.67439
      ],
      [
        22.29119,
        57.67436
      ],
      [
        22.29107,
        57.67434
      ],
      [
        22.29094,
        57.67433
      ],
      [
        22.29082,
        57.67432
      ],
      [
        22.29072,
        57.67428
      ],
      [
        22.29061,
        57.67426
      ],
      [
        22.29051,
        57.67422
      ],
      [
        22.29038,
        57.67421
      ],
      [
        22.29026,
        57.67418
      ],
      [
        22.29016,
        57.67415
      ],
      [
        22.29006,
        57.67412
      ],
      [
        22.29002,
        57.67406
      ],
      [
        22.29004,
        57.67406
      ],
      [
        22.28994,
        57.67402
      ],
      [
        22.28982,
        57.67403
      ],
      [
        22.28971,
        57.67402
      ],
      [
        22.28964,
        57.67396
      ],
      [
        22.28954,
        57.67393
      ],
      [
        22.28943,
        57.67394
      ],
      [
        22.28932,
        57.67392
      ],
      [
        22.28923,
        57.67388
      ],
      [
        22.28913,
        57.67383
      ],
      [
        22.28902,
        57.67381
      ],
      [
        22.2889,
        57.67379
      ],
      [
        22.28877,
        57.67379
      ],
      [
        22.28865,
        57.67377
      ],
      [
        22.28854,
        57.67375
      ],
      [
        22.28844,
        57.67371
      ],
      [
        22.28835,
        57.67366
      ],
      [
        22.28825,
        57.67363
      ],
      [
        22.28813,
        57.67362
      ],
      [
        22.28803,
        57.67357
      ],
      [
        22.28793,
        57.67353
      ],
      [
        22.28784,
        57.6735
      ],
      [
        22.28781,
        57.67344
      ],
      [
        22.28779,
        57.67342
      ],
      [
        22.28767,
        57.67343
      ],
      [
        22.28756,
        57.67339
      ],
      [
        22.28744,
        57.67337
      ],
      [
        22.28731,
        57.67336
      ],
      [
        22.28722,
        57.67332
      ],
      [
        22.2871,
        57.67331
      ],
      [
        22.28697,
        57.6733
      ],
      [
        22.28688,
        57.67326
      ],
      [
        22.28677,
        57.67321
      ],
      [
        22.28666,
        57.67317
      ],
      [
        22.28654,
        57.67317
      ],
      [
        22.28642,
        57.67316
      ],
      [
        22.2863,
        57.67314
      ],
      [
        22.28617,
        57.67312
      ],
      [
        22.28606,
        57.67309
      ],
      [
        22.28596,
        57.67306
      ],
      [
        22.28585,
        57.67302
      ],
      [
        22.28572,
        57.67299
      ],
      [
        22.28561,
        57.67296
      ],
      [
        22.28549,
        57.67295
      ],
      [
        22.28538,
        57.67291
      ],
      [
        22.28529,
        57.67286
      ],
      [
        22.2852,
        57.67282
      ],
      [
        22.28507,
        57.6728
      ],
      [
        22.28496,
        57.67277
      ],
      [
        22.28484,
        57.67276
      ],
      [
        22.28471,
        57.67275
      ],
      [
        22.28463,
        57.6727
      ],
      [
        22.28454,
        57.67265
      ],
      [
        22.28444,
        57.67262
      ],
      [
        22.28433,
        57.6726
      ],
      [
        22.28423,
        57.67257
      ],
      [
        22.28413,
        57.67254
      ],
      [
        22.28401,
        57.67252
      ],
      [
        22.28389,
        57.67249
      ],
      [
        22.28376,
        57.67247
      ],
      [
        22.28364,
        57.67246
      ],
      [
        22.28352,
        57.67244
      ],
      [
        22.2834,
        57.67242
      ],
      [
        22.28329,
        57.67238
      ],
      [
        22.28323,
        57.67233
      ],
      [
        22.28311,
        57.6723
      ],
      [
        22.28299,
        57.67229
      ],
      [
        22.28289,
        57.67225
      ],
      [
        22.28277,
        57.67221
      ],
      [
        22.28266,
        57.67218
      ],
      [
        22.2826,
        57.67211
      ],
      [
        22.2825,
        57.67207
      ],
      [
        22.28242,
        57.67203
      ],
      [
        22.28229,
        57.672
      ],
      [
        22.28217,
        57.67198
      ],
      [
        22.28202,
        57.67197
      ],
      [
        22.2819,
        57.67197
      ],
      [
        22.28182,
        57.67201
      ],
      [
        22.28165,
        57.67199
      ],
      [
        22.28156,
        57.67195
      ],
      [
        22.28153,
        57.67188
      ],
      [
        22.28141,
        57.67188
      ],
      [
        22.2813,
        57.67185
      ],
      [
        22.28121,
        57.67179
      ],
      [
        22.28112,
        57.67175
      ],
      [
        22.28099,
        57.67178
      ],
      [
        22.28088,
        57.67175
      ],
      [
        22.28077,
        57.67174
      ],
      [
        22.28064,
        57.67172
      ],
      [
        22.28052,
        57.67171
      ],
      [
        22.28047,
        57.67164
      ],
      [
        22.2804,
        57.67159
      ],
      [
        22.28029,
        57.67156
      ],
      [
        22.28008,
        57.67153
      ],
      [
        22.28004,
        57.67147
      ],
      [
        22.27993,
        57.67146
      ],
      [
        22.27982,
        57.67144
      ],
      [
        22.27971,
        57.67141
      ],
      [
        22.2796,
        57.67138
      ],
      [
        22.27949,
        57.67135
      ],
      [
        22.27937,
        57.67132
      ],
      [
        22.27925,
        57.67133
      ],
      [
        22.2791,
        57.67134
      ],
      [
        22.27899,
        57.67131
      ],
      [
        22.2789,
        57.67128
      ],
      [
        22.27883,
        57.67122
      ],
      [
        22.27872,
        57.67118
      ],
      [
        22.2786,
        57.67115
      ],
      [
        22.27847,
        57.67112
      ],
      [
        22.27835,
        57.6711
      ],
      [
        22.27823,
        57.67108
      ],
      [
        22.27816,
        57.67103
      ],
      [
        22.27806,
        57.671
      ],
      [
        22.27797,
        57.67096
      ],
      [
        22.27785,
        57.67094
      ],
      [
        22.27775,
        57.67092
      ],
      [
        22.27767,
        57.67087
      ],
      [
        22.27758,
        57.67083
      ],
      [
        22.27749,
        57.67079
      ],
      [
        22.27738,
        57.67077
      ],
      [
        22.27725,
        57.67075
      ],
      [
        22.27711,
        57.67074
      ],
      [
        22.277,
        57.67073
      ],
      [
        22.27687,
        57.67073
      ],
      [
        22.27671,
        57.6707
      ],
      [
        22.2766,
        57.67068
      ],
      [
        22.27654,
        57.67062
      ],
      [
        22.27647,
        57.67057
      ],
      [
        22.27635,
        57.67058
      ],
      [
        22.2762,
        57.67055
      ],
      [
        22.2761,
        57.67051
      ],
      [
        22.27598,
        57.67052
      ],
      [
        22.27587,
        57.67051
      ],
      [
        22.27581,
        57.67045
      ],
      [
        22.27572,
        57.67041
      ],
      [
        22.27562,
        57.67039
      ],
      [
        22.27552,
        57.67036
      ],
      [
        22.27539,
        57.67033
      ],
      [
        22.27528,
        57.6703
      ],
      [
        22.27516,
        57.67028
      ],
      [
        22.27505,
        57.6703
      ],
      [
        22.27494,
        57.67029
      ],
      [
        22.27483,
        57.67025
      ],
      [
        22.27479,
        57.67019
      ],
      [
        22.27471,
        57.67015
      ],
      [
        22.2746,
        57.67012
      ],
      [
        22.27449,
        57.67009
      ],
      [
        22.27439,
        57.67004
      ],
      [
        22.27429,
        57.67
      ],
      [
        22.27415,
        57.66999
      ],
      [
        22.27403,
        57.66997
      ],
      [
        22.27396,
        57.66992
      ],
      [
        22.27391,
        57.66985
      ],
      [
        22.27377,
        57.66984
      ],
      [
        22.27365,
        57.66983
      ],
      [
        22.27353,
        57.66982
      ],
      [
        22.27342,
        57.66981
      ],
      [
        22.2733,
        57.66978
      ],
      [
        22.27319,
        57.66976
      ],
      [
        22.27311,
        57.6697
      ],
      [
        22.27301,
        57.66966
      ],
      [
        22.27289,
        57.66964
      ],
      [
        22.27277,
        57.66963
      ],
      [
        22.27273,
        57.66956
      ],
      [
        22.27265,
        57.66951
      ],
      [
        22.2725,
        57.66951
      ],
      [
        22.27241,
        57.66955
      ],
      [
        22.2723,
        57.66954
      ],
      [
        22.27223,
        57.66949
      ],
      [
        22.27216,
        57.66945
      ],
      [
        22.27205,
        57.66942
      ],
      [
        22.27192,
        57.66938
      ],
      [
        22.2718,
        57.66937
      ],
      [
        22.27171,
        57.66935
      ],
      [
        22.27159,
        57.66935
      ],
      [
        22.27145,
        57.66934
      ],
      [
        22.27133,
        57.66933
      ],
      [
        22.27123,
        57.66932
      ],
      [
        22.27117,
        57.66925
      ],
      [
        22.27114,
        57.66918
      ],
      [
        22.27107,
        57.66912
      ],
      [
        22.27099,
        57.66908
      ],
      [
        22.27087,
        57.66906
      ],
      [
        22.27075,
        57.66907
      ],
      [
        22.27064,
        57.66907
      ],
      [
        22.27058,
        57.66901
      ],
      [
        22.27047,
        57.66897
      ],
      [
        22.27035,
        57.66896
      ],
      [
        22.27026,
        57.66893
      ],
      [
        22.27014,
        57.66889
      ],
      [
        22.27001,
        57.66886
      ],
      [
        22.2699,
        57.66884
      ],
      [
        22.26979,
        57.66882
      ],
      [
        22.26968,
        57.6688
      ],
      [
        22.26957,
        57.66878
      ],
      [
        22.26946,
        57.66875
      ],
      [
        22.26935,
        57.66871
      ],
      [
        22.26928,
        57.66865
      ],
      [
        22.26917,
        57.66862
      ],
      [
        22.26905,
        57.66862
      ],
      [
        22.26893,
        57.66861
      ],
      [
        22.2688,
        57.66859
      ],
      [
        22.26869,
        57.66855
      ],
      [
        22.26861,
        57.6685
      ],
      [
        22.26854,
        57.66845
      ],
      [
        22.26844,
        57.66841
      ],
      [
        22.26832,
        57.66839
      ],
      [
        22.2682,
        57.6684
      ],
      [
        22.26809,
        57.66841
      ],
      [
        22.26796,
        57.66839
      ],
      [
        22.26787,
        57.66835
      ],
      [
        22.26777,
        57.66831
      ],
      [
        22.26765,
        57.66829
      ],
      [
        22.26752,
        57.6683
      ],
      [
        22.26741,
        57.66827
      ],
      [
        22.26736,
        57.66821
      ],
      [
        22.26732,
        57.66813
      ],
      [
        22.26725,
        57.66808
      ],
      [
        22.2671,
        57.66806
      ],
      [
        22.26696,
        57.66811
      ],
      [
        22.26692,
        57.66818
      ],
      [
        22.26683,
        57.66823
      ],
      [
        22.26673,
        57.6682
      ],
      [
        22.26671,
        57.66813
      ],
      [
        22.26667,
        57.66806
      ],
      [
        22.26663,
        57.668
      ],
      [
        22.26651,
        57.66797
      ],
      [
        22.2664,
        57.66795
      ],
      [
        22.26628,
        57.66791
      ],
      [
        22.26617,
        57.66788
      ],
      [
        22.26606,
        57.66786
      ],
      [
        22.26595,
        57.66783
      ],
      [
        22.26585,
        57.66779
      ],
      [
        22.26576,
        57.66773
      ],
      [
        22.26568,
        57.66769
      ],
      [
        22.26554,
        57.66766
      ],
      [
        22.2654,
        57.66766
      ],
      [
        22.26528,
        57.66765
      ],
      [
        22.26517,
        57.66763
      ],
      [
        22.26509,
        57.66758
      ],
      [
        22.265,
        57.66753
      ],
      [
        22.26487,
        57.66751
      ],
      [
        22.26476,
        57.66747
      ],
      [
        22.26468,
        57.66742
      ],
      [
        22.26457,
        57.66739
      ],
      [
        22.26446,
        57.66737
      ],
      [
        22.26436,
        57.66733
      ],
      [
        22.26425,
        57.66731
      ],
      [
        22.26414,
        57.66729
      ],
      [
        22.264,
        57.66729
      ],
      [
        22.26389,
        57.66728
      ],
      [
        22.26379,
        57.66724
      ],
      [
        22.26368,
        57.66724
      ],
      [
        22.26356,
        57.66721
      ],
      [
        22.26345,
        57.66716
      ],
      [
        22.26338,
        57.66711
      ],
      [
        22.26329,
        57.66706
      ],
      [
        22.26319,
        57.66703
      ],
      [
        22.26307,
        57.667
      ],
      [
        22.26294,
        57.667
      ],
      [
        22.26281,
        57.66696
      ],
      [
        22.26271,
        57.66692
      ],
      [
        22.26264,
        57.66686
      ],
      [
        22.26254,
        57.66683
      ],
      [
        22.26242,
        57.66681
      ],
      [
        22.26233,
        57.66677
      ],
      [
        22.2622,
        57.66675
      ],
      [
        22.26209,
        57.66672
      ],
      [
        22.26198,
        57.66669
      ],
      [
        22.26187,
        57.66668
      ],
      [
        22.26175,
        57.66664
      ],
      [
        22.26164,
        57.6666
      ],
      [
        22.26154,
        57.66658
      ],
      [
        22.26143,
        57.66656
      ],
      [
        22.26131,
        57.66654
      ],
      [
        22.26125,
        57.66648
      ],
      [
        22.26113,
        57.66647
      ],
      [
        22.26099,
        57.66647
      ],
      [
        22.26089,
        57.66644
      ],
      [
        22.26079,
        57.6664
      ],
      [
        22.26068,
        57.66638
      ],
      [
        22.26056,
        57.66636
      ],
      [
        22.26044,
        57.66636
      ],
      [
        22.26032,
        57.66636
      ],
      [
        22.26019,
        57.66634
      ],
      [
        22.26009,
        57.66629
      ],
      [
        22.26,
        57.66624
      ],
      [
        22.25991,
        57.66619
      ],
      [
        22.25984,
        57.66612
      ],
      [
        22.25974,
        57.66607
      ],
      [
        22.25963,
        57.66606
      ],
      [
        22.25956,
        57.666
      ],
      [
        22.25946,
        57.66597
      ],
      [
        22.25934,
        57.66594
      ],
      [
        22.25926,
        57.6659
      ],
      [
        22.25912,
        57.66588
      ],
      [
        22.25898,
        57.66587
      ],
      [
        22.25886,
        57.66586
      ],
      [
        22.25874,
        57.66583
      ],
      [
        22.25861,
        57.6658
      ],
      [
        22.2585,
        57.66577
      ],
      [
        22.25839,
        57.66574
      ],
      [
        22.25828,
        57.6657
      ],
      [
        22.25815,
        57.66567
      ],
      [
        22.25805,
        57.66562
      ],
      [
        22.25795,
        57.66557
      ],
      [
        22.25784,
        57.66553
      ],
      [
        22.25772,
        57.66553
      ],
      [
        22.25761,
        57.66551
      ],
      [
        22.2575,
        57.66549
      ],
      [
        22.25737,
        57.66546
      ],
      [
        22.25726,
        57.66544
      ],
      [
        22.25716,
        57.66541
      ],
      [
        22.25709,
        57.66536
      ],
      [
        22.25699,
        57.66531
      ],
      [
        22.25686,
        57.66528
      ],
      [
        22.25676,
        57.66526
      ],
      [
        22.25664,
        57.66522
      ],
      [
        22.25656,
        57.66517
      ],
      [
        22.25645,
        57.66514
      ],
      [
        22.25633,
        57.66513
      ],
      [
        22.2562,
        57.66512
      ],
      [
        22.25609,
        57.66508
      ],
      [
        22.25596,
        57.66507
      ],
      [
        22.25583,
        57.66505
      ],
      [
        22.25573,
        57.66499
      ],
      [
        22.25565,
        57.66493
      ],
      [
        22.25553,
        57.66491
      ],
      [
        22.25541,
        57.66489
      ],
      [
        22.2553,
        57.66488
      ],
      [
        22.25518,
        57.66486
      ],
      [
        22.25505,
        57.66484
      ],
      [
        22.25494,
        57.66481
      ],
      [
        22.25486,
        57.66476
      ],
      [
        22.25476,
        57.66472
      ],
      [
        22.25466,
        57.66469
      ],
      [
        22.25454,
        57.66468
      ],
      [
        22.25442,
        57.66465
      ],
      [
        22.25431,
        57.66463
      ],
      [
        22.2542,
        57.66459
      ],
      [
        22.25408,
        57.66456
      ],
      [
        22.25397,
        57.66453
      ],
      [
        22.25386,
        57.66449
      ],
      [
        22.25377,
        57.66446
      ],
      [
        22.25367,
        57.66441
      ],
      [
        22.25356,
        57.66439
      ],
      [
        22.25342,
        57.66438
      ],
      [
        22.25331,
        57.66437
      ],
      [
        22.25319,
        57.66435
      ],
      [
        22.25308,
        57.66433
      ],
      [
        22.25295,
        57.6643
      ],
      [
        22.25283,
        57.66428
      ],
      [
        22.25274,
        57.66424
      ],
      [
        22.25263,
        57.66419
      ],
      [
        22.25255,
        57.66415
      ],
      [
        22.25243,
        57.66413
      ],
      [
        22.25232,
        57.66412
      ],
      [
        22.25219,
        57.66409
      ],
      [
        22.25209,
        57.66407
      ],
      [
        22.25197,
        57.66406
      ],
      [
        22.25177,
        57.66405
      ],
      [
        22.25165,
        57.66405
      ],
      [
        22.25158,
        57.664
      ],
      [
        22.25151,
        57.66394
      ],
      [
        22.25142,
        57.6639
      ],
      [
        22.25134,
        57.66385
      ],
      [
        22.25123,
        57.66381
      ],
      [
        22.25112,
        57.66378
      ],
      [
        22.251,
        57.66378
      ],
      [
        22.25087,
        57.66377
      ],
      [
        22.25077,
        57.66375
      ],
      [
        22.25067,
        57.66371
      ],
      [
        22.25056,
        57.66368
      ],
      [
        22.25044,
        57.66367
      ],
      [
        22.25033,
        57.66366
      ],
      [
        22.25021,
        57.66362
      ],
      [
        22.2501,
        57.66359
      ],
      [
        22.25,
        57.66356
      ],
      [
        22.24988,
        57.66355
      ],
      [
        22.24977,
        57.66352
      ],
      [
        22.24967,
        57.66349
      ],
      [
        22.24957,
        57.66344
      ],
      [
        22.24945,
        57.66341
      ],
      [
        22.24934,
        57.66339
      ],
      [
        22.24922,
        57.66337
      ],
      [
        22.2491,
        57.66333
      ],
      [
        22.24899,
        57.66329
      ],
      [
        22.2489,
        57.66326
      ],
      [
        22.24879,
        57.66323
      ],
      [
        22.24869,
        57.6632
      ],
      [
        22.24861,
        57.66316
      ],
      [
        22.24851,
        57.66311
      ],
      [
        22.2484,
        57.66308
      ],
      [
        22.2483,
        57.66305
      ],
      [
        22.24819,
        57.66304
      ],
      [
        22.24808,
        57.66303
      ],
      [
        22.24797,
        57.663
      ],
      [
        22.24787,
        57.66296
      ],
      [
        22.24775,
        57.66294
      ],
      [
        22.24766,
        57.6629
      ],
      [
        22.24756,
        57.66286
      ],
      [
        22.24748,
        57.66282
      ],
      [
        22.24737,
        57.66279
      ],
      [
        22.24725,
        57.66275
      ],
      [
        22.24716,
        57.66271
      ],
      [
        22.24703,
        57.66268
      ],
      [
        22.24692,
        57.66267
      ],
      [
        22.24681,
        57.66266
      ],
      [
        22.24669,
        57.66263
      ],
      [
        22.24659,
        57.66259
      ],
      [
        22.24647,
        57.66256
      ],
      [
        22.24636,
        57.66252
      ],
      [
        22.24627,
        57.66248
      ],
      [
        22.24617,
        57.66245
      ],
      [
        22.24603,
        57.66243
      ],
      [
        22.24592,
        57.66242
      ],
      [
        22.24581,
        57.6624
      ],
      [
        22.24568,
        57.66238
      ],
      [
        22.24556,
        57.66235
      ],
      [
        22.24546,
        57.66232
      ],
      [
        22.24537,
        57.66228
      ],
      [
        22.24529,
        57.66223
      ],
      [
        22.24519,
        57.66221
      ],
      [
        22.24508,
        57.66218
      ],
      [
        22.24495,
        57.66216
      ],
      [
        22.24483,
        57.66214
      ],
      [
        22.24474,
        57.66208
      ],
      [
        22.24464,
        57.66204
      ],
      [
        22.24452,
        57.662
      ],
      [
        22.24443,
        57.66196
      ],
      [
        22.24433,
        57.66192
      ],
      [
        22.24424,
        57.66188
      ],
      [
        22.24411,
        57.66189
      ],
      [
        22.24398,
        57.66188
      ],
      [
        22.24388,
        57.66184
      ],
      [
        22.24377,
        57.66182
      ],
      [
        22.24366,
        57.6618
      ],
      [
        22.24352,
        57.66181
      ],
      [
        22.24341,
        57.66182
      ],
      [
        22.24328,
        57.66182
      ],
      [
        22.2432,
        57.66178
      ],
      [
        22.24311,
        57.66172
      ],
      [
        22.24304,
        57.66167
      ],
      [
        22.24295,
        57.66163
      ],
      [
        22.24283,
        57.66162
      ],
      [
        22.24273,
        57.66157
      ],
      [
        22.2426,
        57.66155
      ],
      [
        22.24249,
        57.66152
      ],
      [
        22.24238,
        57.66148
      ],
      [
        22.24227,
        57.66146
      ],
      [
        22.24221,
        57.6614
      ],
      [
        22.2421,
        57.66137
      ],
      [
        22.24199,
        57.66133
      ],
      [
        22.24183,
        57.6613
      ],
      [
        22.24172,
        57.66128
      ],
      [
        22.24159,
        57.66127
      ],
      [
        22.24147,
        57.66126
      ],
      [
        22.2414,
        57.66121
      ],
      [
        22.24133,
        57.66115
      ],
      [
        22.24122,
        57.66114
      ],
      [
        22.24108,
        57.66113
      ],
      [
        22.24097,
        57.66113
      ],
      [
        22.24086,
        57.6611
      ],
      [
        22.24076,
        57.66106
      ],
      [
        22.24064,
        57.66103
      ],
      [
        22.24055,
        57.661
      ],
      [
        22.24046,
        57.66095
      ],
      [
        22.24036,
        57.66092
      ],
      [
        22.24025,
        57.6609
      ],
      [
        22.24014,
        57.66088
      ],
      [
        22.24002,
        57.66085
      ],
      [
        22.23991,
        57.66082
      ],
      [
        22.23982,
        57.66076
      ],
      [
        22.23973,
        57.66072
      ],
      [
        22.23963,
        57.66067
      ],
      [
        22.23952,
        57.66063
      ],
      [
        22.23938,
        57.66063
      ],
      [
        22.23924,
        57.66064
      ],
      [
        22.23914,
        57.66059
      ],
      [
        22.23908,
        57.66056
      ],
      [
        22.23905,
        57.66051
      ],
      [
        22.23904,
        57.66049
      ],
      [
        22.23902,
        57.66049
      ],
      [
        22.23894,
        57.66046
      ],
      [
        22.23885,
        57.66044
      ],
      [
        22.23876,
        57.66043
      ],
      [
        22.23868,
        57.66042
      ],
      [
        22.2386,
        57.6604
      ],
      [
        22.2385,
        57.6604
      ],
      [
        22.23841,
        57.66037
      ],
      [
        22.23835,
        57.66033
      ],
      [
        22.23826,
        57.66031
      ],
      [
        22.23816,
        57.6603
      ],
      [
        22.23807,
        57.66029
      ],
      [
        22.23797,
        57.66026
      ],
      [
        22.23789,
        57.66022
      ],
      [
        22.23777,
        57.66019
      ],
      [
        22.23764,
        57.66017
      ],
      [
        22.2375,
        57.66016
      ],
      [
        22.23739,
        57.66013
      ],
      [
        22.23727,
        57.66011
      ],
      [
        22.23716,
        57.66007
      ],
      [
        22.23706,
        57.66003
      ],
      [
        22.23698,
        57.65999
      ],
      [
        22.23687,
        57.65995
      ],
      [
        22.23676,
        57.65993
      ],
      [
        22.23664,
        57.65991
      ],
      [
        22.23654,
        57.65987
      ],
      [
        22.23642,
        57.65984
      ],
      [
        22.23632,
        57.6598
      ],
      [
        22.23621,
        57.65975
      ],
      [
        22.23609,
        57.65974
      ],
      [
        22.23596,
        57.65972
      ],
      [
        22.23585,
        57.65969
      ],
      [
        22.23574,
        57.65965
      ],
      [
        22.23564,
        57.65962
      ],
      [
        22.23557,
        57.65957
      ],
      [
        22.23548,
        57.65952
      ],
      [
        22.23536,
        57.65948
      ],
      [
        22.23526,
        57.65944
      ],
      [
        22.23516,
        57.65941
      ],
      [
        22.23506,
        57.65938
      ],
      [
        22.23495,
        57.65935
      ],
      [
        22.23485,
        57.65931
      ],
      [
        22.23475,
        57.65929
      ],
      [
        22.23462,
        57.65927
      ],
      [
        22.23451,
        57.65924
      ],
      [
        22.23439,
        57.6592
      ],
      [
        22.23428,
        57.65918
      ],
      [
        22.23417,
        57.65915
      ],
      [
        22.23403,
        57.65913
      ],
      [
        22.23392,
        57.65911
      ],
      [
        22.2338,
        57.65907
      ],
      [
        22.23366,
        57.65905
      ],
      [
        22.23355,
        57.65901
      ],
      [
        22.23352,
        57.65895
      ],
      [
        22.23345,
        57.6589
      ],
      [
        22.23334,
        57.65888
      ],
      [
        22.23323,
        57.65885
      ],
      [
        22.23311,
        57.65883
      ],
      [
        22.23299,
        57.65882
      ],
      [
        22.23287,
        57.6588
      ],
      [
        22.23275,
        57.65879
      ],
      [
        22.23263,
        57.65879
      ],
      [
        22.23251,
        57.65877
      ],
      [
        22.23241,
        57.65874
      ],
      [
        22.23231,
        57.65871
      ],
      [
        22.23221,
        57.65868
      ],
      [
        22.23211,
        57.65865
      ],
      [
        22.232,
        57.65861
      ],
      [
        22.23189,
        57.65856
      ],
      [
        22.23179,
        57.65851
      ],
      [
        22.23167,
        57.65847
      ],
      [
        22.23155,
        57.65844
      ],
      [
        22.23145,
        57.6584
      ],
      [
        22.23134,
        57.65837
      ],
      [
        22.23125,
        57.65836
      ],
      [
        22.23116,
        57.65835
      ],
      [
        22.23107,
        57.65833
      ],
      [
        22.23097,
        57.65831
      ],
      [
        22.23087,
        57.65829
      ],
      [
        22.23078,
        57.65828
      ],
      [
        22.2307,
        57.65826
      ],
      [
        22.23061,
        57.65825
      ],
      [
        22.23054,
        57.65822
      ],
      [
        22.23047,
        57.65819
      ],
      [
        22.2304,
        57.65816
      ],
      [
        22.23032,
        57.65814
      ],
      [
        22.23023,
        57.65813
      ],
      [
        22.23015,
        57.65811
      ],
      [
        22.23005,
        57.6581
      ],
      [
        22.22996,
        57.65809
      ],
      [
        22.22989,
        57.65806
      ],
      [
        22.22984,
        57.65802
      ],
      [
        22.22977,
        57.65798
      ],
      [
        22.22969,
        57.65794
      ],
      [
        22.22961,
        57.65792
      ],
      [
        22.22953,
        57.65789
      ],
      [
        22.22942,
        57.65786
      ],
      [
        22.2293,
        57.65783
      ],
      [
        22.2292,
        57.6578
      ],
      [
        22.22908,
        57.65777
      ],
      [
        22.22898,
        57.65775
      ],
      [
        22.22887,
        57.65771
      ],
      [
        22.22876,
        57.65768
      ],
      [
        22.22865,
        57.65765
      ],
      [
        22.22854,
        57.65762
      ],
      [
        22.22842,
        57.65758
      ],
      [
        22.22831,
        57.65755
      ],
      [
        22.2282,
        57.65752
      ],
      [
        22.22808,
        57.6575
      ],
      [
        22.22797,
        57.65747
      ],
      [
        22.22786,
        57.65744
      ],
      [
        22.22775,
        57.65742
      ],
      [
        22.22766,
        57.65738
      ],
      [
        22.22759,
        57.65735
      ],
      [
        22.22757,
        57.65735
      ],
      [
        22.22756,
        57.65734
      ]
    ]
  }
}