{
  "type": "Feature",
  "properties": {
    "id": "na-senda-do-paiv_e14h",
    "name": "Na Senda do Paivó",
    "distanceMeters": 4278.911881608126,
    "elevationGainM": 63,
    "elevationsM": [
      324.1,
      323.4,
      324.9,
      323.5,
      322.9,
      322.5,
      322.7,
      323.3,
      322.6,
      324.1,
      323.7,
      324,
      324.8,
      325.3,
      325,
      324.7,
      323.6,
      322.4,
      321.9,
      321.5,
      320.8,
      321.1,
      320.9,
      319.9,
      320.5,
      319.2,
      318.8,
      318.4,
      318.7,
      319.3,
      320.6,
      321,
      321.5,
      322.4,
      321.3,
      322,
      321.5,
      322.9,
      323.6,
      323.2,
      324.3,
      323.5,
      322.8,
      323.2,
      322.2,
      323.3,
      323.4,
      322.6,
      322.3,
      322.1,
      322.6,
      321.5,
      320.2,
      319.9,
      319.4,
      319.7,
      319.9,
      319.6,
      321,
      320.5,
      319.3,
      320,
      319.1,
      320.5,
      321.1,
      322.1,
      321.8,
      322.7,
      324.2,
      324.4,
      325.2,
      323.8,
      322.9,
      321.7,
      320.6,
      319.2,
      320.2,
      320.9,
      320.1,
      321,
      320.1,
      320.2,
      320.4,
      321,
      320.6,
      319.6,
      319.6,
      320.7,
      319.9,
      318.5,
      319.1,
      318.4,
      319.1,
      318.6,
      318.5,
      318.9,
      319.5,
      319.6,
      318.8,
      318.7,
      318.2,
      319.6,
      319.2,
      318.2,
      318.8,
      318.3,
      318.4,
      317.8,
      318.2,
      319.4,
      318.6,
      318.1,
      317.6,
      318.8,
      320.1,
      319.6,
      318.3,
      317.9,
      318,
      317.3,
      316.6,
      317.5,
      316.9,
      316.9,
      318.3,
      317,
      317.6,
      318,
      317.3,
      316.6,
      315.6,
      315.7,
      315.8,
      314.8,
      315.9,
      317.1,
      316,
      315.9,
      316.5,
      315.7,
      316.6,
      316,
      315.5,
      314.8,
      315.2,
      315,
      314.3,
      313.7,
      312.9,
      314,
      315.2,
      315.3,
      315,
      315,
      316.4,
      316.7,
      316.1,
      316.4,
      316.1,
      317.3,
      318.8,
      318,
      318,
      318.3,
      318.9,
      320,
      319.1,
      319.6,
      320.5,
      319.7,
      318.5,
      319.9,
      319.3,
      319.8,
      320.3,
      318.9,
      319.2,
      320.8,
      320.9,
      321.1,
      321.5,
      322.8,
      322
    ]
  },
  "geometry": {
    "type": "LineString",
    "coordinates": [
      [
        -8.133267,
        40.877534
      ],
      [
        -8.133349,
        40.877478
      ],
      [
        -8.133539,
        40.877424
      ],
      [
        -8.133617,
        40.87738
      ],
      [
        -8.134143,
        40.877173
      ],
      [
        -8.134173,
        40.877142
      ],
      [
        -8.134282,
        40.877145
      ],
      [
        -8.134339,
        40.87696
      ],
      [
        -8.134431,
        40.876806
      ],
      [
        -8.134479,
        40.87674
      ],
      [
        -8.134474,
        40.876713
      ],
      [
        -8.13458,
        40.876567
      ],
      [
        -8.134794,
        40.876475
      ],
      [
        -8.134785,
        40.876421
      ],
      [
        -8.134774,
        40.87651
      ],
      [
        -8.134744,
        40.876416
      ],
      [
        -8.134697,
        40.876428
      ],
      [
        -8.134555,
        40.876553
      ],
      [
        -8.134569,
        40.876457
      ],
      [
        -8.134355,
        40.8765
      ],
      [
        -8.134261,
        40.876475
      ],
      [
        -8.134235,
        40.876507
      ],
      [
        -8.134201,
        40.876553
      ],
      [
        -8.134213,
        40.876487
      ],
      [
        -8.134314,
        40.876357
      ],
      [
        -8.13435,
        40.876349
      ],
      [
        -8.134279,
        40.876288
      ],
      [
        -8.134351,
        40.87623
      ],
      [
        -8.134375,
        40.876072
      ],
      [
        -8.134552,
        40.876043
      ],
      [
        -8.134782,
        40.876025
      ],
      [
        -8.135008,
        40.87595
      ],
      [
        -8.135125,
        40.876053
      ],
      [
        -8.135135,
        40.876056
      ],
      [
        -8.135309,
        40.87605
      ],
      [
        -8.136346,
        40.875975
      ],
      [
        -8.136562,
        40.876011
      ],
      [
        -8.136653,
        40.876166
      ],
      [
        -8.136715,
        40.876172
      ],
      [
        -8.136834,
        40.876183
      ],
      [
        -8.136782,
        40.876183
      ],
      [
        -8.136971,
        40.876125
      ],
      [
        -8.137064,
        40.876136
      ],
      [
        -8.137157,
        40.876145
      ],
      [
        -8.137067,
        40.876242
      ],
      [
        -8.137051,
        40.876291
      ],
      [
        -8.137116,
        40.876427
      ],
      [
        -8.137222,
        40.876523
      ],
      [
        -8.137284,
        40.876469
      ],
      [
        -8.137282,
        40.876566
      ],
      [
        -8.137634,
        40.876366
      ],
      [
        -8.13773,
        40.8763
      ],
      [
        -8.13775,
        40.876418
      ],
      [
        -8.138154,
        40.876293
      ],
      [
        -8.13879,
        40.875895
      ],
      [
        -8.138989,
        40.875789
      ],
      [
        -8.13921,
        40.875945
      ],
      [
        -8.140313,
        40.876372
      ],
      [
        -8.140435,
        40.876296
      ],
      [
        -8.140561,
        40.876328
      ],
      [
        -8.140862,
        40.876477
      ],
      [
        -8.141032,
        40.87646
      ],
      [
        -8.141363,
        40.8764
      ],
      [
        -8.141651,
        40.876415
      ],
      [
        -8.141843,
        40.876401
      ],
      [
        -8.141978,
        40.876411
      ],
      [
        -8.142235,
        40.876567
      ],
      [
        -8.142434,
        40.876748
      ],
      [
        -8.142524,
        40.876978
      ],
      [
        -8.142665,
        40.877156
      ],
      [
        -8.142877,
        40.877325
      ],
      [
        -8.142969,
        40.877314
      ],
      [
        -8.143007,
        40.877381
      ],
      [
        -8.142966,
        40.877542
      ],
      [
        -8.143079,
        40.877577
      ],
      [
        -8.143156,
        40.877514
      ],
      [
        -8.143187,
        40.877638
      ],
      [
        -8.143527,
        40.877543
      ],
      [
        -8.143753,
        40.877365
      ],
      [
        -8.143894,
        40.877305
      ],
      [
        -8.143871,
        40.877245
      ],
      [
        -8.143973,
        40.877111
      ],
      [
        -8.144022,
        40.877121
      ],
      [
        -8.14417,
        40.876995
      ],
      [
        -8.144297,
        40.876875
      ],
      [
        -8.144602,
        40.876826
      ],
      [
        -8.144951,
        40.876708
      ],
      [
        -8.145281,
        40.876831
      ],
      [
        -8.145702,
        40.876826
      ],
      [
        -8.146371,
        40.876839
      ],
      [
        -8.146651,
        40.876865
      ],
      [
        -8.146884,
        40.876937
      ],
      [
        -8.147656,
        40.877037
      ],
      [
        -8.148832,
        40.877053
      ],
      [
        -8.149456,
        40.877196
      ],
      [
        -8.149863,
        40.877356
      ],
      [
        -8.150078,
        40.877632
      ],
      [
        -8.150577,
        40.877796
      ],
      [
        -8.150809,
        40.878041
      ],
      [
        -8.150645,
        40.878226
      ],
      [
        -8.15066,
        40.878323
      ],
      [
        -8.15068,
        40.878409
      ],
      [
        -8.150697,
        40.878356
      ],
      [
        -8.150843,
        40.878401
      ],
      [
        -8.151008,
        40.878464
      ],
      [
        -8.151228,
        40.878488
      ],
      [
        -8.151422,
        40.87856
      ],
      [
        -8.15216,
        40.879027
      ],
      [
        -8.152344,
        40.879173
      ],
      [
        -8.152569,
        40.87929
      ],
      [
        -8.152533,
        40.87955
      ],
      [
        -8.152423,
        40.87986
      ],
      [
        -8.152568,
        40.879932
      ],
      [
        -8.152682,
        40.880006
      ],
      [
        -8.153499,
        40.879979
      ],
      [
        -8.153855,
        40.879843
      ],
      [
        -8.154296,
        40.879836
      ],
      [
        -8.154375,
        40.879853
      ],
      [
        -8.154901,
        40.880341
      ],
      [
        -8.154811,
        40.880614
      ],
      [
        -8.154795,
        40.880583
      ],
      [
        -8.154826,
        40.880718
      ],
      [
        -8.155372,
        40.880939
      ],
      [
        -8.155433,
        40.881037
      ],
      [
        -8.155648,
        40.88152
      ],
      [
        -8.156087,
        40.881861
      ],
      [
        -8.15622,
        40.881992
      ],
      [
        -8.156286,
        40.882033
      ],
      [
        -8.157286,
        40.881803
      ],
      [
        -8.157385,
        40.881844
      ],
      [
        -8.157362,
        40.881879
      ],
      [
        -8.157493,
        40.881861
      ],
      [
        -8.157855,
        40.881685
      ],
      [
        -8.158042,
        40.881652
      ],
      [
        -8.158597,
        40.881345
      ],
      [
        -8.158737,
        40.881334
      ],
      [
        -8.159088,
        40.881103
      ],
      [
        -8.159452,
        40.88124
      ],
      [
        -8.159642,
        40.881252
      ],
      [
        -8.159695,
        40.881342
      ],
      [
        -8.159653,
        40.881205
      ],
      [
        -8.159589,
        40.88127
      ],
      [
        -8.159705,
        40.88113
      ],
      [
        -8.159661,
        40.881111
      ],
      [
        -8.159818,
        40.881201
      ],
      [
        -8.160352,
        40.881464
      ],
      [
        -8.160605,
        40.881756
      ],
      [
        -8.160686,
        40.881814
      ],
      [
        -8.161021,
        40.881836
      ],
      [
        -8.161996,
        40.88159
      ],
      [
        -8.162285,
        40.881511
      ],
      [
        -8.162392,
        40.88153
      ],
      [
        -8.162639,
        40.881679
      ],
      [
        -8.162594,
        40.881796
      ],
      [
        -8.162839,
        40.88202
      ],
      [
        -8.162977,
        40.882242
      ],
      [
        -8.163169,
        40.882655
      ],
      [
        -8.163452,
        40.88299
      ],
      [
        -8.163334,
        40.883203
      ],
      [
        -8.16312,
        40.883319
      ],
      [
        -8.1627,
        40.883412
      ],
      [
        -8.162509,
        40.8836
      ],
      [
        -8.162172,
        40.883993
      ],
      [
        -8.16199,
        40.884254
      ],
      [
        -8.161592,
        40.88441
      ],
      [
        -8.161606,
        40.884735
      ],
      [
        -8.161554,
        40.884741
      ],
      [
        -8.161381,
        40.884875
      ],
      [
        -8.161452,
        40.884873
      ],
      [
        -8.161399,
        40.885106
      ],
      [
        -8.161423,
        40.885158
      ],
      [
        -8.161407,
        40.885134
      ],
      [
        -8.161432,
        40.885135
      ],
      [
        -8.161468,
        40.885237
      ],
      [
        -8.162297,
        40.884917
      ],
      [
        -8.162355,
        40.884905
      ],
      [
        -8.162557,
        40.884862
      ],
      [
        -8.162792,
        40.884886
      ],
      [
        -8.162874,
        40.884873
      ],
      [
        -8.162911,
        40.884799
      ],
      [
        -8.163221,
        40.884782
      ],
      [
        -8.163493,
        40.884602
      ],
      [
        -8.16364,
        40.884628
      ]
    ]
  }
}