{
  "type": "Feature",
  "properties": {
    "id": "nossa-senhora-da-sa-de-por-caminhos-de-antigamen_dwem",
    "name": "À Nossa Senhora da Saúde por Caminhos de Antigamente",
    "distanceMeters": 7078.575236655217,
    "elevationGainM": 144,
    "elevationsM": [
      337.1,
      338.3,
      338,
      337.1,
      338.2,
      337,
      336.1,
      337.1,
      338.2,
      339.3,
      339.7,
      339.6,
      339.3,
      337.9,
      337.9,
      336.6,
      337.4,
      337.8,
      336.6,
      336.5,
      336.6,
      336.8,
      338.3,
      337,
      337.6,
      337,
      336.5,
      335.1,
      335.5,
      334.6,
      335.1,
      333.8,
      332.4,
      333.4,
      332.4,
      331.5,
      332.3,
      333.4,
      333.8,
      333.4,
      332.3,
      332,
      333.3,
      332.4,
      332.9,
      332.2,
      333.3,
      334.3,
      332.9,
      331.6,
      333,
      333.9,
      335.1,
      336.2,
      337.7,
      336.6,
      336.6,
      338.2,
      339.3,
      339.2,
      340.3,
      340.4,
      339,
      339.6,
      340.3,
      338.9,
      338.9,
      340.3,
      341.6,
      343.1,
      343.6,
      344.4,
      344,
      344.4,
      344,
      345.3,
      346.2,
      346.9,
      347.4,
      347,
      346.4,
      346.7,
      347.5,
      348.3,
      347.2,
      345.9,
      345.6,
      345.7,
      344.4,
      344.9,
      344.9,
      346.1,
      344.8,
      343.6,
      344.7,
      345.8,
      346.8,
      348.2,
      347.8,
      347,
      346.3,
      345.4,
      346.5,
      345.5,
      346.7,
      347.7,
      348.7,
      347.6,
      347.7,
      348.8,
      349.9,
      351.4,
      350.1,
      351.2,
      351.4,
      352.3,
      352.5,
      351.2,
      350.9,
      351.7,
      353.2,
      354.1,
      354.7,
      354.7,
      356.2,
      356,
      357.5,
      357.5,
      357.7,
      356.8,
      357.1,
      358.4,
      358.6,
      358.9,
      357.5,
      358.9,
      359.8,
      358.7,
      357.7,
      358.6,
      360.1,
      359.1,
      359.9,
      360.3,
      359,
      358,
      358.8,
      357.4,
      358.3,
      358.8,
      358.7,
      358.1,
      358.6,
      359.8,
      359.4,
      359.3,
      359.2,
      358.4,
      358.1,
      359.4,
      358.7,
      360,
      360.3,
      359.9,
      361.2,
      361.1,
      360.8,
      360.7,
      361.1,
      362.1,
      362.7,
      362.4,
      363.5,
      363.8,
      364,
      362.7,
      363.9,
      365.1,
      363.7,
      364.1,
      363.1,
      363.5,
      364.7,
      363.4,
      362.1,
      360.9,
      362,
      361.9,
      361.1,
      360.4,
      359.7,
      360.8,
      362.2,
      361.7,
      362.8,
      363.4,
      363,
      362.9,
      364,
      364.8,
      364.9,
      363.9,
      362.5,
      361.7,
      363,
      362.2,
      362.9,
      362.8,
      363.8,
      364.9,
      364.3,
      364.6,
      363.2,
      364.8,
      364.7,
      363.5,
      364.5,
      363.1,
      363.1,
      364.4,
      363.4,
      362.3,
      362.9,
      361.6,
      361,
      360.9,
      359.8,
      360.7,
      360.8,
      361.9,
      362.2,
      363.1,
      362.6,
      363.1,
      363.4,
      362.7,
      361.9,
      363.2,
      361.8,
      363.3,
      363.4,
      363.7,
      365.2,
      366.7,
      367.4,
      368.1,
      369.3,
      368.1,
      369.6,
      369.8,
      369.5,
      371,
      370.3,
      369.3,
      369.8,
      370.6,
      370.3,
      371.1,
      370.1,
      369.6,
      370.2,
      369.3,
      370.5,
      370.1,
      369.5,
      368.3,
      367.2,
      368.4,
      367.1,
      368.3,
      368.4,
      367.1,
      367.4,
      366.7,
      366.6,
      367.2,
      366.4,
      366.9,
      366.7,
      366.4,
      366.1,
      367.3,
      368.6,
      367.2,
      366.2,
      365.1,
      366,
      367.5,
      367,
      366.6,
      365.6,
      367.2,
      368.5,
      369.7,
      368.4,
      369.7,
      371.2,
      370,
      371.2,
      371.5,
      371.3,
      371.3,
      371.9,
      371.2,
      372.4,
      373.4,
      373.5,
      372.9,
      373
    ]
  },
  "geometry": {
    "type": "LineString",
    "coordinates": [
      [
        -8.381207,
        40.800913
      ],
      [
        -8.381352,
        40.800892
      ],
      [
        -8.381663,
        40.800888
      ],
      [
        -8.381839,
        40.801013
      ],
      [
        -8.382089,
        40.801232
      ],
      [
        -8.382064,
        40.801176
      ],
      [
        -8.382113,
        40.801354
      ],
      [
        -8.382178,
        40.801257
      ],
      [
        -8.382216,
        40.80149
      ],
      [
        -8.382531,
        40.80142
      ],
      [
        -8.382621,
        40.801696
      ],
      [
        -8.382842,
        40.801614
      ],
      [
        -8.38324,
        40.801929
      ],
      [
        -8.383478,
        40.802003
      ],
      [
        -8.38369,
        40.801906
      ],
      [
        -8.383952,
        40.801842
      ],
      [
        -8.384231,
        40.801901
      ],
      [
        -8.384507,
        40.80151
      ],
      [
        -8.384675,
        40.801206
      ],
      [
        -8.384549,
        40.800944
      ],
      [
        -8.384818,
        40.800555
      ],
      [
        -8.385255,
        40.800528
      ],
      [
        -8.384596,
        40.801035
      ],
      [
        -8.384646,
        40.801179
      ],
      [
        -8.384913,
        40.801265
      ],
      [
        -8.384806,
        40.801351
      ],
      [
        -8.384953,
        40.801869
      ],
      [
        -8.384655,
        40.802022
      ],
      [
        -8.384499,
        40.802356
      ],
      [
        -8.384248,
        40.802468
      ],
      [
        -8.38421,
        40.802638
      ],
      [
        -8.38392,
        40.802773
      ],
      [
        -8.383504,
        40.8031
      ],
      [
        -8.383436,
        40.803507
      ],
      [
        -8.383273,
        40.803767
      ],
      [
        -8.382888,
        40.803912
      ],
      [
        -8.382839,
        40.804186
      ],
      [
        -8.382795,
        40.804077
      ],
      [
        -8.382502,
        40.804069
      ],
      [
        -8.382337,
        40.804157
      ],
      [
        -8.382047,
        40.80413
      ],
      [
        -8.381766,
        40.804011
      ],
      [
        -8.381505,
        40.804029
      ],
      [
        -8.381386,
        40.804075
      ],
      [
        -8.381267,
        40.804304
      ],
      [
        -8.381128,
        40.804713
      ],
      [
        -8.380876,
        40.804772
      ],
      [
        -8.380798,
        40.805106
      ],
      [
        -8.380685,
        40.805471
      ],
      [
        -8.380565,
        40.805532
      ],
      [
        -8.380529,
        40.805667
      ],
      [
        -8.380536,
        40.80584
      ],
      [
        -8.38067,
        40.805997
      ],
      [
        -8.38038,
        40.806175
      ],
      [
        -8.38044,
        40.806396
      ],
      [
        -8.380589,
        40.806404
      ],
      [
        -8.380344,
        40.80674
      ],
      [
        -8.380231,
        40.8069
      ],
      [
        -8.379987,
        40.806972
      ],
      [
        -8.380069,
        40.807224
      ],
      [
        -8.380058,
        40.807475
      ],
      [
        -8.380083,
        40.807529
      ],
      [
        -8.379946,
        40.807836
      ],
      [
        -8.37997,
        40.807841
      ],
      [
        -8.379856,
        40.807874
      ],
      [
        -8.379808,
        40.80799
      ],
      [
        -8.379646,
        40.808136
      ],
      [
        -8.379556,
        40.808394
      ],
      [
        -8.37951,
        40.808549
      ],
      [
        -8.379206,
        40.808661
      ],
      [
        -8.37912,
        40.808701
      ],
      [
        -8.379001,
        40.808895
      ],
      [
        -8.379128,
        40.808882
      ],
      [
        -8.379335,
        40.808885
      ],
      [
        -8.379663,
        40.809128
      ],
      [
        -8.3798,
        40.808941
      ],
      [
        -8.379766,
        40.809068
      ],
      [
        -8.379906,
        40.808943
      ],
      [
        -8.380234,
        40.809004
      ],
      [
        -8.380427,
        40.808765
      ],
      [
        -8.380576,
        40.808718
      ],
      [
        -8.380618,
        40.8087
      ],
      [
        -8.38078,
        40.808506
      ],
      [
        -8.38086,
        40.808421
      ],
      [
        -8.380879,
        40.808353
      ],
      [
        -8.381002,
        40.808539
      ],
      [
        -8.381463,
        40.808272
      ],
      [
        -8.381739,
        40.808312
      ],
      [
        -8.381775,
        40.808217
      ],
      [
        -8.381986,
        40.808252
      ],
      [
        -8.382096,
        40.808066
      ],
      [
        -8.382115,
        40.808084
      ],
      [
        -8.382555,
        40.808109
      ],
      [
        -8.382717,
        40.807801
      ],
      [
        -8.382671,
        40.80784
      ],
      [
        -8.382828,
        40.80776
      ],
      [
        -8.383145,
        40.807903
      ],
      [
        -8.383145,
        40.808135
      ],
      [
        -8.383343,
        40.808151
      ],
      [
        -8.383532,
        40.808265
      ],
      [
        -8.383855,
        40.808464
      ],
      [
        -8.38403,
        40.808495
      ],
      [
        -8.38465,
        40.808835
      ],
      [
        -8.384716,
        40.808887
      ],
      [
        -8.385109,
        40.809218
      ],
      [
        -8.38524,
        40.809412
      ],
      [
        -8.3853,
        40.809398
      ],
      [
        -8.385083,
        40.809665
      ],
      [
        -8.385292,
        40.809969
      ],
      [
        -8.385051,
        40.810232
      ],
      [
        -8.385036,
        40.810648
      ],
      [
        -8.385205,
        40.811012
      ],
      [
        -8.385053,
        40.811108
      ],
      [
        -8.384911,
        40.811258
      ],
      [
        -8.384653,
        40.81143
      ],
      [
        -8.384758,
        40.811628
      ],
      [
        -8.384703,
        40.811826
      ],
      [
        -8.384847,
        40.811899
      ],
      [
        -8.385033,
        40.812012
      ],
      [
        -8.385183,
        40.81225
      ],
      [
        -8.385391,
        40.812461
      ],
      [
        -8.385303,
        40.812659
      ],
      [
        -8.38542,
        40.812791
      ],
      [
        -8.385709,
        40.813026
      ],
      [
        -8.38561,
        40.813413
      ],
      [
        -8.385384,
        40.813572
      ],
      [
        -8.385297,
        40.813872
      ],
      [
        -8.385356,
        40.813853
      ],
      [
        -8.385514,
        40.813956
      ],
      [
        -8.385418,
        40.813958
      ],
      [
        -8.385387,
        40.814009
      ],
      [
        -8.38559,
        40.814063
      ],
      [
        -8.385607,
        40.81404
      ],
      [
        -8.385425,
        40.814308
      ],
      [
        -8.385472,
        40.814159
      ],
      [
        -8.385614,
        40.814257
      ],
      [
        -8.385666,
        40.814432
      ],
      [
        -8.385721,
        40.814368
      ],
      [
        -8.385507,
        40.814545
      ],
      [
        -8.385581,
        40.814415
      ],
      [
        -8.385713,
        40.81461
      ],
      [
        -8.385608,
        40.814762
      ],
      [
        -8.385598,
        40.81478
      ],
      [
        -8.385566,
        40.814891
      ],
      [
        -8.385548,
        40.815005
      ],
      [
        -8.385332,
        40.814911
      ],
      [
        -8.385376,
        40.815136
      ],
      [
        -8.385312,
        40.815085
      ],
      [
        -8.385338,
        40.815107
      ],
      [
        -8.385101,
        40.815341
      ],
      [
        -8.385247,
        40.815247
      ],
      [
        -8.38501,
        40.815317
      ],
      [
        -8.384921,
        40.815393
      ],
      [
        -8.384814,
        40.815261
      ],
      [
        -8.384869,
        40.815441
      ],
      [
        -8.384762,
        40.815312
      ],
      [
        -8.384703,
        40.815446
      ],
      [
        -8.38474,
        40.81534
      ],
      [
        -8.384766,
        40.815374
      ],
      [
        -8.38466,
        40.815485
      ],
      [
        -8.384599,
        40.815665
      ],
      [
        -8.384657,
        40.815824
      ],
      [
        -8.384622,
        40.815741
      ],
      [
        -8.384742,
        40.815859
      ],
      [
        -8.384693,
        40.815672
      ],
      [
        -8.384737,
        40.815983
      ],
      [
        -8.384675,
        40.815901
      ],
      [
        -8.384907,
        40.815856
      ],
      [
        -8.384905,
        40.81646
      ],
      [
        -8.384726,
        40.816454
      ],
      [
        -8.384826,
        40.816414
      ],
      [
        -8.38497,
        40.816464
      ],
      [
        -8.385131,
        40.816316
      ],
      [
        -8.384995,
        40.816314
      ],
      [
        -8.38518,
        40.816415
      ],
      [
        -8.385261,
        40.816474
      ],
      [
        -8.385246,
        40.816566
      ],
      [
        -8.385258,
        40.816796
      ],
      [
        -8.385286,
        40.816648
      ],
      [
        -8.385161,
        40.816739
      ],
      [
        -8.385349,
        40.816861
      ],
      [
        -8.385153,
        40.816971
      ],
      [
        -8.385306,
        40.816925
      ],
      [
        -8.385254,
        40.817155
      ],
      [
        -8.385324,
        40.817164
      ],
      [
        -8.38519,
        40.817034
      ],
      [
        -8.385247,
        40.817321
      ],
      [
        -8.38532,
        40.817358
      ],
      [
        -8.385324,
        40.817211
      ],
      [
        -8.385356,
        40.817512
      ],
      [
        -8.385447,
        40.817476
      ],
      [
        -8.385572,
        40.817484
      ],
      [
        -8.385443,
        40.817646
      ],
      [
        -8.385646,
        40.817506
      ],
      [
        -8.385602,
        40.817663
      ],
      [
        -8.385761,
        40.817643
      ],
      [
        -8.385919,
        40.817772
      ],
      [
        -8.385844,
        40.817794
      ],
      [
        -8.385877,
        40.817795
      ],
      [
        -8.385964,
        40.817716
      ],
      [
        -8.385837,
        40.817763
      ],
      [
        -8.386094,
        40.817838
      ],
      [
        -8.385914,
        40.818019
      ],
      [
        -8.386143,
        40.818044
      ],
      [
        -8.386136,
        40.818094
      ],
      [
        -8.386125,
        40.818103
      ],
      [
        -8.386385,
        40.817998
      ],
      [
        -8.386297,
        40.817985
      ],
      [
        -8.386491,
        40.817963
      ],
      [
        -8.386628,
        40.81806
      ],
      [
        -8.386714,
        40.81813
      ],
      [
        -8.386898,
        40.818028
      ],
      [
        -8.386812,
        40.818109
      ],
      [
        -8.386966,
        40.818217
      ],
      [
        -8.386932,
        40.818133
      ],
      [
        -8.386865,
        40.817867
      ],
      [
        -8.387046,
        40.818044
      ],
      [
        -8.386899,
        40.817761
      ],
      [
        -8.386853,
        40.817731
      ],
      [
        -8.387081,
        40.817934
      ],
      [
        -8.387243,
        40.817996
      ],
      [
        -8.387176,
        40.817881
      ],
      [
        -8.387378,
        40.818049
      ],
      [
        -8.387502,
        40.818013
      ],
      [
        -8.387489,
        40.818113
      ],
      [
        -8.387735,
        40.818362
      ],
      [
        -8.387596,
        40.818487
      ],
      [
        -8.387668,
        40.818623
      ],
      [
        -8.387605,
        40.81891
      ],
      [
        -8.387438,
        40.818877
      ],
      [
        -8.387582,
        40.819214
      ],
      [
        -8.387714,
        40.819074
      ],
      [
        -8.387678,
        40.819304
      ],
      [
        -8.387819,
        40.819368
      ],
      [
        -8.387884,
        40.819495
      ],
      [
        -8.387804,
        40.819601
      ],
      [
        -8.387942,
        40.819647
      ],
      [
        -8.388078,
        40.819812
      ],
      [
        -8.388084,
        40.819839
      ],
      [
        -8.388203,
        40.819723
      ],
      [
        -8.388339,
        40.82006
      ],
      [
        -8.388494,
        40.819934
      ],
      [
        -8.388458,
        40.820218
      ],
      [
        -8.388685,
        40.820045
      ],
      [
        -8.388665,
        40.820226
      ],
      [
        -8.388994,
        40.820213
      ],
      [
        -8.388902,
        40.820359
      ],
      [
        -8.389028,
        40.820138
      ],
      [
        -8.389198,
        40.820227
      ],
      [
        -8.389116,
        40.820281
      ],
      [
        -8.389252,
        40.82028
      ],
      [
        -8.389428,
        40.820317
      ],
      [
        -8.389548,
        40.820392
      ],
      [
        -8.389708,
        40.820457
      ],
      [
        -8.389699,
        40.820404
      ],
      [
        -8.390031,
        40.820608
      ],
      [
        -8.390138,
        40.820836
      ],
      [
        -8.390442,
        40.821029
      ],
      [
        -8.390535,
        40.821301
      ],
      [
        -8.390535,
        40.821371
      ],
      [
        -8.39085,
        40.82133
      ],
      [
        -8.390826,
        40.82129
      ],
      [
        -8.391154,
        40.82155
      ],
      [
        -8.391327,
        40.821639
      ],
      [
        -8.391577,
        40.821901
      ],
      [
        -8.39165,
        40.822141
      ],
      [
        -8.392042,
        40.822474
      ],
      [
        -8.392059,
        40.822824
      ],
      [
        -8.392045,
        40.822845
      ],
      [
        -8.392059,
        40.822969
      ],
      [
        -8.392079,
        40.823046
      ],
      [
        -8.392269,
        40.823348
      ],
      [
        -8.392102,
        40.823464
      ],
      [
        -8.392176,
        40.82374
      ],
      [
        -8.392371,
        40.824001
      ],
      [
        -8.392332,
        40.823914
      ],
      [
        -8.392113,
        40.824037
      ],
      [
        -8.39227,
        40.824097
      ],
      [
        -8.392115,
        40.82413
      ],
      [
        -8.391952,
        40.823894
      ],
      [
        -8.391667,
        40.823895
      ],
      [
        -8.391471,
        40.823953
      ],
      [
        -8.391664,
        40.823894
      ],
      [
        -8.391941,
        40.823995
      ],
      [
        -8.39195,
        40.824152
      ],
      [
        -8.392043,
        40.824151
      ],
      [
        -8.391948,
        40.824228
      ],
      [
        -8.392201,
        40.824375
      ],
      [
        -8.392335,
        40.824503
      ],
      [
        -8.392425,
        40.824501
      ],
      [
        -8.392445,
        40.824602
      ],
      [
        -8.39247,
        40.824679
      ],
      [
        -8.392362,
        40.824904
      ],
      [
        -8.392331,
        40.824774
      ],
      [
        -8.392418,
        40.825212
      ],
      [
        -8.392556,
        40.825354
      ],
      [
        -8.393402,
        40.825497
      ],
      [
        -8.394403,
        40.825431
      ],
      [
        -8.394993,
        40.82569
      ],
      [
        -8.395781,
        40.826238
      ],
      [
        -8.396033,
        40.826812
      ],
      [
        -8.396788,
        40.827879
      ],
      [
        -8.396814,
        40.828193
      ],
      [
        -8.396681,
        40.828234
      ],
      [
        -8.397041,
        40.828501
      ],
      [
        -8.39722,
        40.828404
      ],
      [
        -8.397295,
        40.828424
      ],
      [
        -8.397347,
        40.828258
      ],
      [
        -8.397378,
        40.828372
      ]
    ]
  }
}