{
  "type": "Feature",
  "properties": {
    "id": "pr6-svv-trilho-dos-amiais_dwlm",
    "name": "PR6 SVV - Trilho dos Amiais",
    "distanceMeters": 5433.692069388366,
    "elevationGainM": 296,
    "elevationsM": [
      230.84865,
      231.55913,
      231.36224,
      231.44282,
      235.68484,
      235.85516,
      235.39454,
      233.43902,
      227.74234,
      222.95015,
      219.68876,
      217.65517,
      217.2707,
      218.0633,
      215.31088,
      212.47351,
      209.23564,
      204.05834,
      191.2361,
      159.46316,
      172.17694,
      175.30179,
      173.73361,
      176.08059,
      178.74965,
      187.79787,
      200.87909,
      205.43768,
      209.20578,
      209.83698,
      205.65981,
      200.05404,
      195.55857,
      193.97829,
      193.66149,
      194.63643,
      197.10706,
      199.07842,
      202.8001,
      206.06336,
      206.82081,
      205.77434,
      202.15812,
      199.03575,
      197.88034,
      199.34389,
      200.11414,
      201.03017,
      202.45093,
      204.01683,
      207.84011,
      209.99023,
      211.46398,
      212.60912,
      213.32041,
      214.71988,
      215.23801,
      214.91056,
      214.94279,
      217.79045,
      218.59236,
      218.46469,
      219.12477,
      216.84231,
      212.34328,
      210.25568,
      209.75833,
      212.51287,
      213.20114,
      214.55188,
      217.85153,
      217.46958,
      215.10748,
      211.23273,
      208.72417,
      207.62,
      208.44748,
      207.29683,
      205.7426,
      204.11678,
      201.31894,
      196.06995,
      192.19265,
      190.16413,
      189.48384,
      188.41449,
      185.4216,
      183.1154,
      182.96321,
      184.58537,
      183.46151,
      181.4176,
      179.18925,
      177.49211,
      176.57706,
      177.76484,
      178.18558,
      176.96183,
      176.54574,
      176.68298,
      176.79886,
      176.92793,
      176.09134,
      175.46955,
      174.85711,
      173.00913,
      171.40949,
      172.13771,
      171.86371,
      174.91027,
      164.42604,
      151.90988,
      133.46785,
      128.75423,
      126.72887,
      125.06067,
      123.80801,
      123.26652,
      123.37835,
      126.39947,
      126.86438,
      127.56878,
      127.08886,
      125.09362,
      125.01394,
      125.46754,
      124.60933,
      122.37228,
      121.28912,
      120.06622,
      119.75064,
      119.87788,
      120.29511,
      120.14639,
      120.36821,
      120.27949,
      120.75483,
      121.55186,
      121.90727,
      121.59285,
      121.26727,
      122.13185,
      124.35697,
      124.57919,
      125.46607,
      127.736,
      129.93595,
      131.24671,
      130.56487,
      127.68753,
      129.38204,
      129.85004,
      129.29006,
      127.95172,
      128.83329,
      129.38287,
      129.64724,
      130.97745,
      134.44155,
      135.57022,
      136.7793,
      141.2379,
      143.22684,
      147.81251,
      151.16586,
      157.53154,
      164.04442,
      165.78653,
      166.54512,
      166.51315,
      168.16384,
      169.10645,
      170.8005,
      175.3453,
      180.5148,
      185.45634,
      188.16201,
      190.33526,
      192.69533,
      195.17413,
      196.33715,
      197.86488,
      198.67562,
      199.22881,
      199.52659,
      195.80991,
      195.12215,
      194.37832,
      193.55633,
      192.65473,
      193.14594,
      194.84077,
      197.18629,
      198.57377,
      200.16489,
      201.96355,
      202.59396,
      203.90105,
      205.39936,
      207.67767,
      210.19943,
      211.65602,
      214.92283,
      218.87213,
      222.21693,
      226.60613,
      229.913,
      231.1863,
      232.66107,
      233.26335,
      233.44302,
      234.57337,
      236.74427,
      238.43207,
      239.60329,
      240.4164,
      241.33363,
      242.93911,
      244.72613,
      251.70294,
      252.78343,
      252.76454,
      251.93201,
      250.25614,
      249.46413,
      249.46172,
      251.78996,
      253.12557,
      254.53955,
      256.68373,
      257.89353,
      258.5916,
      260.05204,
      262.37136,
      263.81529,
      265.88558,
      269.32655,
      269.53974,
      270.03561,
      271.48498,
      271.44541,
      270.85958,
      271.6015,
      272.45222,
      273.57751,
      274.08923,
      274.44472,
      281.16532,
      281.04015,
      281.24849,
      282.06585,
      282.99334,
      282.93682,
      282.71487,
      281.74384,
      278.38078,
      277.42475,
      273.65507,
      271.08533,
      267.75191,
      264.78327,
      262.58663,
      260.92269,
      257.32798,
      256.20729,
      255.52735,
      253.87331,
      252.6152,
      250.46069,
      248.33893,
      247.29652,
      246.49205,
      244.28501,
      241.85412,
      240.3302,
      236.73268,
      232.79375,
      229.73015,
      229.96447,
      231.01539,
      230.85462
    ]
  },
  "geometry": {
    "type": "LineString",
    "coordinates": [
      [
        -8.310927,
        40.752801
      ],
      [
        -8.311097,
        40.752661
      ],
      [
        -8.311265,
        40.752571
      ],
      [
        -8.311579,
        40.752487
      ],
      [
        -8.312027,
        40.752346
      ],
      [
        -8.312046,
        40.752305
      ],
      [
        -8.312043,
        40.752205
      ],
      [
        -8.312029,
        40.751932
      ],
      [
        -8.312096,
        40.751732
      ],
      [
        -8.312181,
        40.751605
      ],
      [
        -8.312298,
        40.751536
      ],
      [
        -8.312431,
        40.751504
      ],
      [
        -8.312556,
        40.75153
      ],
      [
        -8.312666,
        40.751594
      ],
      [
        -8.313101,
        40.751729
      ],
      [
        -8.313356,
        40.751814
      ],
      [
        -8.313565,
        40.75188
      ],
      [
        -8.313715,
        40.751813
      ],
      [
        -8.314129,
        40.75161
      ],
      [
        -8.31503,
        40.751101
      ],
      [
        -8.315332,
        40.75092
      ],
      [
        -8.315369,
        40.750724
      ],
      [
        -8.315332,
        40.750301
      ],
      [
        -8.31531,
        40.749957
      ],
      [
        -8.315298,
        40.74973
      ],
      [
        -8.315481,
        40.749701
      ],
      [
        -8.315923,
        40.749648
      ],
      [
        -8.3162,
        40.749613
      ],
      [
        -8.316392,
        40.74956
      ],
      [
        -8.316473,
        40.749484
      ],
      [
        -8.316385,
        40.749376
      ],
      [
        -8.316187,
        40.749244
      ],
      [
        -8.315944,
        40.749226
      ],
      [
        -8.315879,
        40.749188
      ],
      [
        -8.315902,
        40.749099
      ],
      [
        -8.315986,
        40.749025
      ],
      [
        -8.316184,
        40.74899
      ],
      [
        -8.316361,
        40.748994
      ],
      [
        -8.316557,
        40.749028
      ],
      [
        -8.316709,
        40.749047
      ],
      [
        -8.316759,
        40.749022
      ],
      [
        -8.316796,
        40.748911
      ],
      [
        -8.316805,
        40.748746
      ],
      [
        -8.316862,
        40.748606
      ],
      [
        -8.316931,
        40.748547
      ],
      [
        -8.317044,
        40.748567
      ],
      [
        -8.317194,
        40.74856
      ],
      [
        -8.317402,
        40.748525
      ],
      [
        -8.317606,
        40.748492
      ],
      [
        -8.317727,
        40.748491
      ],
      [
        -8.317977,
        40.74852
      ],
      [
        -8.318165,
        40.748547
      ],
      [
        -8.318333,
        40.748577
      ],
      [
        -8.318447,
        40.748651
      ],
      [
        -8.318597,
        40.748689
      ],
      [
        -8.318717,
        40.748684
      ],
      [
        -8.31876,
        40.748639
      ],
      [
        -8.318747,
        40.748549
      ],
      [
        -8.318688,
        40.748367
      ],
      [
        -8.318628,
        40.748227
      ],
      [
        -8.318562,
        40.748175
      ],
      [
        -8.318439,
        40.748108
      ],
      [
        -8.318336,
        40.747959
      ],
      [
        -8.318247,
        40.747897
      ],
      [
        -8.31812,
        40.74783
      ],
      [
        -8.318063,
        40.747792
      ],
      [
        -8.318054,
        40.747707
      ],
      [
        -8.318169,
        40.747574
      ],
      [
        -8.318315,
        40.747395
      ],
      [
        -8.318451,
        40.747262
      ],
      [
        -8.318604,
        40.747148
      ],
      [
        -8.318509,
        40.746988
      ],
      [
        -8.318355,
        40.746908
      ],
      [
        -8.318228,
        40.746888
      ],
      [
        -8.318135,
        40.74685
      ],
      [
        -8.318003,
        40.746762
      ],
      [
        -8.317902,
        40.74664
      ],
      [
        -8.31782,
        40.746516
      ],
      [
        -8.317768,
        40.746465
      ],
      [
        -8.317742,
        40.746586
      ],
      [
        -8.317725,
        40.746695
      ],
      [
        -8.317673,
        40.746791
      ],
      [
        -8.317616,
        40.746865
      ],
      [
        -8.317629,
        40.746954
      ],
      [
        -8.317714,
        40.747101
      ],
      [
        -8.317685,
        40.747164
      ],
      [
        -8.31758,
        40.747189
      ],
      [
        -8.317486,
        40.747171
      ],
      [
        -8.317445,
        40.747113
      ],
      [
        -8.317397,
        40.746946
      ],
      [
        -8.317315,
        40.746819
      ],
      [
        -8.31717,
        40.746672
      ],
      [
        -8.317028,
        40.746604
      ],
      [
        -8.316916,
        40.746539
      ],
      [
        -8.31684,
        40.746481
      ],
      [
        -8.316815,
        40.746346
      ],
      [
        -8.316775,
        40.746187
      ],
      [
        -8.316586,
        40.74595
      ],
      [
        -8.316378,
        40.745703
      ],
      [
        -8.316309,
        40.745667
      ],
      [
        -8.316183,
        40.745717
      ],
      [
        -8.316066,
        40.745595
      ],
      [
        -8.315971,
        40.745471
      ],
      [
        -8.315912,
        40.745415
      ],
      [
        -8.315842,
        40.74537
      ],
      [
        -8.315644,
        40.745296
      ],
      [
        -8.315465,
        40.745106
      ],
      [
        -8.315127,
        40.744808
      ],
      [
        -8.315105,
        40.744829
      ],
      [
        -8.315865,
        40.74565
      ],
      [
        -8.316091,
        40.746135
      ],
      [
        -8.316258,
        40.746688
      ],
      [
        -8.315382,
        40.746938
      ],
      [
        -8.315011,
        40.746803
      ],
      [
        -8.31462,
        40.746734
      ],
      [
        -8.314321,
        40.746784
      ],
      [
        -8.314141,
        40.746851
      ],
      [
        -8.31402,
        40.746867
      ],
      [
        -8.313945,
        40.74684
      ],
      [
        -8.313432,
        40.746452
      ],
      [
        -8.313341,
        40.746448
      ],
      [
        -8.313116,
        40.746421
      ],
      [
        -8.313007,
        40.74639
      ],
      [
        -8.312806,
        40.74631
      ],
      [
        -8.312687,
        40.746311
      ],
      [
        -8.312566,
        40.746332
      ],
      [
        -8.31242,
        40.746315
      ],
      [
        -8.312205,
        40.746269
      ],
      [
        -8.311976,
        40.746262
      ],
      [
        -8.311794,
        40.746304
      ],
      [
        -8.311711,
        40.746346
      ],
      [
        -8.311491,
        40.746625
      ],
      [
        -8.31138,
        40.746771
      ],
      [
        -8.311295,
        40.74681
      ],
      [
        -8.311107,
        40.746897
      ],
      [
        -8.310907,
        40.746948
      ],
      [
        -8.310857,
        40.747014
      ],
      [
        -8.310862,
        40.74712
      ],
      [
        -8.310825,
        40.747213
      ],
      [
        -8.310684,
        40.7473
      ],
      [
        -8.310642,
        40.747401
      ],
      [
        -8.310645,
        40.747564
      ],
      [
        -8.310659,
        40.747716
      ],
      [
        -8.310462,
        40.747775
      ],
      [
        -8.310164,
        40.747848
      ],
      [
        -8.309884,
        40.747888
      ],
      [
        -8.309684,
        40.747888
      ],
      [
        -8.309503,
        40.747845
      ],
      [
        -8.309376,
        40.747747
      ],
      [
        -8.309314,
        40.747612
      ],
      [
        -8.30913,
        40.747549
      ],
      [
        -8.30889,
        40.747442
      ],
      [
        -8.308442,
        40.747269
      ],
      [
        -8.308087,
        40.74719
      ],
      [
        -8.307913,
        40.747214
      ],
      [
        -8.307721,
        40.747239
      ],
      [
        -8.307258,
        40.74721
      ],
      [
        -8.3071,
        40.747249
      ],
      [
        -8.306861,
        40.747411
      ],
      [
        -8.306813,
        40.747471
      ],
      [
        -8.306805,
        40.747533
      ],
      [
        -8.306898,
        40.747716
      ],
      [
        -8.306898,
        40.7478
      ],
      [
        -8.306694,
        40.748036
      ],
      [
        -8.306846,
        40.748203
      ],
      [
        -8.307133,
        40.748421
      ],
      [
        -8.307426,
        40.748697
      ],
      [
        -8.307556,
        40.748801
      ],
      [
        -8.307286,
        40.749102
      ],
      [
        -8.307332,
        40.749359
      ],
      [
        -8.307604,
        40.749782
      ],
      [
        -8.307836,
        40.750151
      ],
      [
        -8.307582,
        40.75041
      ],
      [
        -8.307497,
        40.750568
      ],
      [
        -8.307452,
        40.75076
      ],
      [
        -8.307212,
        40.751066
      ],
      [
        -8.307363,
        40.751211
      ],
      [
        -8.307421,
        40.751318
      ],
      [
        -8.307388,
        40.751446
      ],
      [
        -8.307251,
        40.751614
      ],
      [
        -8.307122,
        40.751725
      ],
      [
        -8.306909,
        40.751851
      ],
      [
        -8.306736,
        40.75192
      ],
      [
        -8.306571,
        40.751964
      ],
      [
        -8.306466,
        40.751984
      ],
      [
        -8.306381,
        40.751873
      ],
      [
        -8.306328,
        40.751859
      ],
      [
        -8.306196,
        40.751859
      ],
      [
        -8.30596,
        40.751907
      ],
      [
        -8.305824,
        40.751933
      ],
      [
        -8.305746,
        40.751994
      ],
      [
        -8.305718,
        40.752089
      ],
      [
        -8.305724,
        40.752208
      ],
      [
        -8.305786,
        40.752237
      ],
      [
        -8.305899,
        40.752233
      ],
      [
        -8.306113,
        40.752173
      ],
      [
        -8.306266,
        40.752133
      ],
      [
        -8.306351,
        40.752153
      ],
      [
        -8.306399,
        40.752194
      ],
      [
        -8.30638,
        40.752303
      ],
      [
        -8.306339,
        40.752484
      ],
      [
        -8.306352,
        40.752643
      ],
      [
        -8.306525,
        40.752775
      ],
      [
        -8.306688,
        40.752889
      ],
      [
        -8.306893,
        40.752973
      ],
      [
        -8.307217,
        40.753039
      ],
      [
        -8.307421,
        40.753113
      ],
      [
        -8.307544,
        40.753135
      ],
      [
        -8.30755,
        40.753195
      ],
      [
        -8.307389,
        40.753257
      ],
      [
        -8.307289,
        40.753291
      ],
      [
        -8.30734,
        40.753317
      ],
      [
        -8.307486,
        40.753361
      ],
      [
        -8.307609,
        40.7534
      ],
      [
        -8.307857,
        40.753417
      ],
      [
        -8.308018,
        40.753429
      ],
      [
        -8.308084,
        40.753464
      ],
      [
        -8.308084,
        40.753529
      ],
      [
        -8.308024,
        40.753596
      ],
      [
        -8.308112,
        40.753973
      ],
      [
        -8.308218,
        40.754179
      ],
      [
        -8.308294,
        40.754239
      ],
      [
        -8.308366,
        40.754245
      ],
      [
        -8.308573,
        40.754292
      ],
      [
        -8.308665,
        40.754299
      ],
      [
        -8.308714,
        40.754327
      ],
      [
        -8.30873,
        40.754513
      ],
      [
        -8.308733,
        40.754636
      ],
      [
        -8.308782,
        40.754815
      ],
      [
        -8.308773,
        40.755038
      ],
      [
        -8.308727,
        40.755139
      ],
      [
        -8.308668,
        40.75518
      ],
      [
        -8.308524,
        40.755255
      ],
      [
        -8.308357,
        40.755409
      ],
      [
        -8.308292,
        40.755535
      ],
      [
        -8.308292,
        40.755825
      ],
      [
        -8.308306,
        40.756214
      ],
      [
        -8.308262,
        40.756329
      ],
      [
        -8.30817,
        40.756397
      ],
      [
        -8.307945,
        40.756484
      ],
      [
        -8.307783,
        40.756473
      ],
      [
        -8.307532,
        40.756473
      ],
      [
        -8.307349,
        40.756517
      ],
      [
        -8.307247,
        40.756558
      ],
      [
        -8.307053,
        40.756643
      ],
      [
        -8.306901,
        40.756771
      ],
      [
        -8.306856,
        40.75687
      ],
      [
        -8.307044,
        40.757236
      ],
      [
        -8.307066,
        40.757386
      ],
      [
        -8.307109,
        40.757442
      ],
      [
        -8.307524,
        40.757516
      ],
      [
        -8.307695,
        40.757567
      ],
      [
        -8.307716,
        40.757516
      ],
      [
        -8.307791,
        40.757419
      ],
      [
        -8.307934,
        40.757358
      ],
      [
        -8.30855,
        40.757254
      ],
      [
        -8.30861,
        40.757164
      ],
      [
        -8.308934,
        40.756932
      ],
      [
        -8.309152,
        40.756816
      ],
      [
        -8.309485,
        40.756579
      ],
      [
        -8.309932,
        40.756219
      ],
      [
        -8.31022,
        40.756015
      ],
      [
        -8.310337,
        40.755878
      ],
      [
        -8.310546,
        40.755592
      ],
      [
        -8.310581,
        40.755467
      ],
      [
        -8.310529,
        40.755339
      ],
      [
        -8.310434,
        40.755105
      ],
      [
        -8.310455,
        40.754984
      ],
      [
        -8.310427,
        40.754842
      ],
      [
        -8.310407,
        40.754692
      ],
      [
        -8.310515,
        40.754583
      ],
      [
        -8.310654,
        40.754424
      ],
      [
        -8.310844,
        40.754119
      ],
      [
        -8.310907,
        40.753955
      ],
      [
        -8.310903,
        40.753796
      ],
      [
        -8.310725,
        40.753523
      ],
      [
        -8.310635,
        40.753364
      ],
      [
        -8.310644,
        40.753137
      ],
      [
        -8.310742,
        40.753019
      ],
      [
        -8.310868,
        40.752916
      ],
      [
        -8.310928,
        40.7528
      ]
    ]
  }
}