{
  "type": "Feature",
  "properties": {
    "id": "priekules-priediens_xfuc",
    "name": "Priekules Priediens",
    "distanceMeters": 4309.077827192212,
    "elevationGainM": null
  },
  "geometry": {
    "type": "LineString",
    "coordinates": [
      [
        21.580333,
        56.438889
      ],
      [
        21.580061,
        56.438873
      ],
      [
        21.579941,
        56.438833
      ],
      [
        21.579829,
        56.43883
      ],
      [
        21.579742,
        56.438856
      ],
      [
        21.579565,
        56.438873
      ],
      [
        21.579351,
        56.438868
      ],
      [
        21.578755,
        56.438939
      ],
      [
        21.578624,
        56.438937
      ],
      [
        21.578574,
        56.438886
      ],
      [
        21.578541,
        56.438783
      ],
      [
        21.578321,
        56.438709
      ],
      [
        21.578061,
        56.438754
      ],
      [
        21.577857,
        56.43882
      ],
      [
        21.577695,
        56.43888
      ],
      [
        21.577537,
        56.438967
      ],
      [
        21.577313,
        56.439187
      ],
      [
        21.577224,
        56.439388
      ],
      [
        21.577149,
        56.439474
      ],
      [
        21.577089,
        56.439951
      ],
      [
        21.57705,
        56.439928
      ],
      [
        21.577131,
        56.43956
      ],
      [
        21.577186,
        56.439493
      ],
      [
        21.57728,
        56.439202
      ],
      [
        21.577183,
        56.439185
      ],
      [
        21.576984,
        56.43923
      ],
      [
        21.576947,
        56.439265
      ],
      [
        21.576785,
        56.439308
      ],
      [
        21.576602,
        56.439404
      ],
      [
        21.576462,
        56.439378
      ],
      [
        21.576339,
        56.439398
      ],
      [
        21.576281,
        56.439432
      ],
      [
        21.575911,
        56.4394
      ],
      [
        21.575735,
        56.439524
      ],
      [
        21.575381,
        56.439637
      ],
      [
        21.575128,
        56.439666
      ],
      [
        21.575059,
        56.439716
      ],
      [
        21.574844,
        56.439771
      ],
      [
        21.574398,
        56.439825
      ],
      [
        21.574307,
        56.439803
      ],
      [
        21.574196,
        56.439728
      ],
      [
        21.573905,
        56.439715
      ],
      [
        21.573993,
        56.439633
      ],
      [
        21.574426,
        56.439759
      ],
      [
        21.574135,
        56.43955
      ],
      [
        21.574111,
        56.43936
      ],
      [
        21.574174,
        56.439287
      ],
      [
        21.573885,
        56.439366
      ],
      [
        21.573756,
        56.439344
      ],
      [
        21.573556,
        56.43941
      ],
      [
        21.573472,
        56.439411
      ],
      [
        21.573568,
        56.439379
      ],
      [
        21.573233,
        56.43925
      ],
      [
        21.572963,
        56.439247
      ],
      [
        21.572519,
        56.438952
      ],
      [
        21.572054,
        56.438699
      ],
      [
        21.571859,
        56.438647
      ],
      [
        21.571811,
        56.438608
      ],
      [
        21.571812,
        56.438563
      ],
      [
        21.571714,
        56.438494
      ],
      [
        21.571558,
        56.438321
      ],
      [
        21.571226,
        56.438087
      ],
      [
        21.571087,
        56.437948
      ],
      [
        21.570878,
        56.437814
      ],
      [
        21.570781,
        56.437779
      ],
      [
        21.570747,
        56.437741
      ],
      [
        21.570254,
        56.43755
      ],
      [
        21.570212,
        56.437525
      ],
      [
        21.570155,
        56.437421
      ],
      [
        21.570026,
        56.437362
      ],
      [
        21.569974,
        56.437293
      ],
      [
        21.569683,
        56.437215
      ],
      [
        21.569737,
        56.437183
      ],
      [
        21.569777,
        56.437195
      ],
      [
        21.569461,
        56.437086
      ],
      [
        21.569588,
        56.437159
      ],
      [
        21.569563,
        56.436966
      ],
      [
        21.569292,
        56.436618
      ],
      [
        21.569172,
        56.436899
      ],
      [
        21.569209,
        56.436873
      ],
      [
        21.569073,
        56.436688
      ],
      [
        21.568977,
        56.436643
      ],
      [
        21.568908,
        56.436641
      ],
      [
        21.568902,
        56.436735
      ],
      [
        21.568852,
        56.436805
      ],
      [
        21.568907,
        56.43683
      ],
      [
        21.568707,
        56.436942
      ],
      [
        21.568606,
        56.436966
      ],
      [
        21.568512,
        56.436775
      ],
      [
        21.568568,
        56.43678
      ],
      [
        21.56834,
        56.436732
      ],
      [
        21.56821,
        56.436679
      ],
      [
        21.566454,
        56.43648
      ],
      [
        21.56622,
        56.436494
      ],
      [
        21.56618,
        56.436537
      ],
      [
        21.566133,
        56.436518
      ],
      [
        21.565726,
        56.436491
      ],
      [
        21.565595,
        56.436467
      ],
      [
        21.565347,
        56.436465
      ],
      [
        21.565341,
        56.436443
      ],
      [
        21.565717,
        56.43635
      ],
      [
        21.565524,
        56.436406
      ],
      [
        21.565535,
        56.436433
      ],
      [
        21.565476,
        56.436468
      ],
      [
        21.564215,
        56.436489
      ],
      [
        21.564298,
        56.436487
      ],
      [
        21.564061,
        56.436483
      ],
      [
        21.563695,
        56.43643
      ],
      [
        21.563563,
        56.43656
      ],
      [
        21.563287,
        56.436765
      ],
      [
        21.563141,
        56.436713
      ],
      [
        21.562126,
        56.436793
      ],
      [
        21.561892,
        56.436663
      ],
      [
        21.561814,
        56.436731
      ],
      [
        21.561652,
        56.436763
      ],
      [
        21.561284,
        56.436686
      ],
      [
        21.561153,
        56.436725
      ],
      [
        21.561181,
        56.436743
      ],
      [
        21.56123,
        56.43711
      ],
      [
        21.561296,
        56.437209
      ],
      [
        21.56158,
        56.437408
      ],
      [
        21.561609,
        56.437615
      ],
      [
        21.561815,
        56.43783
      ],
      [
        21.561301,
        56.438067
      ],
      [
        21.561494,
        56.438115
      ],
      [
        21.561432,
        56.438108
      ],
      [
        21.561432,
        56.438123
      ],
      [
        21.562441,
        56.438501
      ],
      [
        21.562479,
        56.438556
      ],
      [
        21.562507,
        56.438794
      ],
      [
        21.562406,
        56.438897
      ],
      [
        21.562308,
        56.438948
      ],
      [
        21.56234,
        56.438984
      ],
      [
        21.562437,
        56.439008
      ],
      [
        21.562371,
        56.439066
      ],
      [
        21.562304,
        56.439028
      ],
      [
        21.562856,
        56.439263
      ],
      [
        21.562722,
        56.439334
      ],
      [
        21.562664,
        56.439531
      ],
      [
        21.562805,
        56.439554
      ],
      [
        21.562894,
        56.440012
      ],
      [
        21.562915,
        56.440003
      ],
      [
        21.562341,
        56.43997
      ],
      [
        21.562397,
        56.4399
      ],
      [
        21.562517,
        56.439843
      ],
      [
        21.562526,
        56.439793
      ],
      [
        21.562067,
        56.439725
      ],
      [
        21.562061,
        56.439799
      ],
      [
        21.562489,
        56.439765
      ],
      [
        21.562478,
        56.439886
      ],
      [
        21.562448,
        56.439917
      ],
      [
        21.562546,
        56.439952
      ],
      [
        21.562773,
        56.439993
      ],
      [
        21.562801,
        56.44002
      ],
      [
        21.562789,
        56.440089
      ],
      [
        21.562821,
        56.440118
      ],
      [
        21.563066,
        56.439985
      ],
      [
        21.56323,
        56.440132
      ],
      [
        21.56346,
        56.440198
      ],
      [
        21.563666,
        56.440142
      ],
      [
        21.563815,
        56.440062
      ],
      [
        21.563897,
        56.440047
      ],
      [
        21.563903,
        56.440096
      ],
      [
        21.56416,
        56.439842
      ],
      [
        21.564196,
        56.439741
      ],
      [
        21.564439,
        56.439682
      ],
      [
        21.564658,
        56.439538
      ],
      [
        21.564716,
        56.439464
      ],
      [
        21.564792,
        56.439428
      ],
      [
        21.564868,
        56.439552
      ],
      [
        21.564506,
        56.43932
      ],
      [
        21.564943,
        56.439106
      ],
      [
        21.565132,
        56.43914
      ],
      [
        21.565245,
        56.439136
      ],
      [
        21.565746,
        56.43896
      ],
      [
        21.565751,
        56.438997
      ],
      [
        21.565939,
        56.439034
      ],
      [
        21.566115,
        56.438864
      ],
      [
        21.566263,
        56.438771
      ],
      [
        21.566314,
        56.438652
      ],
      [
        21.566293,
        56.43858
      ],
      [
        21.566375,
        56.438479
      ],
      [
        21.566881,
        56.438384
      ],
      [
        21.56712,
        56.43824
      ],
      [
        21.567177,
        56.438177
      ],
      [
        21.56711,
        56.438068
      ],
      [
        21.567053,
        56.438139
      ],
      [
        21.567176,
        56.438041
      ],
      [
        21.567621,
        56.437975
      ],
      [
        21.567998,
        56.437864
      ],
      [
        21.568134,
        56.437649
      ],
      [
        21.568085,
        56.437549
      ],
      [
        21.567949,
        56.437457
      ],
      [
        21.568198,
        56.437491
      ],
      [
        21.568264,
        56.437448
      ],
      [
        21.568595,
        56.437383
      ],
      [
        21.568685,
        56.437289
      ],
      [
        21.568957,
        56.437215
      ],
      [
        21.569138,
        56.437111
      ],
      [
        21.569171,
        56.437298
      ],
      [
        21.569226,
        56.437161
      ],
      [
        21.569306,
        56.437185
      ],
      [
        21.569484,
        56.437194
      ],
      [
        21.569618,
        56.437301
      ],
      [
        21.56967,
        56.437392
      ],
      [
        21.570031,
        56.437482
      ],
      [
        21.570167,
        56.437505
      ],
      [
        21.570801,
        56.437443
      ],
      [
        21.570936,
        56.437463
      ],
      [
        21.571356,
        56.438068
      ],
      [
        21.571814,
        56.438343
      ],
      [
        21.57201,
        56.438416
      ],
      [
        21.572693,
        56.438736
      ],
      [
        21.573015,
        56.438914
      ],
      [
        21.57335,
        56.439181
      ],
      [
        21.573666,
        56.439357
      ],
      [
        21.574039,
        56.439652
      ],
      [
        21.574194,
        56.439725
      ],
      [
        21.574243,
        56.439783
      ],
      [
        21.574331,
        56.439834
      ],
      [
        21.574405,
        56.439853
      ],
      [
        21.57441,
        56.439796
      ],
      [
        21.574478,
        56.43974
      ],
      [
        21.57545,
        56.439464
      ],
      [
        21.576514,
        56.439606
      ],
      [
        21.576838,
        56.439511
      ],
      [
        21.576652,
        56.439367
      ],
      [
        21.576897,
        56.439267
      ],
      [
        21.57705,
        56.439293
      ],
      [
        21.576999,
        56.439231
      ],
      [
        21.577011,
        56.439242
      ],
      [
        21.577297,
        56.439156
      ],
      [
        21.577418,
        56.438999
      ],
      [
        21.57757,
        56.43888
      ],
      [
        21.578029,
        56.438748
      ],
      [
        21.578291,
        56.438758
      ],
      [
        21.578598,
        56.43883
      ],
      [
        21.578707,
        56.438886
      ],
      [
        21.578804,
        56.438897
      ],
      [
        21.579008,
        56.438865
      ],
      [
        21.579025,
        56.438906
      ],
      [
        21.579194,
        56.43888
      ],
      [
        21.579661,
        56.438871
      ],
      [
        21.579877,
        56.438856
      ],
      [
        21.580075,
        56.438819
      ],
      [
        21.580312,
        56.438897
      ]
    ]
  }
}