{
  "type": "Feature",
  "properties": {
    "id": "rie-upes-me-a-pastaiga-turp-un-atpaka_xv9x",
    "name": "Riežupes meža pastaiga (turp un atpakaļ)",
    "distanceMeters": 4969.46556277417,
    "elevationGainM": null
  },
  "geometry": {
    "type": "LineString",
    "coordinates": [
      [
        21.980134,
        57.008984
      ],
      [
        21.98051,
        57.009124
      ],
      [
        21.980926,
        57.009176
      ],
      [
        21.981332,
        57.009175
      ],
      [
        21.981838,
        57.00924
      ],
      [
        21.982334,
        57.009392
      ],
      [
        21.982816,
        57.009537
      ],
      [
        21.983035,
        57.009741
      ],
      [
        21.983114,
        57.009978
      ],
      [
        21.983141,
        57.010256
      ],
      [
        21.983173,
        57.010608
      ],
      [
        21.982991,
        57.011167
      ],
      [
        21.982949,
        57.011499
      ],
      [
        21.983174,
        57.011667
      ],
      [
        21.983529,
        57.011797
      ],
      [
        21.983944,
        57.011976
      ],
      [
        21.984197,
        57.012099
      ],
      [
        21.98451,
        57.012264
      ],
      [
        21.984737,
        57.012402
      ],
      [
        21.985277,
        57.012681
      ],
      [
        21.985518,
        57.012859
      ],
      [
        21.985834,
        57.013066
      ],
      [
        21.985785,
        57.013424
      ],
      [
        21.986017,
        57.013795
      ],
      [
        21.986181,
        57.014068
      ],
      [
        21.986734,
        57.014291
      ],
      [
        21.987779,
        57.014704
      ],
      [
        21.988332,
        57.015171
      ],
      [
        21.988548,
        57.015366
      ],
      [
        21.988816,
        57.015584
      ],
      [
        21.988922,
        57.015837
      ],
      [
        21.989179,
        57.016033
      ],
      [
        21.989511,
        57.016265
      ],
      [
        21.989919,
        57.016453
      ],
      [
        21.990431,
        57.01664
      ],
      [
        21.990927,
        57.01671
      ],
      [
        21.991409,
        57.016777
      ],
      [
        21.991831,
        57.01691
      ],
      [
        21.992117,
        57.017019
      ],
      [
        21.992384,
        57.017136
      ],
      [
        21.992823,
        57.017216
      ],
      [
        21.993209,
        57.017285
      ],
      [
        21.993783,
        57.01737
      ],
      [
        21.994333,
        57.017448
      ],
      [
        21.994881,
        57.017457
      ],
      [
        21.995275,
        57.017453
      ],
      [
        21.995773,
        57.017466
      ],
      [
        21.996147,
        57.017477
      ],
      [
        21.996593,
        57.017566
      ],
      [
        21.9969,
        57.017851
      ],
      [
        21.997353,
        57.01799
      ],
      [
        21.998317,
        57.0182
      ],
      [
        21.998808,
        57.018288
      ],
      [
        21.999201,
        57.018357
      ],
      [
        21.999632,
        57.018345
      ],
      [
        21.999973,
        57.018336
      ],
      [
        22.000303,
        57.018321
      ],
      [
        22.000912,
        57.018237
      ],
      [
        22.001371,
        57.018329
      ],
      [
        22.001881,
        57.01844
      ],
      [
        22.002344,
        57.018758
      ],
      [
        22.002727,
        57.019029
      ],
      [
        22.003364,
        57.020097
      ],
      [
        22.003593,
        57.020424
      ],
      [
        22.003599,
        57.020624
      ],
      [
        22.003557,
        57.020817
      ],
      [
        22.003564,
        57.021032
      ],
      [
        22.003822,
        57.021201
      ],
      [
        22.004049,
        57.021341
      ],
      [
        22.004513,
        57.021529
      ],
      [
        22.004865,
        57.02164
      ],
      [
        22.005554,
        57.021504
      ],
      [
        22.006108,
        57.021496
      ],
      [
        22.006498,
        57.021555
      ],
      [
        22.006828,
        57.021711
      ],
      [
        22.007186,
        57.021881
      ],
      [
        22.006828,
        57.021711
      ],
      [
        22.006498,
        57.021555
      ],
      [
        22.006108,
        57.021496
      ],
      [
        22.005554,
        57.021504
      ],
      [
        22.004865,
        57.02164
      ],
      [
        22.004513,
        57.021529
      ],
      [
        22.004049,
        57.021341
      ],
      [
        22.003822,
        57.021201
      ],
      [
        22.003564,
        57.021032
      ],
      [
        22.003557,
        57.020817
      ],
      [
        22.003599,
        57.020624
      ],
      [
        22.003593,
        57.020424
      ],
      [
        22.003364,
        57.020097
      ],
      [
        22.002727,
        57.019029
      ],
      [
        22.002344,
        57.018758
      ],
      [
        22.001881,
        57.01844
      ],
      [
        22.001371,
        57.018329
      ],
      [
        22.000912,
        57.018237
      ],
      [
        22.000303,
        57.018321
      ],
      [
        21.999973,
        57.018336
      ],
      [
        21.999632,
        57.018345
      ],
      [
        21.999201,
        57.018357
      ],
      [
        21.998808,
        57.018288
      ],
      [
        21.998317,
        57.0182
      ],
      [
        21.997353,
        57.01799
      ],
      [
        21.9969,
        57.017851
      ],
      [
        21.996593,
        57.017566
      ],
      [
        21.996147,
        57.017477
      ],
      [
        21.995773,
        57.017466
      ],
      [
        21.995275,
        57.017453
      ],
      [
        21.994881,
        57.017457
      ],
      [
        21.994333,
        57.017448
      ],
      [
        21.993783,
        57.01737
      ],
      [
        21.993209,
        57.017285
      ],
      [
        21.992823,
        57.017216
      ],
      [
        21.992384,
        57.017136
      ],
      [
        21.992117,
        57.017019
      ],
      [
        21.991831,
        57.01691
      ],
      [
        21.991409,
        57.016777
      ],
      [
        21.990927,
        57.01671
      ],
      [
        21.990431,
        57.01664
      ],
      [
        21.989919,
        57.016453
      ],
      [
        21.989511,
        57.016265
      ],
      [
        21.989179,
        57.016033
      ],
      [
        21.988922,
        57.015837
      ],
      [
        21.988816,
        57.015584
      ],
      [
        21.988548,
        57.015366
      ],
      [
        21.988332,
        57.015171
      ],
      [
        21.987779,
        57.014704
      ],
      [
        21.986734,
        57.014291
      ],
      [
        21.986181,
        57.014068
      ],
      [
        21.986017,
        57.013795
      ],
      [
        21.985785,
        57.013424
      ],
      [
        21.985834,
        57.013066
      ],
      [
        21.985518,
        57.012859
      ],
      [
        21.985277,
        57.012681
      ],
      [
        21.984737,
        57.012402
      ],
      [
        21.98451,
        57.012264
      ],
      [
        21.984197,
        57.012099
      ],
      [
        21.983944,
        57.011976
      ],
      [
        21.983529,
        57.011797
      ],
      [
        21.983174,
        57.011667
      ],
      [
        21.982949,
        57.011499
      ],
      [
        21.982991,
        57.011167
      ],
      [
        21.983173,
        57.010608
      ],
      [
        21.983141,
        57.010256
      ],
      [
        21.983114,
        57.009978
      ],
      [
        21.983035,
        57.009741
      ],
      [
        21.982816,
        57.009537
      ],
      [
        21.982334,
        57.009392
      ],
      [
        21.981838,
        57.00924
      ],
      [
        21.981332,
        57.009175
      ],
      [
        21.980926,
        57.009176
      ],
      [
        21.98051,
        57.009124
      ],
      [
        21.980134,
        57.008984
      ]
    ]
  }
}