{
  "type": "Feature",
  "properties": {
    "id": "rota-do-rio_dui8",
    "name": "Rota do Rio",
    "distanceMeters": 3703.6309576499925,
    "elevationGainM": 103,
    "elevationsM": [
      322.7,
      324,
      325,
      325.9,
      326.4,
      327.2,
      327.3,
      327.5,
      328.5,
      329.6,
      330.4,
      331.3,
      331.3,
      329.9,
      330.6,
      329.7,
      329.8,
      330.7,
      331.8,
      331.8,
      333,
      334.5,
      335.1,
      334.4,
      333.9,
      333.5,
      334.2,
      334,
      333.7,
      333.8,
      334.1,
      332.8,
      332.6,
      331.6,
      331.2,
      331.4,
      332.1,
      331.4,
      332.9,
      334,
      333.8,
      334.6,
      333.2,
      331.8,
      332.8,
      332.6,
      331.5,
      332.1,
      333.4,
      334.7,
      335.9,
      336.6,
      338.2,
      338.7,
      338.6,
      337.4,
      338.1,
      336.9,
      338.1,
      339,
      339.2,
      339,
      339.6,
      340.9,
      339.7,
      340.6,
      341.4,
      340.3,
      341.7,
      340.8,
      340.3,
      340.4,
      339.4,
      339,
      339.2,
      338.5,
      337.9,
      338.7,
      339.1,
      340.3,
      340.1,
      341.2,
      340.7,
      340.4,
      339.9,
      338.4,
      339.6,
      341,
      339.8,
      338.8,
      338.1,
      338.7,
      339.8,
      340.3,
      339.5,
      339.4,
      340.5,
      341.5,
      341,
      341.9,
      342.5,
      343.4,
      344.6,
      345.1,
      345.7,
      346.8,
      345.8,
      344.9,
      344.9,
      344.1,
      344.6,
      344.3,
      345.4,
      346.1,
      344.7,
      345,
      345.7,
      347.1,
      348.6,
      349.2,
      348.4,
      349.9,
      350.9,
      350.6,
      351.9,
      351.5,
      352.3,
      353.2,
      353,
      354.3,
      353.3,
      354.8,
      354.2,
      353.4,
      353.1,
      354.5,
      353.5,
      354.8,
      354.3,
      355.3,
      356.2,
      355.8,
      356.2,
      354.8,
      355.2,
      355.9,
      357.3,
      357.5,
      357.6,
      358.5,
      357.2,
      356.6,
      356.6,
      356,
      355.6,
      356.4,
      356.6,
      357,
      357.6,
      358.5,
      359.7,
      361.1,
      361,
      362.5,
      362.9,
      362.4,
      361.3,
      362.3,
      362.7,
      361.5,
      362.6,
      362.4,
      362.8,
      362.9,
      361.5,
      361.9,
      360.5,
      361.6,
      362.3,
      361.7,
      362.5,
      362.1,
      362.1,
      363.2,
      362.7,
      361.6,
      360.7,
      362.3,
      363.3,
      363.2,
      362.7,
      362.4,
      363.5,
      363.4,
      362.6,
      362.4,
      362.8,
      362.7,
      363.6,
      362.6,
      362.9,
      363.2,
      363.7,
      362.4,
      361.8,
      361,
      360,
      360.9,
      361.1,
      362.5,
      363.6,
      363.1,
      362.7,
      362.2,
      362.8,
      362,
      363.1,
      361.9,
      360.4,
      359.5
    ]
  },
  "geometry": {
    "type": "LineString",
    "coordinates": [
      [
        -8.494488,
        40.792006
      ],
      [
        -8.494464,
        40.791978
      ],
      [
        -8.494264,
        40.79199
      ],
      [
        -8.494402,
        40.791959
      ],
      [
        -8.494555,
        40.791992
      ],
      [
        -8.494929,
        40.792206
      ],
      [
        -8.495135,
        40.792287
      ],
      [
        -8.495242,
        40.792472
      ],
      [
        -8.495401,
        40.792575
      ],
      [
        -8.495429,
        40.792627
      ],
      [
        -8.495469,
        40.792699
      ],
      [
        -8.495578,
        40.79286
      ],
      [
        -8.495542,
        40.792867
      ],
      [
        -8.495694,
        40.792916
      ],
      [
        -8.495741,
        40.793065
      ],
      [
        -8.495852,
        40.793632
      ],
      [
        -8.496696,
        40.795182
      ],
      [
        -8.496687,
        40.795332
      ],
      [
        -8.497031,
        40.795563
      ],
      [
        -8.497176,
        40.796059
      ],
      [
        -8.497055,
        40.796134
      ],
      [
        -8.497219,
        40.79632
      ],
      [
        -8.497321,
        40.796418
      ],
      [
        -8.497492,
        40.796515
      ],
      [
        -8.497685,
        40.796558
      ],
      [
        -8.497766,
        40.796659
      ],
      [
        -8.497867,
        40.796866
      ],
      [
        -8.497901,
        40.797108
      ],
      [
        -8.498024,
        40.797316
      ],
      [
        -8.497947,
        40.797412
      ],
      [
        -8.497791,
        40.797702
      ],
      [
        -8.497673,
        40.797701
      ],
      [
        -8.497661,
        40.797839
      ],
      [
        -8.497739,
        40.798031
      ],
      [
        -8.497842,
        40.798153
      ],
      [
        -8.498004,
        40.798223
      ],
      [
        -8.498183,
        40.798389
      ],
      [
        -8.498205,
        40.798665
      ],
      [
        -8.498427,
        40.798784
      ],
      [
        -8.498477,
        40.798699
      ],
      [
        -8.498577,
        40.798728
      ],
      [
        -8.498686,
        40.798638
      ],
      [
        -8.498874,
        40.798544
      ],
      [
        -8.498777,
        40.798311
      ],
      [
        -8.498883,
        40.798357
      ],
      [
        -8.498763,
        40.798292
      ],
      [
        -8.498771,
        40.798246
      ],
      [
        -8.498887,
        40.798171
      ],
      [
        -8.499038,
        40.798294
      ],
      [
        -8.499185,
        40.798463
      ],
      [
        -8.499221,
        40.798518
      ],
      [
        -8.499198,
        40.798624
      ],
      [
        -8.499321,
        40.798866
      ],
      [
        -8.49916,
        40.799067
      ],
      [
        -8.499307,
        40.799271
      ],
      [
        -8.499362,
        40.799444
      ],
      [
        -8.499415,
        40.799444
      ],
      [
        -8.499419,
        40.799582
      ],
      [
        -8.499494,
        40.799691
      ],
      [
        -8.499382,
        40.799779
      ],
      [
        -8.499259,
        40.799852
      ],
      [
        -8.49906,
        40.799907
      ],
      [
        -8.499043,
        40.799984
      ],
      [
        -8.499137,
        40.800015
      ],
      [
        -8.499155,
        40.800109
      ],
      [
        -8.499318,
        40.800229
      ],
      [
        -8.499494,
        40.800365
      ],
      [
        -8.499574,
        40.800357
      ],
      [
        -8.499714,
        40.800351
      ],
      [
        -8.499794,
        40.800498
      ],
      [
        -8.499922,
        40.800572
      ],
      [
        -8.500043,
        40.800665
      ],
      [
        -8.500183,
        40.800823
      ],
      [
        -8.500262,
        40.800898
      ],
      [
        -8.500286,
        40.800951
      ],
      [
        -8.500331,
        40.800994
      ],
      [
        -8.500375,
        40.800965
      ],
      [
        -8.50055,
        40.800945
      ],
      [
        -8.500543,
        40.801012
      ],
      [
        -8.50066,
        40.801092
      ],
      [
        -8.500477,
        40.801188
      ],
      [
        -8.500504,
        40.801342
      ],
      [
        -8.500441,
        40.801403
      ],
      [
        -8.500456,
        40.801441
      ],
      [
        -8.500463,
        40.801597
      ],
      [
        -8.50038,
        40.801677
      ],
      [
        -8.50032,
        40.801749
      ],
      [
        -8.500171,
        40.802005
      ],
      [
        -8.500095,
        40.802093
      ],
      [
        -8.500133,
        40.802015
      ],
      [
        -8.499993,
        40.802138
      ],
      [
        -8.499924,
        40.8023
      ],
      [
        -8.499703,
        40.80264
      ],
      [
        -8.499618,
        40.802601
      ],
      [
        -8.499547,
        40.802823
      ],
      [
        -8.499243,
        40.803063
      ],
      [
        -8.499274,
        40.803178
      ],
      [
        -8.49911,
        40.803373
      ],
      [
        -8.498774,
        40.80379
      ],
      [
        -8.498575,
        40.803893
      ],
      [
        -8.498373,
        40.804114
      ],
      [
        -8.498264,
        40.804034
      ],
      [
        -8.498289,
        40.803912
      ],
      [
        -8.498338,
        40.803785
      ],
      [
        -8.498054,
        40.80378
      ],
      [
        -8.498165,
        40.803829
      ],
      [
        -8.498221,
        40.803878
      ],
      [
        -8.498017,
        40.803908
      ],
      [
        -8.497947,
        40.803969
      ],
      [
        -8.497907,
        40.803742
      ],
      [
        -8.497947,
        40.803558
      ],
      [
        -8.497939,
        40.803375
      ],
      [
        -8.497898,
        40.803311
      ],
      [
        -8.497915,
        40.802919
      ],
      [
        -8.497906,
        40.802812
      ],
      [
        -8.497583,
        40.802767
      ],
      [
        -8.497376,
        40.802815
      ],
      [
        -8.497262,
        40.802978
      ],
      [
        -8.497083,
        40.803099
      ],
      [
        -8.497144,
        40.803122
      ],
      [
        -8.497266,
        40.803173
      ],
      [
        -8.497296,
        40.803258
      ],
      [
        -8.49726,
        40.803252
      ],
      [
        -8.49721,
        40.803385
      ],
      [
        -8.497327,
        40.803403
      ],
      [
        -8.497349,
        40.803485
      ],
      [
        -8.497197,
        40.803613
      ],
      [
        -8.496998,
        40.803535
      ],
      [
        -8.496835,
        40.803534
      ],
      [
        -8.496641,
        40.803552
      ],
      [
        -8.496453,
        40.803539
      ],
      [
        -8.496242,
        40.803561
      ],
      [
        -8.49607,
        40.80373
      ],
      [
        -8.496009,
        40.803861
      ],
      [
        -8.49586,
        40.803891
      ],
      [
        -8.495865,
        40.804026
      ],
      [
        -8.495643,
        40.804094
      ],
      [
        -8.495547,
        40.804044
      ],
      [
        -8.495364,
        40.804189
      ],
      [
        -8.495132,
        40.804126
      ],
      [
        -8.49517,
        40.804245
      ],
      [
        -8.494978,
        40.804277
      ],
      [
        -8.494958,
        40.804268
      ],
      [
        -8.494912,
        40.804483
      ],
      [
        -8.494848,
        40.804608
      ],
      [
        -8.49495,
        40.804453
      ],
      [
        -8.495059,
        40.804503
      ],
      [
        -8.495171,
        40.804745
      ],
      [
        -8.495148,
        40.804876
      ],
      [
        -8.495242,
        40.805089
      ],
      [
        -8.49541,
        40.805246
      ],
      [
        -8.495607,
        40.805279
      ],
      [
        -8.496054,
        40.80544
      ],
      [
        -8.496005,
        40.805464
      ],
      [
        -8.496234,
        40.805594
      ],
      [
        -8.496371,
        40.805481
      ],
      [
        -8.496337,
        40.805601
      ],
      [
        -8.496327,
        40.805756
      ],
      [
        -8.496742,
        40.805748
      ],
      [
        -8.49681,
        40.805851
      ],
      [
        -8.497052,
        40.805905
      ],
      [
        -8.497021,
        40.806001
      ],
      [
        -8.497016,
        40.806064
      ],
      [
        -8.497091,
        40.806249
      ],
      [
        -8.496998,
        40.806297
      ],
      [
        -8.49702,
        40.806331
      ],
      [
        -8.496999,
        40.806275
      ],
      [
        -8.496865,
        40.806368
      ],
      [
        -8.497012,
        40.806421
      ],
      [
        -8.496976,
        40.8065
      ],
      [
        -8.496949,
        40.806398
      ],
      [
        -8.496932,
        40.806582
      ],
      [
        -8.496953,
        40.806573
      ],
      [
        -8.496872,
        40.806762
      ],
      [
        -8.496915,
        40.806833
      ],
      [
        -8.496901,
        40.806884
      ],
      [
        -8.496935,
        40.806975
      ],
      [
        -8.496946,
        40.806974
      ],
      [
        -8.496964,
        40.807142
      ],
      [
        -8.497058,
        40.807202
      ],
      [
        -8.497091,
        40.807134
      ],
      [
        -8.497199,
        40.807312
      ],
      [
        -8.497179,
        40.807293
      ],
      [
        -8.497238,
        40.80725
      ],
      [
        -8.497318,
        40.807291
      ],
      [
        -8.497187,
        40.80741
      ],
      [
        -8.497369,
        40.807348
      ],
      [
        -8.497342,
        40.807478
      ],
      [
        -8.497281,
        40.807396
      ],
      [
        -8.497393,
        40.807401
      ],
      [
        -8.497351,
        40.807413
      ],
      [
        -8.497432,
        40.807493
      ],
      [
        -8.497416,
        40.807547
      ],
      [
        -8.497553,
        40.80761
      ],
      [
        -8.497614,
        40.807834
      ],
      [
        -8.497637,
        40.807804
      ],
      [
        -8.497554,
        40.807864
      ],
      [
        -8.497566,
        40.80785
      ],
      [
        -8.497594,
        40.807979
      ],
      [
        -8.497673,
        40.808011
      ],
      [
        -8.497683,
        40.807987
      ],
      [
        -8.497876,
        40.808303
      ],
      [
        -8.4979,
        40.808243
      ],
      [
        -8.497883,
        40.808529
      ],
      [
        -8.497831,
        40.808536
      ],
      [
        -8.49778,
        40.808486
      ],
      [
        -8.497852,
        40.808672
      ],
      [
        -8.49782,
        40.80864
      ],
      [
        -8.497732,
        40.808648
      ],
      [
        -8.497497,
        40.808989
      ],
      [
        -8.497476,
        40.809094
      ],
      [
        -8.497581,
        40.808953
      ],
      [
        -8.497471,
        40.808963
      ],
      [
        -8.497542,
        40.809076
      ],
      [
        -8.497444,
        40.809103
      ],
      [
        -8.497497,
        40.809082
      ],
      [
        -8.497558,
        40.80915
      ],
      [
        -8.497579,
        40.809163
      ],
      [
        -8.49756,
        40.809315
      ],
      [
        -8.497801,
        40.809397
      ]
    ]
  }
}