{
  "type": "Feature",
  "properties": {
    "id": "rota-dos-moinhos-de-ul_duo8",
    "name": "Rota dos Moinhos de Ul",
    "distanceMeters": 3468.3764793870846,
    "elevationGainM": 71,
    "elevationsM": [
      255.4,
      255.1,
      254.9,
      256.3,
      256.9,
      255.8,
      254.4,
      254.1,
      254.7,
      255.1,
      254.5,
      255.4,
      255.8,
      257,
      257.7,
      256.4,
      257.4,
      256.8,
      257.6,
      257.7,
      257.9,
      257.9,
      257.1,
      257.8,
      256.7,
      256.1,
      255.4,
      254.8,
      253.6,
      254.9,
      255,
      256.5,
      257.1,
      257.1,
      256.3,
      255.7,
      255.8,
      256,
      257.2,
      255.9,
      255.1,
      256.2,
      257.4,
      257.3,
      256.5,
      258,
      258.1,
      258.1,
      258.5,
      257.1,
      257.4,
      256.5,
      257.1,
      257.9,
      259,
      259.4,
      260.4,
      262,
      262.5,
      263.2,
      262.2,
      262,
      263.2,
      262,
      261.1,
      259.8,
      260.4,
      260.8,
      262.3,
      262.7,
      261.3,
      260.5,
      261.9,
      262.5,
      261.6,
      261.5,
      262.1,
      262.3,
      261.7,
      261.7,
      261.6,
      260.6,
      260.1,
      260.9,
      262.3,
      263.1,
      264.5,
      265.3,
      265.8,
      267.3,
      267.1,
      268.6,
      269.4,
      269.3,
      269.6,
      269.9,
      269,
      268.9,
      270,
      269.6,
      268.7,
      269.6,
      270.6,
      271.4,
      271.4,
      271.1,
      271.6,
      272.7,
      273.7,
      272.7,
      273.3,
      272.9,
      272.1,
      272.4,
      273.4,
      273.6,
      273.7,
      273.4,
      274.2,
      272.9,
      273.3,
      272,
      272.3,
      270.9,
      271.1,
      270.2,
      269,
      269.3,
      268.2,
      267,
      265.9,
      265.7,
      266.2,
      265.3,
      266.4,
      267.6,
      269,
      267.7,
      269,
      267.8,
      266.5,
      265.3,
      264.1,
      262.7,
      263.6,
      264.4,
      265.7,
      264.6,
      266,
      267.4,
      268.7,
      269.4,
      268.3,
      267.5,
      267.4,
      268.3,
      267.2,
      266.4,
      267.8,
      266.5,
      266.8,
      267,
      268.4,
      267.9,
      267.9,
      268.2
    ]
  },
  "geometry": {
    "type": "LineString",
    "coordinates": [
      [
        -8.499319,
        40.809301
      ],
      [
        -8.49897,
        40.809042
      ],
      [
        -8.498817,
        40.808865
      ],
      [
        -8.498709,
        40.80883
      ],
      [
        -8.498704,
        40.808792
      ],
      [
        -8.498687,
        40.808944
      ],
      [
        -8.498694,
        40.809146
      ],
      [
        -8.498512,
        40.809165
      ],
      [
        -8.498433,
        40.809136
      ],
      [
        -8.498018,
        40.809434
      ],
      [
        -8.497791,
        40.80934
      ],
      [
        -8.497851,
        40.809489
      ],
      [
        -8.497748,
        40.809542
      ],
      [
        -8.497838,
        40.809437
      ],
      [
        -8.497893,
        40.809656
      ],
      [
        -8.497923,
        40.809545
      ],
      [
        -8.498029,
        40.80978
      ],
      [
        -8.497932,
        40.80997
      ],
      [
        -8.497948,
        40.810073
      ],
      [
        -8.497917,
        40.810155
      ],
      [
        -8.497977,
        40.810247
      ],
      [
        -8.497899,
        40.810334
      ],
      [
        -8.497685,
        40.810351
      ],
      [
        -8.497435,
        40.810518
      ],
      [
        -8.497493,
        40.810626
      ],
      [
        -8.497155,
        40.810843
      ],
      [
        -8.497173,
        40.810939
      ],
      [
        -8.497049,
        40.810908
      ],
      [
        -8.496713,
        40.810815
      ],
      [
        -8.496624,
        40.810943
      ],
      [
        -8.4964,
        40.810807
      ],
      [
        -8.496144,
        40.810946
      ],
      [
        -8.496069,
        40.810878
      ],
      [
        -8.495957,
        40.810873
      ],
      [
        -8.495768,
        40.811119
      ],
      [
        -8.495668,
        40.811309
      ],
      [
        -8.495706,
        40.811247
      ],
      [
        -8.49557,
        40.811334
      ],
      [
        -8.495539,
        40.811539
      ],
      [
        -8.495559,
        40.811559
      ],
      [
        -8.49559,
        40.811421
      ],
      [
        -8.49576,
        40.811696
      ],
      [
        -8.496094,
        40.811914
      ],
      [
        -8.496157,
        40.81184
      ],
      [
        -8.496327,
        40.811999
      ],
      [
        -8.496383,
        40.812282
      ],
      [
        -8.496343,
        40.812475
      ],
      [
        -8.496584,
        40.812463
      ],
      [
        -8.496776,
        40.812411
      ],
      [
        -8.496715,
        40.812376
      ],
      [
        -8.497031,
        40.812213
      ],
      [
        -8.497156,
        40.812157
      ],
      [
        -8.497096,
        40.811944
      ],
      [
        -8.497241,
        40.811928
      ],
      [
        -8.49746,
        40.811762
      ],
      [
        -8.49764,
        40.811714
      ],
      [
        -8.497774,
        40.811603
      ],
      [
        -8.497944,
        40.811348
      ],
      [
        -8.498136,
        40.81116
      ],
      [
        -8.498276,
        40.810887
      ],
      [
        -8.498238,
        40.810717
      ],
      [
        -8.498485,
        40.810517
      ],
      [
        -8.498557,
        40.810427
      ],
      [
        -8.498483,
        40.810171
      ],
      [
        -8.498619,
        40.810044
      ],
      [
        -8.498821,
        40.810132
      ],
      [
        -8.499295,
        40.810225
      ],
      [
        -8.4997,
        40.810445
      ],
      [
        -8.500061,
        40.810895
      ],
      [
        -8.500228,
        40.810967
      ],
      [
        -8.500302,
        40.811256
      ],
      [
        -8.50014,
        40.811474
      ],
      [
        -8.500094,
        40.81194
      ],
      [
        -8.500069,
        40.811856
      ],
      [
        -8.499756,
        40.812156
      ],
      [
        -8.499617,
        40.812525
      ],
      [
        -8.499723,
        40.812751
      ],
      [
        -8.499622,
        40.812749
      ],
      [
        -8.499583,
        40.813061
      ],
      [
        -8.499683,
        40.81329
      ],
      [
        -8.499663,
        40.81327
      ],
      [
        -8.499436,
        40.813666
      ],
      [
        -8.499413,
        40.813617
      ],
      [
        -8.499373,
        40.813782
      ],
      [
        -8.49918,
        40.813888
      ],
      [
        -8.499198,
        40.814175
      ],
      [
        -8.499054,
        40.814414
      ],
      [
        -8.498994,
        40.814623
      ],
      [
        -8.499015,
        40.814519
      ],
      [
        -8.499166,
        40.814714
      ],
      [
        -8.499027,
        40.814654
      ],
      [
        -8.498979,
        40.81479
      ],
      [
        -8.498775,
        40.81469
      ],
      [
        -8.498765,
        40.814621
      ],
      [
        -8.498549,
        40.814504
      ],
      [
        -8.498329,
        40.814542
      ],
      [
        -8.49815,
        40.81436
      ],
      [
        -8.497716,
        40.814297
      ],
      [
        -8.497691,
        40.814514
      ],
      [
        -8.497529,
        40.814518
      ],
      [
        -8.497402,
        40.814847
      ],
      [
        -8.497353,
        40.814866
      ],
      [
        -8.497149,
        40.815116
      ],
      [
        -8.497293,
        40.815129
      ],
      [
        -8.497283,
        40.815326
      ],
      [
        -8.497377,
        40.815345
      ],
      [
        -8.497262,
        40.815407
      ],
      [
        -8.497232,
        40.815408
      ],
      [
        -8.497442,
        40.815361
      ],
      [
        -8.497643,
        40.815453
      ],
      [
        -8.497674,
        40.815445
      ],
      [
        -8.497902,
        40.815361
      ],
      [
        -8.497942,
        40.815405
      ],
      [
        -8.497952,
        40.815411
      ],
      [
        -8.497937,
        40.81516
      ],
      [
        -8.497948,
        40.815228
      ],
      [
        -8.49796,
        40.815157
      ],
      [
        -8.497995,
        40.815191
      ],
      [
        -8.498141,
        40.815269
      ],
      [
        -8.498095,
        40.815152
      ],
      [
        -8.498247,
        40.815062
      ],
      [
        -8.498389,
        40.81511
      ],
      [
        -8.498437,
        40.815164
      ],
      [
        -8.498516,
        40.815258
      ],
      [
        -8.498714,
        40.815402
      ],
      [
        -8.498717,
        40.815408
      ],
      [
        -8.499247,
        40.815268
      ],
      [
        -8.499398,
        40.815436
      ],
      [
        -8.499589,
        40.815345
      ],
      [
        -8.499856,
        40.815232
      ],
      [
        -8.499914,
        40.815093
      ],
      [
        -8.500047,
        40.815133
      ],
      [
        -8.500041,
        40.815043
      ],
      [
        -8.50008,
        40.814966
      ],
      [
        -8.499911,
        40.814953
      ],
      [
        -8.499921,
        40.814294
      ],
      [
        -8.499807,
        40.814151
      ],
      [
        -8.50002,
        40.813918
      ],
      [
        -8.500061,
        40.813966
      ],
      [
        -8.500012,
        40.813814
      ],
      [
        -8.500008,
        40.813677
      ],
      [
        -8.500039,
        40.813595
      ],
      [
        -8.500107,
        40.813436
      ],
      [
        -8.500314,
        40.813447
      ],
      [
        -8.500363,
        40.813084
      ],
      [
        -8.500477,
        40.812886
      ],
      [
        -8.500629,
        40.812927
      ],
      [
        -8.500651,
        40.812797
      ],
      [
        -8.500644,
        40.812532
      ],
      [
        -8.500481,
        40.812384
      ],
      [
        -8.500397,
        40.812046
      ],
      [
        -8.500614,
        40.811782
      ],
      [
        -8.500592,
        40.811718
      ],
      [
        -8.500611,
        40.811295
      ],
      [
        -8.500636,
        40.811202
      ],
      [
        -8.500403,
        40.811024
      ],
      [
        -8.500293,
        40.810828
      ],
      [
        -8.500099,
        40.810445
      ],
      [
        -8.500088,
        40.810447
      ],
      [
        -8.499916,
        40.810366
      ],
      [
        -8.499692,
        40.810115
      ],
      [
        -8.499489,
        40.809992
      ],
      [
        -8.499135,
        40.80973
      ],
      [
        -8.499205,
        40.809469
      ],
      [
        -8.499275,
        40.809265
      ],
      [
        -8.499143,
        40.809241
      ]
    ]
  }
}