{
  "type": "Feature",
  "properties": {
    "id": "roteiro-liter-rio-ferreira-de-castro_dvwc",
    "name": "Roteiro Literário Ferreira de Castro",
    "distanceMeters": 2370.9102123257335,
    "elevationGainM": 42,
    "elevationsM": [
      336.4,
      335.2,
      334.8,
      334.9,
      335,
      335.9,
      336.7,
      336,
      337.3,
      336.5,
      336.4,
      337.6,
      338.1,
      339,
      339,
      338.1,
      337,
      336.7,
      335.7,
      336.8,
      335.6,
      334.8,
      335.4,
      334.8,
      336.1,
      335.3,
      336.5,
      337.6,
      337.7,
      337.8,
      337.8,
      338,
      337.9,
      336.5,
      335.4,
      335.2,
      336.4,
      336.1,
      336.6,
      335.2,
      334,
      335.5,
      335.3,
      336.5,
      337,
      336.7,
      336.8,
      338.2,
      338.7,
      338.7,
      337.9,
      337.8,
      336.7,
      335.8,
      335.2,
      335.3,
      335.8,
      335.1,
      334.5,
      334.8,
      335.4,
      335.6,
      334.4,
      335,
      334.7,
      333.9,
      334.5,
      333.3,
      333.6,
      332.5,
      331.9,
      331.2,
      331.7,
      332.8,
      332.7,
      332.5,
      331.6,
      330.9,
      330.4,
      331,
      329.7,
      328.5,
      329.1,
      328.5,
      328.3,
      328.1,
      328.3,
      328.3,
      327,
      327.8,
      329.2,
      328.6,
      329.4,
      330.8,
      331.6,
      333.1,
      334.2,
      334.6,
      336,
      336.1,
      335.1,
      335.8,
      336.2,
      335.1,
      333.9,
      334.9,
      336.1,
      336.7,
      338.3,
      339.3,
      339.7,
      340.8,
      340.2
    ]
  },
  "geometry": {
    "type": "LineString",
    "coordinates": [
      [
        -8.422379,
        40.818298
      ],
      [
        -8.422358,
        40.818207
      ],
      [
        -8.422183,
        40.818115
      ],
      [
        -8.42205,
        40.818055
      ],
      [
        -8.421899,
        40.818069
      ],
      [
        -8.421717,
        40.818078
      ],
      [
        -8.421613,
        40.818135
      ],
      [
        -8.421817,
        40.817767
      ],
      [
        -8.42198,
        40.817715
      ],
      [
        -8.422162,
        40.817588
      ],
      [
        -8.422351,
        40.817411
      ],
      [
        -8.422279,
        40.817254
      ],
      [
        -8.422336,
        40.81709
      ],
      [
        -8.422293,
        40.816965
      ],
      [
        -8.422477,
        40.816723
      ],
      [
        -8.422408,
        40.816603
      ],
      [
        -8.422429,
        40.816425
      ],
      [
        -8.422389,
        40.816264
      ],
      [
        -8.42237,
        40.816253
      ],
      [
        -8.422328,
        40.816109
      ],
      [
        -8.42228,
        40.815988
      ],
      [
        -8.422179,
        40.815981
      ],
      [
        -8.422236,
        40.815868
      ],
      [
        -8.422267,
        40.815652
      ],
      [
        -8.422564,
        40.815435
      ],
      [
        -8.422907,
        40.814694
      ],
      [
        -8.422855,
        40.814475
      ],
      [
        -8.42288,
        40.814408
      ],
      [
        -8.422917,
        40.814302
      ],
      [
        -8.422821,
        40.81415
      ],
      [
        -8.422847,
        40.813977
      ],
      [
        -8.422993,
        40.813912
      ],
      [
        -8.42313,
        40.813808
      ],
      [
        -8.423276,
        40.813744
      ],
      [
        -8.423868,
        40.813636
      ],
      [
        -8.424024,
        40.813709
      ],
      [
        -8.424257,
        40.813789
      ],
      [
        -8.424564,
        40.813897
      ],
      [
        -8.424788,
        40.81396
      ],
      [
        -8.425126,
        40.813998
      ],
      [
        -8.425226,
        40.814035
      ],
      [
        -8.425364,
        40.814143
      ],
      [
        -8.425859,
        40.814707
      ],
      [
        -8.42581,
        40.814736
      ],
      [
        -8.425891,
        40.814752
      ],
      [
        -8.425801,
        40.814792
      ],
      [
        -8.425823,
        40.814816
      ],
      [
        -8.425868,
        40.814882
      ],
      [
        -8.425634,
        40.814962
      ],
      [
        -8.42556,
        40.815175
      ],
      [
        -8.425404,
        40.815414
      ],
      [
        -8.425293,
        40.815496
      ],
      [
        -8.425183,
        40.815593
      ],
      [
        -8.425245,
        40.815685
      ],
      [
        -8.425372,
        40.816017
      ],
      [
        -8.425342,
        40.816219
      ],
      [
        -8.425462,
        40.816466
      ],
      [
        -8.425655,
        40.816763
      ],
      [
        -8.425958,
        40.817217
      ],
      [
        -8.426701,
        40.818331
      ],
      [
        -8.426814,
        40.818486
      ],
      [
        -8.42702,
        40.818653
      ],
      [
        -8.426986,
        40.818695
      ],
      [
        -8.426945,
        40.818788
      ],
      [
        -8.426807,
        40.818854
      ],
      [
        -8.426611,
        40.818965
      ],
      [
        -8.426402,
        40.819215
      ],
      [
        -8.426388,
        40.819222
      ],
      [
        -8.426398,
        40.819402
      ],
      [
        -8.426417,
        40.819593
      ],
      [
        -8.426504,
        40.819612
      ],
      [
        -8.426634,
        40.819823
      ],
      [
        -8.426786,
        40.82
      ],
      [
        -8.426831,
        40.820236
      ],
      [
        -8.426894,
        40.820364
      ],
      [
        -8.426959,
        40.820425
      ],
      [
        -8.427063,
        40.820459
      ],
      [
        -8.427224,
        40.820597
      ],
      [
        -8.427404,
        40.820769
      ],
      [
        -8.427591,
        40.820849
      ],
      [
        -8.427816,
        40.821015
      ],
      [
        -8.427963,
        40.821132
      ],
      [
        -8.428159,
        40.821163
      ],
      [
        -8.428241,
        40.821077
      ],
      [
        -8.428562,
        40.820934
      ],
      [
        -8.428564,
        40.820855
      ],
      [
        -8.428596,
        40.820883
      ],
      [
        -8.428727,
        40.820902
      ],
      [
        -8.428778,
        40.820843
      ],
      [
        -8.428897,
        40.82102
      ],
      [
        -8.428861,
        40.82109
      ],
      [
        -8.428787,
        40.82133
      ],
      [
        -8.428742,
        40.821453
      ],
      [
        -8.428769,
        40.821614
      ],
      [
        -8.428784,
        40.82187
      ],
      [
        -8.428945,
        40.821918
      ],
      [
        -8.429019,
        40.821989
      ],
      [
        -8.429119,
        40.822032
      ],
      [
        -8.429033,
        40.822156
      ],
      [
        -8.429073,
        40.82213
      ],
      [
        -8.429097,
        40.822375
      ],
      [
        -8.429142,
        40.822423
      ],
      [
        -8.429131,
        40.822536
      ],
      [
        -8.428809,
        40.822668
      ],
      [
        -8.428374,
        40.823003
      ],
      [
        -8.428283,
        40.823093
      ],
      [
        -8.427774,
        40.823198
      ],
      [
        -8.427504,
        40.823243
      ],
      [
        -8.427225,
        40.823371
      ],
      [
        -8.426975,
        40.823466
      ],
      [
        -8.426785,
        40.823598
      ],
      [
        -8.426685,
        40.823721
      ],
      [
        -8.426666,
        40.823957
      ]
    ]
  }
}