{
  "type": "Feature",
  "properties": {
    "id": "s-ti-u-d-i-turp-un-atpaka_xuqm",
    "name": "Sātiņu dīķi (turp un atpakaļ)",
    "distanceMeters": 3674.9624717267375,
    "elevationGainM": null
  },
  "geometry": {
    "type": "LineString",
    "coordinates": [
      [
        22.3498,
        56.62741
      ],
      [
        22.34982,
        56.62744
      ],
      [
        22.34973,
        56.62745
      ],
      [
        22.34983,
        56.62746
      ],
      [
        22.34974,
        56.62746
      ],
      [
        22.34965,
        56.62746
      ],
      [
        22.34957,
        56.62745
      ],
      [
        22.34947,
        56.62743
      ],
      [
        22.34939,
        56.62741
      ],
      [
        22.3493,
        56.62739
      ],
      [
        22.34921,
        56.62737
      ],
      [
        22.34914,
        56.62736
      ],
      [
        22.34904,
        56.62733
      ],
      [
        22.34895,
        56.62731
      ],
      [
        22.34886,
        56.62729
      ],
      [
        22.34877,
        56.62727
      ],
      [
        22.34869,
        56.62726
      ],
      [
        22.3486,
        56.62724
      ],
      [
        22.34853,
        56.62723
      ],
      [
        22.34844,
        56.62722
      ],
      [
        22.34835,
        56.62721
      ],
      [
        22.34826,
        56.62721
      ],
      [
        22.34818,
        56.62723
      ],
      [
        22.34809,
        56.62725
      ],
      [
        22.348,
        56.62727
      ],
      [
        22.3479,
        56.6273
      ],
      [
        22.34783,
        56.62733
      ],
      [
        22.34774,
        56.62735
      ],
      [
        22.34766,
        56.62738
      ],
      [
        22.34758,
        56.6274
      ],
      [
        22.34751,
        56.62742
      ],
      [
        22.34743,
        56.62744
      ],
      [
        22.34734,
        56.62747
      ],
      [
        22.34725,
        56.6275
      ],
      [
        22.34716,
        56.62752
      ],
      [
        22.34706,
        56.62754
      ],
      [
        22.34696,
        56.62755
      ],
      [
        22.34686,
        56.62757
      ],
      [
        22.34678,
        56.62758
      ],
      [
        22.3467,
        56.62759
      ],
      [
        22.34661,
        56.6276
      ],
      [
        22.34652,
        56.62761
      ],
      [
        22.34643,
        56.62761
      ],
      [
        22.34633,
        56.62762
      ],
      [
        22.34624,
        56.62763
      ],
      [
        22.34616,
        56.62765
      ],
      [
        22.34607,
        56.62767
      ],
      [
        22.346,
        56.62769
      ],
      [
        22.34593,
        56.62772
      ],
      [
        22.34588,
        56.62776
      ],
      [
        22.34582,
        56.62781
      ],
      [
        22.34578,
        56.62786
      ],
      [
        22.34574,
        56.62791
      ],
      [
        22.34571,
        56.62797
      ],
      [
        22.34569,
        56.62802
      ],
      [
        22.34566,
        56.62807
      ],
      [
        22.34563,
        56.62813
      ],
      [
        22.3456,
        56.62818
      ],
      [
        22.34557,
        56.62823
      ],
      [
        22.34555,
        56.62827
      ],
      [
        22.34552,
        56.62832
      ],
      [
        22.34549,
        56.62838
      ],
      [
        22.34546,
        56.62842
      ],
      [
        22.34544,
        56.62847
      ],
      [
        22.34542,
        56.62852
      ],
      [
        22.34539,
        56.62857
      ],
      [
        22.34537,
        56.62862
      ],
      [
        22.34534,
        56.62868
      ],
      [
        22.34531,
        56.62873
      ],
      [
        22.34528,
        56.62879
      ],
      [
        22.34525,
        56.62885
      ],
      [
        22.34522,
        56.6289
      ],
      [
        22.3452,
        56.62896
      ],
      [
        22.34518,
        56.62901
      ],
      [
        22.34516,
        56.62906
      ],
      [
        22.34513,
        56.62911
      ],
      [
        22.3451,
        56.62916
      ],
      [
        22.34506,
        56.62921
      ],
      [
        22.34503,
        56.62926
      ],
      [
        22.34499,
        56.62931
      ],
      [
        22.34494,
        56.62936
      ],
      [
        22.34489,
        56.62941
      ],
      [
        22.34485,
        56.62945
      ],
      [
        22.34478,
        56.62949
      ],
      [
        22.34474,
        56.62954
      ],
      [
        22.34469,
        56.62958
      ],
      [
        22.34464,
        56.62961
      ],
      [
        22.34458,
        56.62965
      ],
      [
        22.34453,
        56.62969
      ],
      [
        22.34448,
        56.62973
      ],
      [
        22.34445,
        56.62977
      ],
      [
        22.34442,
        56.62982
      ],
      [
        22.34436,
        56.62986
      ],
      [
        22.34429,
        56.62991
      ],
      [
        22.34423,
        56.62994
      ],
      [
        22.34418,
        56.62998
      ],
      [
        22.34413,
        56.63002
      ],
      [
        22.34407,
        56.63006
      ],
      [
        22.34402,
        56.6301
      ],
      [
        22.34397,
        56.63013
      ],
      [
        22.34392,
        56.63017
      ],
      [
        22.34387,
        56.63021
      ],
      [
        22.34383,
        56.63026
      ],
      [
        22.3438,
        56.63031
      ],
      [
        22.34376,
        56.63035
      ],
      [
        22.34371,
        56.63039
      ],
      [
        22.34366,
        56.63042
      ],
      [
        22.3436,
        56.63046
      ],
      [
        22.34354,
        56.63049
      ],
      [
        22.34347,
        56.63054
      ],
      [
        22.3434,
        56.63058
      ],
      [
        22.34333,
        56.63062
      ],
      [
        22.34326,
        56.63067
      ],
      [
        22.34319,
        56.63071
      ],
      [
        22.34312,
        56.63075
      ],
      [
        22.34305,
        56.63079
      ],
      [
        22.34301,
        56.63083
      ],
      [
        22.34295,
        56.63087
      ],
      [
        22.34289,
        56.63092
      ],
      [
        22.34285,
        56.63096
      ],
      [
        22.34278,
        56.631
      ],
      [
        22.3427,
        56.63104
      ],
      [
        22.34264,
        56.63108
      ],
      [
        22.3426,
        56.63113
      ],
      [
        22.34255,
        56.63117
      ],
      [
        22.34249,
        56.63121
      ],
      [
        22.34244,
        56.63127
      ],
      [
        22.34239,
        56.6313
      ],
      [
        22.34232,
        56.63135
      ],
      [
        22.34225,
        56.63138
      ],
      [
        22.34217,
        56.63142
      ],
      [
        22.34209,
        56.63146
      ],
      [
        22.34204,
        56.6315
      ],
      [
        22.34198,
        56.63155
      ],
      [
        22.34192,
        56.63158
      ],
      [
        22.34186,
        56.63161
      ],
      [
        22.34178,
        56.63164
      ],
      [
        22.34169,
        56.63167
      ],
      [
        22.34161,
        56.63171
      ],
      [
        22.34154,
        56.63174
      ],
      [
        22.34146,
        56.63177
      ],
      [
        22.34142,
        56.63182
      ],
      [
        22.34138,
        56.63188
      ],
      [
        22.34131,
        56.63192
      ],
      [
        22.34124,
        56.63196
      ],
      [
        22.34119,
        56.632
      ],
      [
        22.34114,
        56.63205
      ],
      [
        22.34107,
        56.63209
      ],
      [
        22.341,
        56.63213
      ],
      [
        22.34093,
        56.63215
      ],
      [
        22.34087,
        56.63219
      ],
      [
        22.3408,
        56.63223
      ],
      [
        22.34072,
        56.63226
      ],
      [
        22.34065,
        56.63231
      ],
      [
        22.34058,
        56.63235
      ],
      [
        22.34053,
        56.6324
      ],
      [
        22.34048,
        56.63244
      ],
      [
        22.34042,
        56.63249
      ],
      [
        22.34037,
        56.63253
      ],
      [
        22.34033,
        56.63257
      ],
      [
        22.34029,
        56.63262
      ],
      [
        22.34022,
        56.63266
      ],
      [
        22.34016,
        56.6327
      ],
      [
        22.3401,
        56.63274
      ],
      [
        22.34005,
        56.63278
      ],
      [
        22.33999,
        56.63282
      ],
      [
        22.33994,
        56.63286
      ],
      [
        22.33989,
        56.6329
      ],
      [
        22.33983,
        56.63293
      ],
      [
        22.33977,
        56.63298
      ],
      [
        22.33972,
        56.63303
      ],
      [
        22.33966,
        56.63307
      ],
      [
        22.33961,
        56.63311
      ],
      [
        22.33955,
        56.63315
      ],
      [
        22.3395,
        56.63319
      ],
      [
        22.33945,
        56.63324
      ],
      [
        22.33938,
        56.63329
      ],
      [
        22.33931,
        56.63333
      ],
      [
        22.33925,
        56.63338
      ],
      [
        22.3392,
        56.63342
      ],
      [
        22.33913,
        56.63346
      ],
      [
        22.33908,
        56.63351
      ],
      [
        22.33902,
        56.63356
      ],
      [
        22.33898,
        56.6336
      ],
      [
        22.33891,
        56.63364
      ],
      [
        22.33885,
        56.63368
      ],
      [
        22.33879,
        56.63372
      ],
      [
        22.3387,
        56.63375
      ],
      [
        22.33862,
        56.63378
      ],
      [
        22.33856,
        56.63382
      ],
      [
        22.33848,
        56.63385
      ],
      [
        22.33842,
        56.63389
      ],
      [
        22.33835,
        56.63392
      ],
      [
        22.33829,
        56.63395
      ],
      [
        22.33824,
        56.63401
      ],
      [
        22.3382,
        56.63406
      ],
      [
        22.33814,
        56.63411
      ],
      [
        22.33808,
        56.63415
      ],
      [
        22.33803,
        56.63419
      ],
      [
        22.33797,
        56.63422
      ],
      [
        22.33791,
        56.63426
      ],
      [
        22.33784,
        56.6343
      ],
      [
        22.33779,
        56.63434
      ],
      [
        22.33777,
        56.63439
      ],
      [
        22.33771,
        56.63436
      ],
      [
        22.33764,
        56.63439
      ],
      [
        22.33759,
        56.63444
      ],
      [
        22.33754,
        56.63448
      ],
      [
        22.33748,
        56.63452
      ],
      [
        22.33742,
        56.63456
      ],
      [
        22.33736,
        56.6346
      ],
      [
        22.33729,
        56.63463
      ],
      [
        22.33722,
        56.63467
      ],
      [
        22.33716,
        56.63471
      ],
      [
        22.33712,
        56.63476
      ],
      [
        22.33708,
        56.6348
      ],
      [
        22.33703,
        56.63484
      ],
      [
        22.33697,
        56.63487
      ],
      [
        22.3369,
        56.63491
      ],
      [
        22.33684,
        56.63494
      ],
      [
        22.33678,
        56.63499
      ],
      [
        22.33672,
        56.63502
      ],
      [
        22.33664,
        56.63505
      ],
      [
        22.33657,
        56.63509
      ],
      [
        22.33649,
        56.63512
      ],
      [
        22.33641,
        56.63515
      ],
      [
        22.33631,
        56.6352
      ],
      [
        22.33624,
        56.63525
      ],
      [
        22.33617,
        56.63529
      ],
      [
        22.33612,
        56.63533
      ],
      [
        22.33606,
        56.63537
      ],
      [
        22.336,
        56.6354
      ],
      [
        22.33595,
        56.63544
      ],
      [
        22.3359,
        56.63548
      ],
      [
        22.33585,
        56.63552
      ],
      [
        22.33579,
        56.63557
      ],
      [
        22.33573,
        56.6356
      ],
      [
        22.33567,
        56.63564
      ],
      [
        22.33561,
        56.63568
      ],
      [
        22.33556,
        56.63572
      ],
      [
        22.3355,
        56.63576
      ],
      [
        22.33543,
        56.63579
      ],
      [
        22.33538,
        56.63583
      ],
      [
        22.33532,
        56.63587
      ],
      [
        22.33526,
        56.6359
      ],
      [
        22.33521,
        56.63594
      ],
      [
        22.33514,
        56.63597
      ],
      [
        22.33508,
        56.63601
      ],
      [
        22.33503,
        56.63605
      ],
      [
        22.33496,
        56.63609
      ],
      [
        22.3349,
        56.63613
      ],
      [
        22.33485,
        56.63617
      ],
      [
        22.33479,
        56.63621
      ],
      [
        22.33473,
        56.63625
      ],
      [
        22.33469,
        56.6363
      ],
      [
        22.33466,
        56.63634
      ],
      [
        22.33463,
        56.63639
      ],
      [
        22.33461,
        56.63643
      ],
      [
        22.33459,
        56.63648
      ],
      [
        22.33458,
        56.63653
      ],
      [
        22.33456,
        56.63657
      ],
      [
        22.33454,
        56.63663
      ],
      [
        22.33452,
        56.63668
      ],
      [
        22.33451,
        56.63673
      ],
      [
        22.33449,
        56.63678
      ],
      [
        22.33447,
        56.63683
      ],
      [
        22.33445,
        56.63688
      ],
      [
        22.33443,
        56.63692
      ],
      [
        22.33441,
        56.63698
      ],
      [
        22.33441,
        56.63702
      ],
      [
        22.33439,
        56.63707
      ],
      [
        22.33436,
        56.63712
      ],
      [
        22.33435,
        56.63717
      ],
      [
        22.33438,
        56.63721
      ],
      [
        22.33447,
        56.63722
      ],
      [
        22.33456,
        56.63724
      ],
      [
        22.33457,
        56.63728
      ],
      [
        22.33457,
        56.63725
      ],
      [
        22.33457,
        56.63728
      ],
      [
        22.33453,
        56.63731
      ],
      [
        22.33459,
        56.63728
      ],
      [
        22.33455,
        56.63724
      ],
      [
        22.33447,
        56.63722
      ],
      [
        22.33438,
        56.6372
      ],
      [
        22.33428,
        56.63726
      ],
      [
        22.33425,
        56.6373
      ],
      [
        22.33422,
        56.63735
      ],
      [
        22.33418,
        56.6374
      ],
      [
        22.33426,
        56.63738
      ],
      [
        22.33428,
        56.63733
      ],
      [
        22.3343,
        56.63729
      ],
      [
        22.33432,
        56.63724
      ],
      [
        22.33435,
        56.63719
      ],
      [
        22.33437,
        56.63713
      ],
      [
        22.33439,
        56.63709
      ],
      [
        22.3344,
        56.63704
      ],
      [
        22.33441,
        56.63699
      ],
      [
        22.33443,
        56.63694
      ],
      [
        22.33446,
        56.63689
      ],
      [
        22.33449,
        56.63683
      ],
      [
        22.33449,
        56.63679
      ],
      [
        22.33448,
        56.63674
      ],
      [
        22.33452,
        56.63669
      ],
      [
        22.33454,
        56.63664
      ],
      [
        22.33455,
        56.63659
      ],
      [
        22.33457,
        56.63654
      ],
      [
        22.33459,
        56.63649
      ],
      [
        22.3346,
        56.63645
      ],
      [
        22.33463,
        56.6364
      ],
      [
        22.33462,
        56.63645
      ],
      [
        22.3346,
        56.6365
      ],
      [
        22.33458,
        56.63654
      ],
      [
        22.33455,
        56.63659
      ],
      [
        22.33454,
        56.63664
      ],
      [
        22.33452,
        56.6367
      ],
      [
        22.3345,
        56.63676
      ],
      [
        22.33448,
        56.63682
      ],
      [
        22.33446,
        56.63689
      ],
      [
        22.33443,
        56.63695
      ],
      [
        22.33441,
        56.63701
      ],
      [
        22.3344,
        56.63707
      ],
      [
        22.33438,
        56.63713
      ],
      [
        22.33437,
        56.63718
      ],
      [
        22.33445,
        56.63722
      ],
      [
        22.33455,
        56.63723
      ],
      [
        22.33459,
        56.63728
      ],
      [
        22.33454,
        56.63728
      ],
      [
        22.33449,
        56.63723
      ],
      [
        22.33439,
        56.63721
      ],
      [
        22.33435,
        56.63716
      ],
      [
        22.33435,
        56.63711
      ],
      [
        22.33437,
        56.63707
      ],
      [
        22.33439,
        56.63701
      ],
      [
        22.33441,
        56.63695
      ],
      [
        22.33443,
        56.6369
      ],
      [
        22.33445,
        56.63684
      ],
      [
        22.33447,
        56.63679
      ],
      [
        22.33448,
        56.63674
      ],
      [
        22.3345,
        56.63668
      ],
      [
        22.33452,
        56.63663
      ],
      [
        22.33454,
        56.63658
      ],
      [
        22.33457,
        56.63652
      ],
      [
        22.33459,
        56.63648
      ],
      [
        22.3346,
        56.63643
      ],
      [
        22.33462,
        56.63639
      ],
      [
        22.33464,
        56.63633
      ],
      [
        22.33466,
        56.63627
      ],
      [
        22.33469,
        56.63622
      ],
      [
        22.3347,
        56.63617
      ],
      [
        22.33479,
        56.63614
      ],
      [
        22.33487,
        56.63612
      ],
      [
        22.33494,
        56.63609
      ],
      [
        22.335,
        56.63605
      ],
      [
        22.33508,
        56.63601
      ],
      [
        22.33514,
        56.63597
      ],
      [
        22.3352,
        56.63593
      ],
      [
        22.33528,
        56.6359
      ],
      [
        22.33536,
        56.63586
      ],
      [
        22.33542,
        56.63583
      ],
      [
        22.33547,
        56.63579
      ],
      [
        22.3355,
        56.63574
      ],
      [
        22.33556,
        56.6357
      ],
      [
        22.33562,
        56.63566
      ],
      [
        22.33567,
        56.63562
      ],
      [
        22.33574,
        56.63559
      ],
      [
        22.33581,
        56.63555
      ],
      [
        22.33588,
        56.63551
      ],
      [
        22.33595,
        56.63547
      ],
      [
        22.33602,
        56.63544
      ],
      [
        22.33609,
        56.6354
      ],
      [
        22.33615,
        56.63537
      ],
      [
        22.33621,
        56.63533
      ],
      [
        22.33628,
        56.6353
      ],
      [
        22.33634,
        56.63526
      ],
      [
        22.33638,
        56.63522
      ],
      [
        22.33645,
        56.63518
      ],
      [
        22.3365,
        56.63514
      ],
      [
        22.33656,
        56.6351
      ],
      [
        22.33662,
        56.63506
      ],
      [
        22.33669,
        56.63503
      ],
      [
        22.33675,
        56.63499
      ],
      [
        22.33681,
        56.63496
      ],
      [
        22.33687,
        56.63492
      ],
      [
        22.33693,
        56.63487
      ],
      [
        22.337,
        56.63483
      ],
      [
        22.33707,
        56.63479
      ],
      [
        22.33713,
        56.63474
      ],
      [
        22.33718,
        56.63469
      ],
      [
        22.33722,
        56.63466
      ],
      [
        22.33726,
        56.63461
      ],
      [
        22.33731,
        56.6346
      ],
      [
        22.33735,
        56.63456
      ],
      [
        22.33741,
        56.63452
      ],
      [
        22.33748,
        56.63448
      ],
      [
        22.33755,
        56.63444
      ],
      [
        22.33761,
        56.6344
      ],
      [
        22.33769,
        56.63437
      ],
      [
        22.33776,
        56.63433
      ],
      [
        22.33781,
        56.63429
      ],
      [
        22.33787,
        56.63425
      ],
      [
        22.33794,
        56.63421
      ],
      [
        22.338,
        56.63418
      ],
      [
        22.33806,
        56.63413
      ],
      [
        22.33811,
        56.6341
      ],
      [
        22.33817,
        56.63406
      ],
      [
        22.33824,
        56.63403
      ],
      [
        22.3383,
        56.634
      ],
      [
        22.33836,
        56.63396
      ],
      [
        22.33842,
        56.63393
      ],
      [
        22.33849,
        56.63389
      ],
      [
        22.33856,
        56.63385
      ],
      [
        22.33862,
        56.63382
      ],
      [
        22.33869,
        56.63379
      ],
      [
        22.33876,
        56.63375
      ],
      [
        22.33883,
        56.63371
      ],
      [
        22.33888,
        56.63368
      ],
      [
        22.33893,
        56.63364
      ],
      [
        22.339,
        56.6336
      ],
      [
        22.33905,
        56.63356
      ],
      [
        22.33908,
        56.63351
      ],
      [
        22.33912,
        56.63347
      ],
      [
        22.33914,
        56.63344
      ],
      [
        22.3392,
        56.63341
      ],
      [
        22.33926,
        56.63336
      ],
      [
        22.33932,
        56.63332
      ],
      [
        22.33938,
        56.63327
      ],
      [
        22.33945,
        56.63323
      ],
      [
        22.33951,
        56.63318
      ],
      [
        22.33957,
        56.63314
      ],
      [
        22.33964,
        56.63311
      ],
      [
        22.33973,
        56.6331
      ],
      [
        22.33982,
        56.6331
      ],
      [
        22.33991,
        56.63312
      ],
      [
        22.33999,
        56.63315
      ],
      [
        22.34006,
        56.63317
      ],
      [
        22.34014,
        56.6332
      ],
      [
        22.34022,
        56.63322
      ],
      [
        22.3403,
        56.63324
      ],
      [
        22.34037,
        56.63327
      ],
      [
        22.34044,
        56.63331
      ],
      [
        22.34051,
        56.63336
      ],
      [
        22.34057,
        56.6334
      ],
      [
        22.34063,
        56.63345
      ],
      [
        22.3407,
        56.63348
      ],
      [
        22.34077,
        56.6335
      ],
      [
        22.34067,
        56.63349
      ],
      [
        22.34059,
        56.63351
      ],
      [
        22.34059,
        56.63347
      ],
      [
        22.34056,
        56.63342
      ],
      [
        22.34053,
        56.63337
      ],
      [
        22.34048,
        56.63333
      ],
      [
        22.34041,
        56.63329
      ],
      [
        22.34033,
        56.63326
      ],
      [
        22.34025,
        56.63322
      ],
      [
        22.34016,
        56.63319
      ],
      [
        22.34008,
        56.63316
      ],
      [
        22.34,
        56.63313
      ],
      [
        22.33992,
        56.63311
      ],
      [
        22.33985,
        56.63307
      ],
      [
        22.33981,
        56.63303
      ],
      [
        22.33981,
        56.63298
      ],
      [
        22.33985,
        56.63294
      ],
      [
        22.3399,
        56.6329
      ],
      [
        22.33997,
        56.63287
      ],
      [
        22.34003,
        56.63284
      ],
      [
        22.34009,
        56.6328
      ],
      [
        22.34013,
        56.63276
      ],
      [
        22.34014,
        56.63271
      ],
      [
        22.34017,
        56.63266
      ],
      [
        22.34022,
        56.63262
      ],
      [
        22.34028,
        56.63257
      ],
      [
        22.34034,
        56.63253
      ],
      [
        22.3404,
        56.63249
      ],
      [
        22.34046,
        56.63245
      ],
      [
        22.34052,
        56.63241
      ],
      [
        22.34057,
        56.63236
      ],
      [
        22.34062,
        56.63232
      ],
      [
        22.34067,
        56.63228
      ],
      [
        22.34073,
        56.63225
      ],
      [
        22.3408,
        56.63222
      ],
      [
        22.34087,
        56.63219
      ],
      [
        22.34094,
        56.63216
      ],
      [
        22.341,
        56.63212
      ],
      [
        22.34106,
        56.63208
      ],
      [
        22.34111,
        56.63203
      ],
      [
        22.34116,
        56.63199
      ],
      [
        22.34123,
        56.63196
      ],
      [
        22.34131,
        56.63192
      ],
      [
        22.34139,
        56.63189
      ],
      [
        22.34145,
        56.63185
      ],
      [
        22.34151,
        56.63182
      ],
      [
        22.34157,
        56.63178
      ],
      [
        22.34163,
        56.63175
      ],
      [
        22.34171,
        56.63172
      ],
      [
        22.34177,
        56.63169
      ],
      [
        22.34183,
        56.63166
      ],
      [
        22.34191,
        56.63162
      ],
      [
        22.34197,
        56.63158
      ],
      [
        22.34202,
        56.63155
      ],
      [
        22.34205,
        56.6315
      ],
      [
        22.34204,
        56.63145
      ],
      [
        22.3421,
        56.63141
      ],
      [
        22.3422,
        56.63141
      ],
      [
        22.34228,
        56.63138
      ],
      [
        22.34234,
        56.63135
      ],
      [
        22.34239,
        56.63131
      ],
      [
        22.34245,
        56.63126
      ],
      [
        22.34251,
        56.63123
      ],
      [
        22.34257,
        56.63119
      ],
      [
        22.34262,
        56.63115
      ],
      [
        22.34268,
        56.6311
      ],
      [
        22.34274,
        56.63106
      ],
      [
        22.34279,
        56.63102
      ],
      [
        22.34286,
        56.63098
      ],
      [
        22.34292,
        56.63093
      ],
      [
        22.34296,
        56.63089
      ],
      [
        22.34302,
        56.63084
      ],
      [
        22.34307,
        56.6308
      ],
      [
        22.34313,
        56.63076
      ],
      [
        22.34319,
        56.63072
      ],
      [
        22.34325,
        56.63067
      ],
      [
        22.3433,
        56.63063
      ],
      [
        22.34336,
        56.63059
      ],
      [
        22.3434,
        56.63055
      ],
      [
        22.34345,
        56.63051
      ],
      [
        22.34351,
        56.63046
      ],
      [
        22.34356,
        56.63041
      ],
      [
        22.34362,
        56.63037
      ],
      [
        22.34369,
        56.63032
      ],
      [
        22.34375,
        56.63027
      ],
      [
        22.34381,
        56.63024
      ],
      [
        22.34384,
        56.6302
      ],
      [
        22.3439,
        56.63015
      ],
      [
        22.34396,
        56.63011
      ],
      [
        22.34402,
        56.63008
      ],
      [
        22.34408,
        56.63003
      ],
      [
        22.34413,
        56.62999
      ],
      [
        22.3442,
        56.62995
      ],
      [
        22.34426,
        56.6299
      ],
      [
        22.34431,
        56.62986
      ],
      [
        22.34437,
        56.62982
      ],
      [
        22.34443,
        56.62978
      ],
      [
        22.34449,
        56.62974
      ],
      [
        22.34455,
        56.6297
      ],
      [
        22.3446,
        56.62965
      ],
      [
        22.34466,
        56.62961
      ],
      [
        22.34471,
        56.62957
      ],
      [
        22.34476,
        56.62953
      ],
      [
        22.34482,
        56.62948
      ],
      [
        22.34488,
        56.62945
      ],
      [
        22.34496,
        56.62945
      ],
      [
        22.345,
        56.6294
      ],
      [
        22.34501,
        56.62935
      ],
      [
        22.34503,
        56.6293
      ],
      [
        22.34506,
        56.62925
      ],
      [
        22.3451,
        56.62921
      ],
      [
        22.34513,
        56.62916
      ],
      [
        22.34516,
        56.62911
      ],
      [
        22.34519,
        56.62906
      ],
      [
        22.34522,
        56.629
      ],
      [
        22.34523,
        56.62894
      ],
      [
        22.34525,
        56.6289
      ],
      [
        22.34527,
        56.62885
      ],
      [
        22.34527,
        56.6288
      ],
      [
        22.34529,
        56.62875
      ],
      [
        22.34532,
        56.6287
      ],
      [
        22.34535,
        56.62865
      ],
      [
        22.34538,
        56.6286
      ],
      [
        22.34542,
        56.62855
      ],
      [
        22.34545,
        56.62849
      ],
      [
        22.34547,
        56.62844
      ],
      [
        22.34548,
        56.62839
      ],
      [
        22.34551,
        56.62834
      ],
      [
        22.34554,
        56.62829
      ],
      [
        22.34557,
        56.62825
      ],
      [
        22.3456,
        56.6282
      ],
      [
        22.34563,
        56.62816
      ],
      [
        22.34567,
        56.62811
      ],
      [
        22.34571,
        56.62806
      ],
      [
        22.34574,
        56.62801
      ],
      [
        22.34577,
        56.62795
      ],
      [
        22.34579,
        56.6279
      ],
      [
        22.34582,
        56.62784
      ],
      [
        22.34587,
        56.6278
      ],
      [
        22.34593,
        56.62775
      ],
      [
        22.346,
        56.62771
      ],
      [
        22.34608,
        56.62768
      ],
      [
        22.34615,
        56.62765
      ],
      [
        22.34608,
        56.62763
      ],
      [
        22.34616,
        56.62766
      ],
      [
        22.34624,
        56.62766
      ],
      [
        22.34634,
        56.62764
      ],
      [
        22.34644,
        56.62762
      ],
      [
        22.34654,
        56.6276
      ],
      [
        22.34663,
        56.62758
      ],
      [
        22.34672,
        56.62757
      ],
      [
        22.34679,
        56.62755
      ],
      [
        22.34689,
        56.62754
      ],
      [
        22.34699,
        56.62752
      ],
      [
        22.34709,
        56.6275
      ],
      [
        22.34719,
        56.62748
      ],
      [
        22.34725,
        56.62745
      ],
      [
        22.34735,
        56.62745
      ],
      [
        22.34744,
        56.62742
      ],
      [
        22.34751,
        56.6274
      ],
      [
        22.3476,
        56.62738
      ],
      [
        22.34768,
        56.62736
      ],
      [
        22.34775,
        56.62734
      ],
      [
        22.34783,
        56.62732
      ],
      [
        22.3479,
        56.6273
      ],
      [
        22.34798,
        56.62728
      ],
      [
        22.34807,
        56.62725
      ],
      [
        22.34816,
        56.62724
      ],
      [
        22.34819,
        56.62728
      ],
      [
        22.34818,
        56.62734
      ],
      [
        22.34818,
        56.62728
      ],
      [
        22.34823,
        56.62724
      ],
      [
        22.3483,
        56.62721
      ],
      [
        22.3484,
        56.6272
      ],
      [
        22.34848,
        56.62722
      ],
      [
        22.34852,
        56.62726
      ],
      [
        22.34861,
        56.62725
      ],
      [
        22.3487,
        56.62724
      ],
      [
        22.34878,
        56.62726
      ],
      [
        22.34887,
        56.62727
      ],
      [
        22.34896,
        56.62728
      ],
      [
        22.34904,
        56.6273
      ],
      [
        22.34913,
        56.62733
      ],
      [
        22.3492,
        56.62735
      ],
      [
        22.34927,
        56.62738
      ],
      [
        22.34935,
        56.6274
      ],
      [
        22.34946,
        56.62741
      ],
      [
        22.34944,
        56.62736
      ],
      [
        22.34948,
        56.62741
      ],
      [
        22.34956,
        56.62742
      ],
      [
        22.34966,
        56.62744
      ],
      [
        22.34975,
        56.62744
      ],
      [
        22.34983,
        56.62746
      ],
      [
        22.34986,
        56.62751
      ]
    ]
  }
}