{
  "type": "Feature",
  "properties": {
    "id": "saldus-kalns-tas-parks-un-cieceres-taka_xxru",
    "name": "Saldus: Kalnsētas parks un Cieceres taka",
    "distanceMeters": 9860.14828336621,
    "elevationGainM": null
  },
  "geometry": {
    "type": "LineString",
    "coordinates": [
      [
        22.510623,
        56.667525
      ],
      [
        22.510641,
        56.667552
      ],
      [
        22.510377,
        56.667436
      ],
      [
        22.51019,
        56.667413
      ],
      [
        22.509942,
        56.667523
      ],
      [
        22.50986,
        56.667683
      ],
      [
        22.509747,
        56.667696
      ],
      [
        22.509771,
        56.667894
      ],
      [
        22.509666,
        56.667939
      ],
      [
        22.509874,
        56.668085
      ],
      [
        22.510155,
        56.668174
      ],
      [
        22.510511,
        56.668242
      ],
      [
        22.510476,
        56.668181
      ],
      [
        22.510903,
        56.668384
      ],
      [
        22.510913,
        56.668522
      ],
      [
        22.511319,
        56.668572
      ],
      [
        22.511266,
        56.668468
      ],
      [
        22.511174,
        56.668434
      ],
      [
        22.511311,
        56.668446
      ],
      [
        22.511311,
        56.668511
      ],
      [
        22.511957,
        56.668461
      ],
      [
        22.512427,
        56.668492
      ],
      [
        22.512841,
        56.668355
      ],
      [
        22.513705,
        56.668488
      ],
      [
        22.514428,
        56.668379
      ],
      [
        22.514595,
        56.668235
      ],
      [
        22.514686,
        56.668222
      ],
      [
        22.514615,
        56.668497
      ],
      [
        22.514789,
        56.668459
      ],
      [
        22.514986,
        56.668526
      ],
      [
        22.515129,
        56.668469
      ],
      [
        22.515745,
        56.668599
      ],
      [
        22.516216,
        56.668476
      ],
      [
        22.51659,
        56.668495
      ],
      [
        22.516497,
        56.66842
      ],
      [
        22.516487,
        56.668478
      ],
      [
        22.516385,
        56.668501
      ],
      [
        22.517255,
        56.668208
      ],
      [
        22.517411,
        56.667861
      ],
      [
        22.517262,
        56.667856
      ],
      [
        22.517101,
        56.667934
      ],
      [
        22.517314,
        56.668112
      ],
      [
        22.517437,
        56.668088
      ],
      [
        22.517352,
        56.668051
      ],
      [
        22.517289,
        56.668052
      ],
      [
        22.517309,
        56.668091
      ],
      [
        22.517137,
        56.668061
      ],
      [
        22.516855,
        56.667897
      ],
      [
        22.516478,
        56.667912
      ],
      [
        22.516483,
        56.667989
      ],
      [
        22.516532,
        56.667824
      ],
      [
        22.51642,
        56.667751
      ],
      [
        22.516503,
        56.667835
      ],
      [
        22.515946,
        56.667685
      ],
      [
        22.516259,
        56.667526
      ],
      [
        22.51598,
        56.667655
      ],
      [
        22.516226,
        56.667682
      ],
      [
        22.516492,
        56.667815
      ],
      [
        22.516167,
        56.667797
      ],
      [
        22.516208,
        56.667782
      ],
      [
        22.516081,
        56.667858
      ],
      [
        22.516635,
        56.667651
      ],
      [
        22.516753,
        56.66756
      ],
      [
        22.516806,
        56.66731
      ],
      [
        22.51701,
        56.667223
      ],
      [
        22.516903,
        56.667177
      ],
      [
        22.51688,
        56.666786
      ],
      [
        22.517149,
        56.666472
      ],
      [
        22.516912,
        56.666474
      ],
      [
        22.516881,
        56.666379
      ],
      [
        22.516563,
        56.666319
      ],
      [
        22.515942,
        56.665754
      ],
      [
        22.515799,
        56.665769
      ],
      [
        22.51574,
        56.665683
      ],
      [
        22.515441,
        56.665753
      ],
      [
        22.515669,
        56.665741
      ],
      [
        22.515687,
        56.665786
      ],
      [
        22.516095,
        56.665427
      ],
      [
        22.516038,
        56.665291
      ],
      [
        22.516173,
        56.665203
      ],
      [
        22.516202,
        56.665027
      ],
      [
        22.516354,
        56.664903
      ],
      [
        22.51623,
        56.664731
      ],
      [
        22.516125,
        56.664743
      ],
      [
        22.516058,
        56.664841
      ],
      [
        22.515951,
        56.66487
      ],
      [
        22.515997,
        56.66465
      ],
      [
        22.515959,
        56.664681
      ],
      [
        22.516317,
        56.665027
      ],
      [
        22.516187,
        56.665102
      ],
      [
        22.515929,
        56.66511
      ],
      [
        22.516499,
        56.66519
      ],
      [
        22.516533,
        56.665226
      ],
      [
        22.516459,
        56.665235
      ],
      [
        22.516665,
        56.665271
      ],
      [
        22.5174,
        56.665098
      ],
      [
        22.517551,
        56.665135
      ],
      [
        22.517751,
        56.66526
      ],
      [
        22.518348,
        56.66528
      ],
      [
        22.518505,
        56.665179
      ],
      [
        22.518573,
        56.664832
      ],
      [
        22.519011,
        56.664714
      ],
      [
        22.519181,
        56.664754
      ],
      [
        22.519415,
        56.664723
      ],
      [
        22.519479,
        56.664764
      ],
      [
        22.520126,
        56.664572
      ],
      [
        22.520154,
        56.664485
      ],
      [
        22.520311,
        56.664436
      ],
      [
        22.520034,
        56.664419
      ],
      [
        22.520387,
        56.66435
      ],
      [
        22.520611,
        56.664144
      ],
      [
        22.520868,
        56.664038
      ],
      [
        22.521242,
        56.663591
      ],
      [
        22.521555,
        56.663576
      ],
      [
        22.521963,
        56.663485
      ],
      [
        22.522233,
        56.663493
      ],
      [
        22.522885,
        56.66379
      ],
      [
        22.522969,
        56.663701
      ],
      [
        22.522852,
        56.663728
      ],
      [
        22.522686,
        56.663697
      ],
      [
        22.522239,
        56.663913
      ],
      [
        22.521722,
        56.664213
      ],
      [
        22.521552,
        56.664378
      ],
      [
        22.521465,
        56.664366
      ],
      [
        22.521387,
        56.664411
      ],
      [
        22.520917,
        56.664842
      ],
      [
        22.519899,
        56.66501
      ],
      [
        22.519748,
        56.66518
      ],
      [
        22.51959,
        56.665261
      ],
      [
        22.51884,
        56.665435
      ],
      [
        22.518121,
        56.665758
      ],
      [
        22.517652,
        56.665635
      ],
      [
        22.516716,
        56.666273
      ],
      [
        22.516687,
        56.666567
      ],
      [
        22.517107,
        56.666908
      ],
      [
        22.517015,
        56.667369
      ],
      [
        22.517054,
        56.667481
      ],
      [
        22.517428,
        56.667816
      ],
      [
        22.517351,
        56.667913
      ],
      [
        22.517013,
        56.668095
      ],
      [
        22.516924,
        56.668373
      ],
      [
        22.516757,
        56.668337
      ],
      [
        22.516488,
        56.668454
      ],
      [
        22.516083,
        56.668496
      ],
      [
        22.515515,
        56.668401
      ],
      [
        22.515424,
        56.668479
      ],
      [
        22.514515,
        56.668421
      ],
      [
        22.514263,
        56.668457
      ],
      [
        22.514136,
        56.668406
      ],
      [
        22.513401,
        56.668424
      ],
      [
        22.512241,
        56.668809
      ],
      [
        22.51187,
        56.668682
      ],
      [
        22.511523,
        56.668727
      ],
      [
        22.51104,
        56.66854
      ],
      [
        22.510637,
        56.668482
      ],
      [
        22.509672,
        56.668218
      ],
      [
        22.509495,
        56.667834
      ],
      [
        22.509407,
        56.667798
      ],
      [
        22.509853,
        56.667707
      ],
      [
        22.50978,
        56.667511
      ],
      [
        22.509822,
        56.667433
      ],
      [
        22.510025,
        56.66734
      ],
      [
        22.510212,
        56.667379
      ],
      [
        22.510092,
        56.667491
      ],
      [
        22.510043,
        56.667466
      ],
      [
        22.5102,
        56.667504
      ],
      [
        22.510211,
        56.667594
      ],
      [
        22.510369,
        56.667351
      ],
      [
        22.51029,
        56.667567
      ],
      [
        22.51032,
        56.667706
      ],
      [
        22.510215,
        56.667585
      ],
      [
        22.509859,
        56.667623
      ],
      [
        22.509743,
        56.667678
      ],
      [
        22.509609,
        56.667912
      ],
      [
        22.509511,
        56.667948
      ],
      [
        22.507572,
        56.667792
      ],
      [
        22.507534,
        56.667883
      ],
      [
        22.507625,
        56.667985
      ],
      [
        22.508484,
        56.668311
      ],
      [
        22.508562,
        56.668418
      ],
      [
        22.50856,
        56.668568
      ],
      [
        22.508935,
        56.668635
      ],
      [
        22.509297,
        56.668788
      ],
      [
        22.510149,
        56.668974
      ],
      [
        22.511221,
        56.669333
      ],
      [
        22.511891,
        56.669444
      ],
      [
        22.512233,
        56.669637
      ],
      [
        22.512117,
        56.669683
      ],
      [
        22.512171,
        56.669625
      ],
      [
        22.512118,
        56.669595
      ],
      [
        22.512139,
        56.669787
      ],
      [
        22.511941,
        56.669932
      ],
      [
        22.511972,
        56.669886
      ],
      [
        22.51217,
        56.669901
      ],
      [
        22.511344,
        56.670309
      ],
      [
        22.511495,
        56.670397
      ],
      [
        22.511569,
        56.670541
      ],
      [
        22.51113,
        56.670587
      ],
      [
        22.511044,
        56.670652
      ],
      [
        22.51058,
        56.67064
      ],
      [
        22.510309,
        56.670927
      ],
      [
        22.509823,
        56.670773
      ],
      [
        22.509657,
        56.670822
      ],
      [
        22.509655,
        56.670694
      ],
      [
        22.509586,
        56.670637
      ],
      [
        22.509447,
        56.670561
      ],
      [
        22.509181,
        56.670524
      ],
      [
        22.509164,
        56.670458
      ],
      [
        22.508993,
        56.670404
      ],
      [
        22.508541,
        56.669862
      ],
      [
        22.508407,
        56.669774
      ],
      [
        22.508054,
        56.669738
      ],
      [
        22.507622,
        56.669556
      ],
      [
        22.507291,
        56.669525
      ],
      [
        22.506636,
        56.669212
      ],
      [
        22.506,
        56.66924
      ],
      [
        22.505396,
        56.669114
      ],
      [
        22.505458,
        56.669
      ],
      [
        22.505405,
        56.668838
      ],
      [
        22.50533,
        56.668813
      ],
      [
        22.505455,
        56.66854
      ],
      [
        22.505365,
        56.668574
      ],
      [
        22.505441,
        56.668803
      ],
      [
        22.505093,
        56.669193
      ],
      [
        22.504706,
        56.669069
      ],
      [
        22.504456,
        56.669056
      ],
      [
        22.504177,
        56.668954
      ],
      [
        22.503754,
        56.668623
      ],
      [
        22.50327,
        56.668408
      ],
      [
        22.502951,
        56.668547
      ],
      [
        22.502742,
        56.668562
      ],
      [
        22.50256,
        56.668642
      ],
      [
        22.502192,
        56.66895
      ],
      [
        22.502125,
        56.668965
      ],
      [
        22.501945,
        56.66888
      ],
      [
        22.50139,
        56.668945
      ],
      [
        22.50131,
        56.669082
      ],
      [
        22.501111,
        56.669121
      ],
      [
        22.500578,
        56.669439
      ],
      [
        22.500505,
        56.669536
      ],
      [
        22.500318,
        56.669598
      ],
      [
        22.499972,
        56.669506
      ],
      [
        22.499652,
        56.669473
      ],
      [
        22.49937,
        56.669381
      ],
      [
        22.498932,
        56.66911
      ],
      [
        22.49851,
        56.668993
      ],
      [
        22.4985,
        56.668956
      ],
      [
        22.49787,
        56.668819
      ],
      [
        22.497688,
        56.668834
      ],
      [
        22.49733,
        56.668785
      ],
      [
        22.497151,
        56.668669
      ],
      [
        22.49689,
        56.668634
      ],
      [
        22.496567,
        56.668487
      ],
      [
        22.49622,
        56.66875
      ],
      [
        22.495705,
        56.668578
      ],
      [
        22.495414,
        56.668629
      ],
      [
        22.495029,
        56.668609
      ],
      [
        22.494293,
        56.668469
      ],
      [
        22.494014,
        56.668361
      ],
      [
        22.49264,
        56.668156
      ],
      [
        22.49251,
        56.668109
      ],
      [
        22.492399,
        56.667997
      ],
      [
        22.491983,
        56.668136
      ],
      [
        22.491878,
        56.668127
      ],
      [
        22.491731,
        56.668021
      ],
      [
        22.492323,
        56.667706
      ],
      [
        22.492108,
        56.667643
      ],
      [
        22.491353,
        56.667711
      ],
      [
        22.491211,
        56.667814
      ],
      [
        22.490666,
        56.667606
      ],
      [
        22.490486,
        56.667494
      ],
      [
        22.489795,
        56.667465
      ],
      [
        22.490334,
        56.666977
      ],
      [
        22.491818,
        56.666609
      ],
      [
        22.491632,
        56.666701
      ],
      [
        22.491466,
        56.666609
      ],
      [
        22.490555,
        56.666653
      ],
      [
        22.490913,
        56.666416
      ],
      [
        22.491405,
        56.666211
      ],
      [
        22.491189,
        56.665886
      ],
      [
        22.491221,
        56.665957
      ],
      [
        22.491183,
        56.665924
      ],
      [
        22.491225,
        56.665821
      ],
      [
        22.490499,
        56.665455
      ],
      [
        22.490381,
        56.665457
      ],
      [
        22.490137,
        56.66556
      ],
      [
        22.489903,
        56.665536
      ],
      [
        22.489875,
        56.665478
      ],
      [
        22.489564,
        56.665434
      ],
      [
        22.488992,
        56.665222
      ],
      [
        22.489011,
        56.665076
      ],
      [
        22.48936,
        56.664788
      ],
      [
        22.489208,
        56.664841
      ],
      [
        22.489584,
        56.66474
      ],
      [
        22.489644,
        56.664676
      ],
      [
        22.489666,
        56.664561
      ],
      [
        22.489413,
        56.664418
      ],
      [
        22.489316,
        56.664432
      ],
      [
        22.488964,
        56.664337
      ],
      [
        22.488513,
        56.664373
      ],
      [
        22.488089,
        56.664491
      ],
      [
        22.487741,
        56.664452
      ],
      [
        22.487203,
        56.664225
      ],
      [
        22.487088,
        56.664046
      ],
      [
        22.486868,
        56.663886
      ],
      [
        22.486826,
        56.663795
      ],
      [
        22.486528,
        56.663613
      ],
      [
        22.486405,
        56.663456
      ],
      [
        22.486497,
        56.663352
      ],
      [
        22.487067,
        56.663023
      ],
      [
        22.487431,
        56.662878
      ],
      [
        22.487482,
        56.662792
      ],
      [
        22.487744,
        56.662629
      ],
      [
        22.488044,
        56.662618
      ],
      [
        22.488451,
        56.662182
      ],
      [
        22.488853,
        56.662011
      ],
      [
        22.48899,
        56.66201
      ],
      [
        22.48935,
        56.661814
      ],
      [
        22.48984,
        56.661686
      ],
      [
        22.490133,
        56.661545
      ],
      [
        22.49046,
        56.661725
      ],
      [
        22.490732,
        56.661814
      ],
      [
        22.49139,
        56.662315
      ],
      [
        22.491481,
        56.662488
      ],
      [
        22.49184,
        56.662816
      ],
      [
        22.491921,
        56.663065
      ],
      [
        22.492125,
        56.663091
      ],
      [
        22.492258,
        56.663154
      ],
      [
        22.492358,
        56.663311
      ],
      [
        22.49252,
        56.663425
      ],
      [
        22.4929,
        56.663539
      ],
      [
        22.493048,
        56.663673
      ],
      [
        22.492942,
        56.663863
      ],
      [
        22.492561,
        56.664053
      ],
      [
        22.492356,
        56.66421
      ],
      [
        22.49224,
        56.664385
      ],
      [
        22.492249,
        56.664199
      ],
      [
        22.492476,
        56.6641
      ],
      [
        22.492612,
        56.664091
      ],
      [
        22.492604,
        56.664051
      ],
      [
        22.493181,
        56.663978
      ],
      [
        22.493163,
        56.663931
      ],
      [
        22.493174,
        56.664025
      ],
      [
        22.493044,
        56.663812
      ],
      [
        22.493089,
        56.66379
      ],
      [
        22.494139,
        56.66411
      ],
      [
        22.494505,
        56.663992
      ],
      [
        22.49444,
        56.664157
      ],
      [
        22.495182,
        56.66443
      ],
      [
        22.49559,
        56.664453
      ],
      [
        22.495405,
        56.664594
      ],
      [
        22.495669,
        56.664725
      ],
      [
        22.496158,
        56.664878
      ],
      [
        22.496644,
        56.66489
      ],
      [
        22.497358,
        56.665169
      ],
      [
        22.497892,
        56.665294
      ],
      [
        22.498504,
        56.665554
      ],
      [
        22.498884,
        56.665638
      ],
      [
        22.49939,
        56.66585
      ],
      [
        22.499648,
        56.66601
      ],
      [
        22.500117,
        56.66616
      ],
      [
        22.500104,
        56.666302
      ],
      [
        22.499867,
        56.666291
      ],
      [
        22.499609,
        56.66619
      ],
      [
        22.500189,
        56.666303
      ],
      [
        22.500983,
        56.66662
      ],
      [
        22.501339,
        56.666684
      ],
      [
        22.501628,
        56.666891
      ],
      [
        22.501801,
        56.666877
      ],
      [
        22.501916,
        56.666811
      ],
      [
        22.502809,
        56.666924
      ],
      [
        22.503321,
        56.666853
      ],
      [
        22.503747,
        56.666764
      ],
      [
        22.504305,
        56.666545
      ],
      [
        22.505685,
        56.666244
      ],
      [
        22.506608,
        56.666229
      ],
      [
        22.507774,
        56.666344
      ],
      [
        22.50794,
        56.666399
      ],
      [
        22.508737,
        56.666264
      ],
      [
        22.509701,
        56.66632
      ],
      [
        22.509649,
        56.666459
      ],
      [
        22.50993,
        56.666564
      ],
      [
        22.510265,
        56.666566
      ],
      [
        22.5104,
        56.666654
      ],
      [
        22.51038,
        56.6669
      ],
      [
        22.510563,
        56.667394
      ],
      [
        22.510793,
        56.667483
      ],
      [
        22.510329,
        56.667603
      ],
      [
        22.51011,
        56.667434
      ],
      [
        22.510238,
        56.667511
      ],
      [
        22.510422,
        56.667507
      ]
    ]
  }
}