{
  "type": "Feature",
  "properties": {
    "id": "sn-peles-me-u-pastaiga-turp-un-atpaka_xs34",
    "name": "Snēpeles mežu pastaiga (turp un atpakaļ)",
    "distanceMeters": 5001.137612294837,
    "elevationGainM": null
  },
  "geometry": {
    "type": "LineString",
    "coordinates": [
      [
        21.944804,
        56.840325
      ],
      [
        21.944935,
        56.840506
      ],
      [
        21.945066,
        56.840717
      ],
      [
        21.945305,
        56.840973
      ],
      [
        21.94597,
        56.841115
      ],
      [
        21.946571,
        56.841182
      ],
      [
        21.947717,
        56.841321
      ],
      [
        21.948688,
        56.841412
      ],
      [
        21.949175,
        56.841476
      ],
      [
        21.949616,
        56.841532
      ],
      [
        21.949898,
        56.841628
      ],
      [
        21.950123,
        56.841764
      ],
      [
        21.950708,
        56.842286
      ],
      [
        21.951069,
        56.842663
      ],
      [
        21.951303,
        56.842873
      ],
      [
        21.951637,
        56.843215
      ],
      [
        21.952183,
        56.843727
      ],
      [
        21.952663,
        56.844143
      ],
      [
        21.952888,
        56.844378
      ],
      [
        21.953068,
        56.844646
      ],
      [
        21.953168,
        56.844867
      ],
      [
        21.953208,
        56.845065
      ],
      [
        21.953264,
        56.845329
      ],
      [
        21.953583,
        56.846196
      ],
      [
        21.953693,
        56.8465
      ],
      [
        21.953788,
        56.846833
      ],
      [
        21.953858,
        56.847009
      ],
      [
        21.953983,
        56.847341
      ],
      [
        21.954095,
        56.847676
      ],
      [
        21.954173,
        56.847897
      ],
      [
        21.95429,
        56.848086
      ],
      [
        21.954404,
        56.848342
      ],
      [
        21.954458,
        56.848532
      ],
      [
        21.954516,
        56.848736
      ],
      [
        21.954625,
        56.848956
      ],
      [
        21.954749,
        56.849269
      ],
      [
        21.95473,
        56.849551
      ],
      [
        21.954635,
        56.850088
      ],
      [
        21.954524,
        56.850432
      ],
      [
        21.954453,
        56.850613
      ],
      [
        21.954291,
        56.850839
      ],
      [
        21.953881,
        56.851316
      ],
      [
        21.95374,
        56.851484
      ],
      [
        21.953594,
        56.851715
      ],
      [
        21.953392,
        56.851969
      ],
      [
        21.953201,
        56.852245
      ],
      [
        21.953029,
        56.852462
      ],
      [
        21.952757,
        56.852831
      ],
      [
        21.953207,
        56.852939
      ],
      [
        21.954277,
        56.853068
      ],
      [
        21.954755,
        56.853142
      ],
      [
        21.955148,
        56.853193
      ],
      [
        21.955877,
        56.853294
      ],
      [
        21.956491,
        56.853404
      ],
      [
        21.957019,
        56.853508
      ],
      [
        21.957411,
        56.853595
      ],
      [
        21.95789,
        56.853696
      ],
      [
        21.958261,
        56.853753
      ],
      [
        21.958804,
        56.85385
      ],
      [
        21.959147,
        56.853998
      ],
      [
        21.959521,
        56.854143
      ],
      [
        21.959863,
        56.854192
      ],
      [
        21.96027,
        56.854221
      ],
      [
        21.960689,
        56.854321
      ],
      [
        21.961142,
        56.85449
      ],
      [
        21.961849,
        56.854572
      ],
      [
        21.96241,
        56.854694
      ],
      [
        21.96274,
        56.854878
      ],
      [
        21.962939,
        56.855209
      ],
      [
        21.963076,
        56.8554
      ],
      [
        21.963214,
        56.855571
      ],
      [
        21.963497,
        56.855871
      ],
      [
        21.963688,
        56.856062
      ],
      [
        21.963497,
        56.855871
      ],
      [
        21.963214,
        56.855571
      ],
      [
        21.963076,
        56.8554
      ],
      [
        21.962939,
        56.855209
      ],
      [
        21.96274,
        56.854878
      ],
      [
        21.96241,
        56.854694
      ],
      [
        21.961849,
        56.854572
      ],
      [
        21.961142,
        56.85449
      ],
      [
        21.960689,
        56.854321
      ],
      [
        21.96027,
        56.854221
      ],
      [
        21.959863,
        56.854192
      ],
      [
        21.959521,
        56.854143
      ],
      [
        21.959147,
        56.853998
      ],
      [
        21.958804,
        56.85385
      ],
      [
        21.958261,
        56.853753
      ],
      [
        21.95789,
        56.853696
      ],
      [
        21.957411,
        56.853595
      ],
      [
        21.957019,
        56.853508
      ],
      [
        21.956491,
        56.853404
      ],
      [
        21.955877,
        56.853294
      ],
      [
        21.955148,
        56.853193
      ],
      [
        21.954755,
        56.853142
      ],
      [
        21.954277,
        56.853068
      ],
      [
        21.953207,
        56.852939
      ],
      [
        21.952757,
        56.852831
      ],
      [
        21.953029,
        56.852462
      ],
      [
        21.953201,
        56.852245
      ],
      [
        21.953392,
        56.851969
      ],
      [
        21.953594,
        56.851715
      ],
      [
        21.95374,
        56.851484
      ],
      [
        21.953881,
        56.851316
      ],
      [
        21.954291,
        56.850839
      ],
      [
        21.954453,
        56.850613
      ],
      [
        21.954524,
        56.850432
      ],
      [
        21.954635,
        56.850088
      ],
      [
        21.95473,
        56.849551
      ],
      [
        21.954749,
        56.849269
      ],
      [
        21.954625,
        56.848956
      ],
      [
        21.954516,
        56.848736
      ],
      [
        21.954458,
        56.848532
      ],
      [
        21.954404,
        56.848342
      ],
      [
        21.95429,
        56.848086
      ],
      [
        21.954173,
        56.847897
      ],
      [
        21.954095,
        56.847676
      ],
      [
        21.953983,
        56.847341
      ],
      [
        21.953858,
        56.847009
      ],
      [
        21.953788,
        56.846833
      ],
      [
        21.953693,
        56.8465
      ],
      [
        21.953583,
        56.846196
      ],
      [
        21.953264,
        56.845329
      ],
      [
        21.953208,
        56.845065
      ],
      [
        21.953168,
        56.844867
      ],
      [
        21.953068,
        56.844646
      ],
      [
        21.952888,
        56.844378
      ],
      [
        21.952663,
        56.844143
      ],
      [
        21.952183,
        56.843727
      ],
      [
        21.951637,
        56.843215
      ],
      [
        21.951303,
        56.842873
      ],
      [
        21.951069,
        56.842663
      ],
      [
        21.950708,
        56.842286
      ],
      [
        21.950123,
        56.841764
      ],
      [
        21.949898,
        56.841628
      ],
      [
        21.949616,
        56.841532
      ],
      [
        21.949175,
        56.841476
      ],
      [
        21.948688,
        56.841412
      ],
      [
        21.947717,
        56.841321
      ],
      [
        21.946571,
        56.841182
      ],
      [
        21.94597,
        56.841115
      ],
      [
        21.945305,
        56.840973
      ],
      [
        21.945066,
        56.840717
      ],
      [
        21.944935,
        56.840506
      ],
      [
        21.944804,
        56.840325
      ]
    ]
  }
}