{
  "type": "Feature",
  "properties": {
    "id": "sp-res-me-a-pastaiga-turp-un-atpaka_y215",
    "name": "Spāres meža pastaiga (turp un atpakaļ)",
    "distanceMeters": 5379.887972051287,
    "elevationGainM": null
  },
  "geometry": {
    "type": "LineString",
    "coordinates": [
      [
        22.2190232,
        57.2143385
      ],
      [
        22.2186895,
        57.214175
      ],
      [
        22.2185666,
        57.2140802
      ],
      [
        22.2184178,
        57.2138487
      ],
      [
        22.2180232,
        57.2131914
      ],
      [
        22.2177404,
        57.2127
      ],
      [
        22.217642,
        57.2124969
      ],
      [
        22.2175377,
        57.2119749
      ],
      [
        22.2175117,
        57.2116367
      ],
      [
        22.2175202,
        57.2114674
      ],
      [
        22.2174974,
        57.2108678
      ],
      [
        22.2174628,
        57.2103261
      ],
      [
        22.2196303,
        57.2103139
      ],
      [
        22.2201106,
        57.2105217
      ],
      [
        22.2203527,
        57.2107839
      ],
      [
        22.2205718,
        57.2110024
      ],
      [
        22.2211712,
        57.2112771
      ],
      [
        22.2216323,
        57.211608
      ],
      [
        22.222543,
        57.2118639
      ],
      [
        22.2227369,
        57.2119092
      ],
      [
        22.2234203,
        57.2119457
      ],
      [
        22.2242407,
        57.2120444
      ],
      [
        22.224949,
        57.2119912
      ],
      [
        22.2261621,
        57.2119115
      ],
      [
        22.2268423,
        57.2117976
      ],
      [
        22.2273823,
        57.2117862
      ],
      [
        22.2279223,
        57.2118204
      ],
      [
        22.2292686,
        57.2116761
      ],
      [
        22.2303766,
        57.2114406
      ],
      [
        22.2320456,
        57.2116647
      ],
      [
        22.2329502,
        57.2119457
      ],
      [
        22.2333249,
        57.2120054
      ],
      [
        22.2335593,
        57.2119933
      ],
      [
        22.2337776,
        57.2119912
      ],
      [
        22.233922,
        57.2120228
      ],
      [
        22.2344859,
        57.2122115
      ],
      [
        22.2349148,
        57.2122798
      ],
      [
        22.235104,
        57.2123067
      ],
      [
        22.2357494,
        57.212336
      ],
      [
        22.2373333,
        57.2125332
      ],
      [
        22.2376123,
        57.2125885
      ],
      [
        22.2379286,
        57.2126771
      ],
      [
        22.2382614,
        57.2127864
      ],
      [
        22.2386314,
        57.212938
      ],
      [
        22.2391969,
        57.2131926
      ],
      [
        22.2394806,
        57.2133979
      ],
      [
        22.2401586,
        57.2138406
      ],
      [
        22.2405988,
        57.2141408
      ],
      [
        22.2409861,
        57.2143416
      ],
      [
        22.2416761,
        57.2146429
      ],
      [
        22.2430508,
        57.2151333
      ],
      [
        22.2439767,
        57.2155204
      ],
      [
        22.2441472,
        57.2156502
      ],
      [
        22.2444277,
        57.215925
      ],
      [
        22.2449823,
        57.2165297
      ],
      [
        22.2453527,
        57.216836
      ],
      [
        22.2456627,
        57.2170251
      ],
      [
        22.245871,
        57.2171447
      ],
      [
        22.246861,
        57.2179938
      ],
      [
        22.247638,
        57.2183725
      ],
      [
        22.246861,
        57.2179938
      ],
      [
        22.245871,
        57.2171447
      ],
      [
        22.2456627,
        57.2170251
      ],
      [
        22.2453527,
        57.216836
      ],
      [
        22.2449823,
        57.2165297
      ],
      [
        22.2444277,
        57.215925
      ],
      [
        22.2441472,
        57.2156502
      ],
      [
        22.2439767,
        57.2155204
      ],
      [
        22.2430508,
        57.2151333
      ],
      [
        22.2416761,
        57.2146429
      ],
      [
        22.2409861,
        57.2143416
      ],
      [
        22.2405988,
        57.2141408
      ],
      [
        22.2401586,
        57.2138406
      ],
      [
        22.2394806,
        57.2133979
      ],
      [
        22.2391969,
        57.2131926
      ],
      [
        22.2386314,
        57.212938
      ],
      [
        22.2382614,
        57.2127864
      ],
      [
        22.2379286,
        57.2126771
      ],
      [
        22.2376123,
        57.2125885
      ],
      [
        22.2373333,
        57.2125332
      ],
      [
        22.2357494,
        57.212336
      ],
      [
        22.235104,
        57.2123067
      ],
      [
        22.2349148,
        57.2122798
      ],
      [
        22.2344859,
        57.2122115
      ],
      [
        22.233922,
        57.2120228
      ],
      [
        22.2337776,
        57.2119912
      ],
      [
        22.2335593,
        57.2119933
      ],
      [
        22.2333249,
        57.2120054
      ],
      [
        22.2329502,
        57.2119457
      ],
      [
        22.2320456,
        57.2116647
      ],
      [
        22.2303766,
        57.2114406
      ],
      [
        22.2292686,
        57.2116761
      ],
      [
        22.2279223,
        57.2118204
      ],
      [
        22.2273823,
        57.2117862
      ],
      [
        22.2268423,
        57.2117976
      ],
      [
        22.2261621,
        57.2119115
      ],
      [
        22.224949,
        57.2119912
      ],
      [
        22.2242407,
        57.2120444
      ],
      [
        22.2234203,
        57.2119457
      ],
      [
        22.2227369,
        57.2119092
      ],
      [
        22.222543,
        57.2118639
      ],
      [
        22.2216323,
        57.211608
      ],
      [
        22.2211712,
        57.2112771
      ],
      [
        22.2205718,
        57.2110024
      ],
      [
        22.2203527,
        57.2107839
      ],
      [
        22.2201106,
        57.2105217
      ],
      [
        22.2196303,
        57.2103139
      ],
      [
        22.2174628,
        57.2103261
      ],
      [
        22.2174974,
        57.2108678
      ],
      [
        22.2175202,
        57.2114674
      ],
      [
        22.2175117,
        57.2116367
      ],
      [
        22.2175377,
        57.2119749
      ],
      [
        22.217642,
        57.2124969
      ],
      [
        22.2177404,
        57.2127
      ],
      [
        22.2180232,
        57.2131914
      ],
      [
        22.2184178,
        57.2138487
      ],
      [
        22.2185666,
        57.2140802
      ],
      [
        22.2186895,
        57.214175
      ],
      [
        22.2190232,
        57.2143385
      ]
    ]
  }
}