{
  "type": "Feature",
  "properties": {
    "id": "ug-les-gravas-tak-ug-le_xzuu",
    "name": "Ugāles gravas (TAK-Ugāle)",
    "distanceMeters": 5914.826824337427,
    "elevationGainM": null
  },
  "geometry": {
    "type": "LineString",
    "coordinates": [
      [
        22.034265,
        57.275189
      ],
      [
        22.034242,
        57.275272
      ],
      [
        22.034403,
        57.27529
      ],
      [
        22.034679,
        57.27521
      ],
      [
        22.034842,
        57.275205
      ],
      [
        22.035001,
        57.275227
      ],
      [
        22.035122,
        57.275284
      ],
      [
        22.035192,
        57.275356
      ],
      [
        22.0352,
        57.275613
      ],
      [
        22.035243,
        57.275699
      ],
      [
        22.035342,
        57.27577
      ],
      [
        22.035496,
        57.275794
      ],
      [
        22.035659,
        57.2758
      ],
      [
        22.035799,
        57.275774
      ],
      [
        22.036342,
        57.275607
      ],
      [
        22.036632,
        57.275554
      ],
      [
        22.03678,
        57.27556
      ],
      [
        22.036931,
        57.275523
      ],
      [
        22.036985,
        57.275354
      ],
      [
        22.037142,
        57.275348
      ],
      [
        22.037407,
        57.275449
      ],
      [
        22.037555,
        57.275602
      ],
      [
        22.037591,
        57.275687
      ],
      [
        22.037495,
        57.275852
      ],
      [
        22.037613,
        57.276006
      ],
      [
        22.037739,
        57.276333
      ],
      [
        22.037939,
        57.276452
      ],
      [
        22.038097,
        57.276461
      ],
      [
        22.038234,
        57.276541
      ],
      [
        22.038857,
        57.2764
      ],
      [
        22.040058,
        57.276048
      ],
      [
        22.040217,
        57.276027
      ],
      [
        22.040373,
        57.276166
      ],
      [
        22.040895,
        57.277064
      ],
      [
        22.040926,
        57.277236
      ],
      [
        22.0411,
        57.277572
      ],
      [
        22.041182,
        57.277646
      ],
      [
        22.041265,
        57.277996
      ],
      [
        22.04158,
        57.278562
      ],
      [
        22.041407,
        57.278711
      ],
      [
        22.041246,
        57.278726
      ],
      [
        22.041096,
        57.278865
      ],
      [
        22.041228,
        57.279014
      ],
      [
        22.041186,
        57.279185
      ],
      [
        22.041302,
        57.279345
      ],
      [
        22.041515,
        57.279465
      ],
      [
        22.041435,
        57.279543
      ],
      [
        22.04154,
        57.27968
      ],
      [
        22.041583,
        57.279854
      ],
      [
        22.041439,
        57.279896
      ],
      [
        22.041285,
        57.279899
      ],
      [
        22.041227,
        57.279969
      ],
      [
        22.041084,
        57.280001
      ],
      [
        22.040929,
        57.279979
      ],
      [
        22.040468,
        57.280037
      ],
      [
        22.040166,
        57.280032
      ],
      [
        22.040107,
        57.280115
      ],
      [
        22.040204,
        57.280186
      ],
      [
        22.040149,
        57.280345
      ],
      [
        22.039654,
        57.280549
      ],
      [
        22.03959,
        57.280714
      ],
      [
        22.039146,
        57.280965
      ],
      [
        22.039164,
        57.281054
      ],
      [
        22.03924,
        57.281125
      ],
      [
        22.039233,
        57.281212
      ],
      [
        22.039401,
        57.28136
      ],
      [
        22.039399,
        57.281434
      ],
      [
        22.039242,
        57.281677
      ],
      [
        22.039249,
        57.281767
      ],
      [
        22.038952,
        57.281793
      ],
      [
        22.038808,
        57.281749
      ],
      [
        22.038474,
        57.281745
      ],
      [
        22.038324,
        57.28178
      ],
      [
        22.038158,
        57.281783
      ],
      [
        22.038209,
        57.281866
      ],
      [
        22.038053,
        57.281893
      ],
      [
        22.03762,
        57.281866
      ],
      [
        22.037465,
        57.281896
      ],
      [
        22.037451,
        57.281808
      ],
      [
        22.037295,
        57.281831
      ],
      [
        22.036777,
        57.282143
      ],
      [
        22.036624,
        57.282172
      ],
      [
        22.036413,
        57.282271
      ],
      [
        22.036251,
        57.282279
      ],
      [
        22.036297,
        57.282199
      ],
      [
        22.036284,
        57.28212
      ],
      [
        22.036173,
        57.281954
      ],
      [
        22.036212,
        57.2817
      ],
      [
        22.036113,
        57.28164
      ],
      [
        22.03593,
        57.281411
      ],
      [
        22.035701,
        57.281294
      ],
      [
        22.035559,
        57.281267
      ],
      [
        22.035407,
        57.281285
      ],
      [
        22.035253,
        57.281427
      ],
      [
        22.035119,
        57.281477
      ],
      [
        22.034808,
        57.281455
      ],
      [
        22.034517,
        57.281398
      ],
      [
        22.034357,
        57.281421
      ],
      [
        22.034193,
        57.281559
      ],
      [
        22.034183,
        57.281645
      ],
      [
        22.034363,
        57.281863
      ],
      [
        22.034076,
        57.281924
      ],
      [
        22.033562,
        57.28215
      ],
      [
        22.033381,
        57.282085
      ],
      [
        22.033204,
        57.282222
      ],
      [
        22.032912,
        57.28228
      ],
      [
        22.032848,
        57.282356
      ],
      [
        22.032703,
        57.28238
      ],
      [
        22.032594,
        57.282314
      ],
      [
        22.032137,
        57.282285
      ],
      [
        22.03155,
        57.282152
      ],
      [
        22.031398,
        57.282187
      ],
      [
        22.031205,
        57.282322
      ],
      [
        22.03105,
        57.282339
      ],
      [
        22.030913,
        57.282325
      ],
      [
        22.03061,
        57.282366
      ],
      [
        22.030326,
        57.282324
      ],
      [
        22.029952,
        57.282473
      ],
      [
        22.029801,
        57.282486
      ],
      [
        22.029469,
        57.282595
      ],
      [
        22.029301,
        57.282734
      ],
      [
        22.029145,
        57.28274
      ],
      [
        22.029022,
        57.282791
      ],
      [
        22.028733,
        57.282768
      ],
      [
        22.028581,
        57.28279
      ],
      [
        22.028447,
        57.282832
      ],
      [
        22.027907,
        57.283144
      ],
      [
        22.027758,
        57.283175
      ],
      [
        22.027454,
        57.283178
      ],
      [
        22.026453,
        57.283329
      ],
      [
        22.0263,
        57.283325
      ],
      [
        22.026021,
        57.283267
      ],
      [
        22.02595,
        57.283342
      ],
      [
        22.025499,
        57.283384
      ],
      [
        22.025181,
        57.28338
      ],
      [
        22.024945,
        57.283489
      ],
      [
        22.024784,
        57.283505
      ],
      [
        22.024488,
        57.283474
      ],
      [
        22.02405,
        57.283375
      ],
      [
        22.023462,
        57.283464
      ],
      [
        22.022853,
        57.283475
      ],
      [
        22.022709,
        57.283458
      ],
      [
        22.02256,
        57.283479
      ],
      [
        22.022308,
        57.283457
      ],
      [
        22.021838,
        57.2835
      ],
      [
        22.021722,
        57.283563
      ],
      [
        22.021594,
        57.283571
      ],
      [
        22.021469,
        57.283616
      ],
      [
        22.021216,
        57.283922
      ],
      [
        22.021274,
        57.284248
      ],
      [
        22.021223,
        57.284331
      ],
      [
        22.021247,
        57.284413
      ],
      [
        22.021189,
        57.284493
      ],
      [
        22.021188,
        57.284576
      ],
      [
        22.021256,
        57.284817
      ],
      [
        22.021087,
        57.284955
      ],
      [
        22.020771,
        57.284923
      ],
      [
        22.020637,
        57.284873
      ],
      [
        22.020523,
        57.284937
      ],
      [
        22.020442,
        57.284772
      ],
      [
        22.020281,
        57.28463
      ],
      [
        22.020187,
        57.284389
      ],
      [
        22.019984,
        57.284262
      ],
      [
        22.019834,
        57.284242
      ],
      [
        22.019673,
        57.284255
      ],
      [
        22.01958,
        57.284185
      ],
      [
        22.01926,
        57.284196
      ],
      [
        22.019127,
        57.28415
      ],
      [
        22.018075,
        57.283966
      ],
      [
        22.017772,
        57.283968
      ],
      [
        22.017539,
        57.284072
      ],
      [
        22.01724,
        57.284134
      ],
      [
        22.01703,
        57.284247
      ],
      [
        22.01688,
        57.28428
      ],
      [
        22.016569,
        57.284259
      ],
      [
        22.01641,
        57.284274
      ],
      [
        22.01629,
        57.284323
      ],
      [
        22.015993,
        57.284382
      ],
      [
        22.015836,
        57.284392
      ],
      [
        22.015681,
        57.28437
      ],
      [
        22.015383,
        57.28443
      ],
      [
        22.014923,
        57.284465
      ],
      [
        22.014647,
        57.284539
      ],
      [
        22.014041,
        57.284529
      ],
      [
        22.013843,
        57.28439
      ],
      [
        22.01352,
        57.284393
      ],
      [
        22.013229,
        57.284454
      ],
      [
        22.013079,
        57.284434
      ],
      [
        22.012544,
        57.284269
      ],
      [
        22.012251,
        57.284065
      ],
      [
        22.012095,
        57.28408
      ],
      [
        22.012092,
        57.284113
      ],
      [
        22.01199,
        57.284169
      ],
      [
        22.011589,
        57.284084
      ],
      [
        22.011474,
        57.284021
      ],
      [
        22.011207,
        57.283465
      ],
      [
        22.010985,
        57.283246
      ],
      [
        22.011026,
        57.283172
      ],
      [
        22.011125,
        57.283112
      ],
      [
        22.01142,
        57.283045
      ],
      [
        22.010983,
        57.283125
      ],
      [
        22.01083,
        57.282978
      ],
      [
        22.010821,
        57.28289
      ],
      [
        22.010813,
        57.282968
      ],
      [
        22.010898,
        57.283121
      ],
      [
        22.011215,
        57.283103
      ],
      [
        22.011632,
        57.282985
      ],
      [
        22.012674,
        57.282794
      ],
      [
        22.012907,
        57.282675
      ],
      [
        22.013224,
        57.282662
      ],
      [
        22.013717,
        57.282576
      ],
      [
        22.013855,
        57.282531
      ],
      [
        22.013755,
        57.282287
      ],
      [
        22.013903,
        57.282526
      ],
      [
        22.014017,
        57.282568
      ],
      [
        22.01435,
        57.282573
      ],
      [
        22.0145,
        57.282551
      ],
      [
        22.015172,
        57.282348
      ],
      [
        22.016364,
        57.282158
      ],
      [
        22.016492,
        57.282109
      ],
      [
        22.017488,
        57.281911
      ],
      [
        22.017765,
        57.281821
      ],
      [
        22.018091,
        57.281843
      ],
      [
        22.018409,
        57.281807
      ],
      [
        22.018533,
        57.281759
      ],
      [
        22.019575,
        57.281569
      ],
      [
        22.02042,
        57.281321
      ],
      [
        22.020736,
        57.281291
      ],
      [
        22.021789,
        57.281109
      ],
      [
        22.022107,
        57.281083
      ],
      [
        22.022242,
        57.28105
      ],
      [
        22.022593,
        57.280896
      ],
      [
        22.022658,
        57.280827
      ],
      [
        22.022706,
        57.280656
      ],
      [
        22.022257,
        57.279661
      ],
      [
        22.02209,
        57.279168
      ],
      [
        22.022018,
        57.279089
      ],
      [
        22.022018,
        57.278844
      ],
      [
        22.021768,
        57.278555
      ],
      [
        22.021605,
        57.277971
      ],
      [
        22.021178,
        57.277078
      ],
      [
        22.021059,
        57.276916
      ],
      [
        22.021155,
        57.276849
      ],
      [
        22.021295,
        57.276808
      ],
      [
        22.021451,
        57.276812
      ],
      [
        22.022177,
        57.276695
      ],
      [
        22.022437,
        57.276605
      ],
      [
        22.023714,
        57.276324
      ],
      [
        22.024405,
        57.276129
      ],
      [
        22.024999,
        57.276052
      ],
      [
        22.025279,
        57.275967
      ],
      [
        22.026064,
        57.275897
      ],
      [
        22.026994,
        57.275635
      ],
      [
        22.027579,
        57.275583
      ],
      [
        22.027879,
        57.275534
      ],
      [
        22.028291,
        57.275405
      ],
      [
        22.028878,
        57.27529
      ],
      [
        22.029342,
        57.275241
      ],
      [
        22.030043,
        57.275054
      ],
      [
        22.030809,
        57.274964
      ],
      [
        22.031614,
        57.274749
      ],
      [
        22.032075,
        57.274691
      ],
      [
        22.03261,
        57.274537
      ],
      [
        22.033192,
        57.274476
      ],
      [
        22.033483,
        57.274537
      ],
      [
        22.0337,
        57.274656
      ],
      [
        22.033958,
        57.275024
      ]
    ]
  }
}