<?xml version='1.0' encoding='utf-8'?>
<gpx version="1.1" creator="haiku-routes" xmlns="http://www.topografix.com/GPX/1/1">
  <metadata>
    <name>Ugāles gravas (TAK-Ugāle)</name>
    <desc>Established marked walking loop. Published track geometry by Zaiga Kaire, Outdooractive route 227161290, retrieved 2026-09-05 from the public route page. Coordinates preserved without interpolation. Includes road crossings and village sections.</desc>
    <link href="https://www.outdooractive.com/en/route/hiking-trail/ventspils-novads/ugales-gravas-ugales-taka/227161290/" />
  </metadata>
  <trk>
    <name>Ugāles gravas (TAK-Ugāle)</name>
    <trkseg>
      <trkpt lat="57.275189" lon="22.034265" />
      <trkpt lat="57.275272" lon="22.034242" />
      <trkpt lat="57.27529" lon="22.034403" />
      <trkpt lat="57.27521" lon="22.034679" />
      <trkpt lat="57.275205" lon="22.034842" />
      <trkpt lat="57.275227" lon="22.035001" />
      <trkpt lat="57.275284" lon="22.035122" />
      <trkpt lat="57.275356" lon="22.035192" />
      <trkpt lat="57.275613" lon="22.0352" />
      <trkpt lat="57.275699" lon="22.035243" />
      <trkpt lat="57.27577" lon="22.035342" />
      <trkpt lat="57.275794" lon="22.035496" />
      <trkpt lat="57.2758" lon="22.035659" />
      <trkpt lat="57.275774" lon="22.035799" />
      <trkpt lat="57.275607" lon="22.036342" />
      <trkpt lat="57.275554" lon="22.036632" />
      <trkpt lat="57.27556" lon="22.03678" />
      <trkpt lat="57.275523" lon="22.036931" />
      <trkpt lat="57.275354" lon="22.036985" />
      <trkpt lat="57.275348" lon="22.037142" />
      <trkpt lat="57.275449" lon="22.037407" />
      <trkpt lat="57.275602" lon="22.037555" />
      <trkpt lat="57.275687" lon="22.037591" />
      <trkpt lat="57.275852" lon="22.037495" />
      <trkpt lat="57.276006" lon="22.037613" />
      <trkpt lat="57.276333" lon="22.037739" />
      <trkpt lat="57.276452" lon="22.037939" />
      <trkpt lat="57.276461" lon="22.038097" />
      <trkpt lat="57.276541" lon="22.038234" />
      <trkpt lat="57.2764" lon="22.038857" />
      <trkpt lat="57.276048" lon="22.040058" />
      <trkpt lat="57.276027" lon="22.040217" />
      <trkpt lat="57.276166" lon="22.040373" />
      <trkpt lat="57.277064" lon="22.040895" />
      <trkpt lat="57.277236" lon="22.040926" />
      <trkpt lat="57.277572" lon="22.0411" />
      <trkpt lat="57.277646" lon="22.041182" />
      <trkpt lat="57.277996" lon="22.041265" />
      <trkpt lat="57.278562" lon="22.04158" />
      <trkpt lat="57.278711" lon="22.041407" />
      <trkpt lat="57.278726" lon="22.041246" />
      <trkpt lat="57.278865" lon="22.041096" />
      <trkpt lat="57.279014" lon="22.041228" />
      <trkpt lat="57.279185" lon="22.041186" />
      <trkpt lat="57.279345" lon="22.041302" />
      <trkpt lat="57.279465" lon="22.041515" />
      <trkpt lat="57.279543" lon="22.041435" />
      <trkpt lat="57.27968" lon="22.04154" />
      <trkpt lat="57.279854" lon="22.041583" />
      <trkpt lat="57.279896" lon="22.041439" />
      <trkpt lat="57.279899" lon="22.041285" />
      <trkpt lat="57.279969" lon="22.041227" />
      <trkpt lat="57.280001" lon="22.041084" />
      <trkpt lat="57.279979" lon="22.040929" />
      <trkpt lat="57.280037" lon="22.040468" />
      <trkpt lat="57.280032" lon="22.040166" />
      <trkpt lat="57.280115" lon="22.040107" />
      <trkpt lat="57.280186" lon="22.040204" />
      <trkpt lat="57.280345" lon="22.040149" />
      <trkpt lat="57.280549" lon="22.039654" />
      <trkpt lat="57.280714" lon="22.03959" />
      <trkpt lat="57.280965" lon="22.039146" />
      <trkpt lat="57.281054" lon="22.039164" />
      <trkpt lat="57.281125" lon="22.03924" />
      <trkpt lat="57.281212" lon="22.039233" />
      <trkpt lat="57.28136" lon="22.039401" />
      <trkpt lat="57.281434" lon="22.039399" />
      <trkpt lat="57.281677" lon="22.039242" />
      <trkpt lat="57.281767" lon="22.039249" />
      <trkpt lat="57.281793" lon="22.038952" />
      <trkpt lat="57.281749" lon="22.038808" />
      <trkpt lat="57.281745" lon="22.038474" />
      <trkpt lat="57.28178" lon="22.038324" />
      <trkpt lat="57.281783" lon="22.038158" />
      <trkpt lat="57.281866" lon="22.038209" />
      <trkpt lat="57.281893" lon="22.038053" />
      <trkpt lat="57.281866" lon="22.03762" />
      <trkpt lat="57.281896" lon="22.037465" />
      <trkpt lat="57.281808" lon="22.037451" />
      <trkpt lat="57.281831" lon="22.037295" />
      <trkpt lat="57.282143" lon="22.036777" />
      <trkpt lat="57.282172" lon="22.036624" />
      <trkpt lat="57.282271" lon="22.036413" />
      <trkpt lat="57.282279" lon="22.036251" />
      <trkpt lat="57.282199" lon="22.036297" />
      <trkpt lat="57.28212" lon="22.036284" />
      <trkpt lat="57.281954" lon="22.036173" />
      <trkpt lat="57.2817" lon="22.036212" />
      <trkpt lat="57.28164" lon="22.036113" />
      <trkpt lat="57.281411" lon="22.03593" />
      <trkpt lat="57.281294" lon="22.035701" />
      <trkpt lat="57.281267" lon="22.035559" />
      <trkpt lat="57.281285" lon="22.035407" />
      <trkpt lat="57.281427" lon="22.035253" />
      <trkpt lat="57.281477" lon="22.035119" />
      <trkpt lat="57.281455" lon="22.034808" />
      <trkpt lat="57.281398" lon="22.034517" />
      <trkpt lat="57.281421" lon="22.034357" />
      <trkpt lat="57.281559" lon="22.034193" />
      <trkpt lat="57.281645" lon="22.034183" />
      <trkpt lat="57.281863" lon="22.034363" />
      <trkpt lat="57.281924" lon="22.034076" />
      <trkpt lat="57.28215" lon="22.033562" />
      <trkpt lat="57.282085" lon="22.033381" />
      <trkpt lat="57.282222" lon="22.033204" />
      <trkpt lat="57.28228" lon="22.032912" />
      <trkpt lat="57.282356" lon="22.032848" />
      <trkpt lat="57.28238" lon="22.032703" />
      <trkpt lat="57.282314" lon="22.032594" />
      <trkpt lat="57.282285" lon="22.032137" />
      <trkpt lat="57.282152" lon="22.03155" />
      <trkpt lat="57.282187" lon="22.031398" />
      <trkpt lat="57.282322" lon="22.031205" />
      <trkpt lat="57.282339" lon="22.03105" />
      <trkpt lat="57.282325" lon="22.030913" />
      <trkpt lat="57.282366" lon="22.03061" />
      <trkpt lat="57.282324" lon="22.030326" />
      <trkpt lat="57.282473" lon="22.029952" />
      <trkpt lat="57.282486" lon="22.029801" />
      <trkpt lat="57.282595" lon="22.029469" />
      <trkpt lat="57.282734" lon="22.029301" />
      <trkpt lat="57.28274" lon="22.029145" />
      <trkpt lat="57.282791" lon="22.029022" />
      <trkpt lat="57.282768" lon="22.028733" />
      <trkpt lat="57.28279" lon="22.028581" />
      <trkpt lat="57.282832" lon="22.028447" />
      <trkpt lat="57.283144" lon="22.027907" />
      <trkpt lat="57.283175" lon="22.027758" />
      <trkpt lat="57.283178" lon="22.027454" />
      <trkpt lat="57.283329" lon="22.026453" />
      <trkpt lat="57.283325" lon="22.0263" />
      <trkpt lat="57.283267" lon="22.026021" />
      <trkpt lat="57.283342" lon="22.02595" />
      <trkpt lat="57.283384" lon="22.025499" />
      <trkpt lat="57.28338" lon="22.025181" />
      <trkpt lat="57.283489" lon="22.024945" />
      <trkpt lat="57.283505" lon="22.024784" />
      <trkpt lat="57.283474" lon="22.024488" />
      <trkpt lat="57.283375" lon="22.02405" />
      <trkpt lat="57.283464" lon="22.023462" />
      <trkpt lat="57.283475" lon="22.022853" />
      <trkpt lat="57.283458" lon="22.022709" />
      <trkpt lat="57.283479" lon="22.02256" />
      <trkpt lat="57.283457" lon="22.022308" />
      <trkpt lat="57.2835" lon="22.021838" />
      <trkpt lat="57.283563" lon="22.021722" />
      <trkpt lat="57.283571" lon="22.021594" />
      <trkpt lat="57.283616" lon="22.021469" />
      <trkpt lat="57.283922" lon="22.021216" />
      <trkpt lat="57.284248" lon="22.021274" />
      <trkpt lat="57.284331" lon="22.021223" />
      <trkpt lat="57.284413" lon="22.021247" />
      <trkpt lat="57.284493" lon="22.021189" />
      <trkpt lat="57.284576" lon="22.021188" />
      <trkpt lat="57.284817" lon="22.021256" />
      <trkpt lat="57.284955" lon="22.021087" />
      <trkpt lat="57.284923" lon="22.020771" />
      <trkpt lat="57.284873" lon="22.020637" />
      <trkpt lat="57.284937" lon="22.020523" />
      <trkpt lat="57.284772" lon="22.020442" />
      <trkpt lat="57.28463" lon="22.020281" />
      <trkpt lat="57.284389" lon="22.020187" />
      <trkpt lat="57.284262" lon="22.019984" />
      <trkpt lat="57.284242" lon="22.019834" />
      <trkpt lat="57.284255" lon="22.019673" />
      <trkpt lat="57.284185" lon="22.01958" />
      <trkpt lat="57.284196" lon="22.01926" />
      <trkpt lat="57.28415" lon="22.019127" />
      <trkpt lat="57.283966" lon="22.018075" />
      <trkpt lat="57.283968" lon="22.017772" />
      <trkpt lat="57.284072" lon="22.017539" />
      <trkpt lat="57.284134" lon="22.01724" />
      <trkpt lat="57.284247" lon="22.01703" />
      <trkpt lat="57.28428" lon="22.01688" />
      <trkpt lat="57.284259" lon="22.016569" />
      <trkpt lat="57.284274" lon="22.01641" />
      <trkpt lat="57.284323" lon="22.01629" />
      <trkpt lat="57.284382" lon="22.015993" />
      <trkpt lat="57.284392" lon="22.015836" />
      <trkpt lat="57.28437" lon="22.015681" />
      <trkpt lat="57.28443" lon="22.015383" />
      <trkpt lat="57.284465" lon="22.014923" />
      <trkpt lat="57.284539" lon="22.014647" />
      <trkpt lat="57.284529" lon="22.014041" />
      <trkpt lat="57.28439" lon="22.013843" />
      <trkpt lat="57.284393" lon="22.01352" />
      <trkpt lat="57.284454" lon="22.013229" />
      <trkpt lat="57.284434" lon="22.013079" />
      <trkpt lat="57.284269" lon="22.012544" />
      <trkpt lat="57.284065" lon="22.012251" />
      <trkpt lat="57.28408" lon="22.012095" />
      <trkpt lat="57.284113" lon="22.012092" />
      <trkpt lat="57.284169" lon="22.01199" />
      <trkpt lat="57.284084" lon="22.011589" />
      <trkpt lat="57.284021" lon="22.011474" />
      <trkpt lat="57.283465" lon="22.011207" />
      <trkpt lat="57.283246" lon="22.010985" />
      <trkpt lat="57.283172" lon="22.011026" />
      <trkpt lat="57.283112" lon="22.011125" />
      <trkpt lat="57.283045" lon="22.01142" />
      <trkpt lat="57.283125" lon="22.010983" />
      <trkpt lat="57.282978" lon="22.01083" />
      <trkpt lat="57.28289" lon="22.010821" />
      <trkpt lat="57.282968" lon="22.010813" />
      <trkpt lat="57.283121" lon="22.010898" />
      <trkpt lat="57.283103" lon="22.011215" />
      <trkpt lat="57.282985" lon="22.011632" />
      <trkpt lat="57.282794" lon="22.012674" />
      <trkpt lat="57.282675" lon="22.012907" />
      <trkpt lat="57.282662" lon="22.013224" />
      <trkpt lat="57.282576" lon="22.013717" />
      <trkpt lat="57.282531" lon="22.013855" />
      <trkpt lat="57.282287" lon="22.013755" />
      <trkpt lat="57.282526" lon="22.013903" />
      <trkpt lat="57.282568" lon="22.014017" />
      <trkpt lat="57.282573" lon="22.01435" />
      <trkpt lat="57.282551" lon="22.0145" />
      <trkpt lat="57.282348" lon="22.015172" />
      <trkpt lat="57.282158" lon="22.016364" />
      <trkpt lat="57.282109" lon="22.016492" />
      <trkpt lat="57.281911" lon="22.017488" />
      <trkpt lat="57.281821" lon="22.017765" />
      <trkpt lat="57.281843" lon="22.018091" />
      <trkpt lat="57.281807" lon="22.018409" />
      <trkpt lat="57.281759" lon="22.018533" />
      <trkpt lat="57.281569" lon="22.019575" />
      <trkpt lat="57.281321" lon="22.02042" />
      <trkpt lat="57.281291" lon="22.020736" />
      <trkpt lat="57.281109" lon="22.021789" />
      <trkpt lat="57.281083" lon="22.022107" />
      <trkpt lat="57.28105" lon="22.022242" />
      <trkpt lat="57.280896" lon="22.022593" />
      <trkpt lat="57.280827" lon="22.022658" />
      <trkpt lat="57.280656" lon="22.022706" />
      <trkpt lat="57.279661" lon="22.022257" />
      <trkpt lat="57.279168" lon="22.02209" />
      <trkpt lat="57.279089" lon="22.022018" />
      <trkpt lat="57.278844" lon="22.022018" />
      <trkpt lat="57.278555" lon="22.021768" />
      <trkpt lat="57.277971" lon="22.021605" />
      <trkpt lat="57.277078" lon="22.021178" />
      <trkpt lat="57.276916" lon="22.021059" />
      <trkpt lat="57.276849" lon="22.021155" />
      <trkpt lat="57.276808" lon="22.021295" />
      <trkpt lat="57.276812" lon="22.021451" />
      <trkpt lat="57.276695" lon="22.022177" />
      <trkpt lat="57.276605" lon="22.022437" />
      <trkpt lat="57.276324" lon="22.023714" />
      <trkpt lat="57.276129" lon="22.024405" />
      <trkpt lat="57.276052" lon="22.024999" />
      <trkpt lat="57.275967" lon="22.025279" />
      <trkpt lat="57.275897" lon="22.026064" />
      <trkpt lat="57.275635" lon="22.026994" />
      <trkpt lat="57.275583" lon="22.027579" />
      <trkpt lat="57.275534" lon="22.027879" />
      <trkpt lat="57.275405" lon="22.028291" />
      <trkpt lat="57.27529" lon="22.028878" />
      <trkpt lat="57.275241" lon="22.029342" />
      <trkpt lat="57.275054" lon="22.030043" />
      <trkpt lat="57.274964" lon="22.030809" />
      <trkpt lat="57.274749" lon="22.031614" />
      <trkpt lat="57.274691" lon="22.032075" />
      <trkpt lat="57.274537" lon="22.03261" />
      <trkpt lat="57.274476" lon="22.033192" />
      <trkpt lat="57.274537" lon="22.033483" />
      <trkpt lat="57.274656" lon="22.0337" />
      <trkpt lat="57.275024" lon="22.033958" />
    </trkseg>
  </trk>
</gpx>