<?xml version='1.0' encoding='utf-8'?>
<gpx version="1.1" creator="haiku-routes" xmlns="http://www.topografix.com/GPX/1/1">
  <metadata>
    <name>Priekules Priediens</name>
    <desc>Woodland walk with small spurs near Priekule sports centre. Established park: https://www.dienvidkurzeme.travel/visainfo/item/pargajieni/priekules-priediens/ Track by Roberts Greitāns. All coordinates preserved from the public Outdooractive GeoShape line, retrieved 2026-09-05; no interpolation or guessed connections. This is the public map representation, not the login-gated GPX export.</desc>
    <link href="https://www.outdooractive.com/en/route/nature-trail/dienvidkurzemes-novads/priekules-priediens/332613460/" />
  </metadata>
  <trk>
    <name>Priekules Priediens</name>
    <desc>Woodland walk with small spurs near Priekule sports centre. Established park: https://www.dienvidkurzeme.travel/visainfo/item/pargajieni/priekules-priediens/ Track by Roberts Greitāns. All coordinates preserved from the public Outdooractive GeoShape line, retrieved 2026-09-05; no interpolation or guessed connections. This is the public map representation, not the login-gated GPX export.</desc>
    <trkseg>
      <trkpt lat="56.438889" lon="21.580333" />
      <trkpt lat="56.438873" lon="21.580061" />
      <trkpt lat="56.438833" lon="21.579941" />
      <trkpt lat="56.43883" lon="21.579829" />
      <trkpt lat="56.438856" lon="21.579742" />
      <trkpt lat="56.438873" lon="21.579565" />
      <trkpt lat="56.438868" lon="21.579351" />
      <trkpt lat="56.438939" lon="21.578755" />
      <trkpt lat="56.438937" lon="21.578624" />
      <trkpt lat="56.438886" lon="21.578574" />
      <trkpt lat="56.438783" lon="21.578541" />
      <trkpt lat="56.438709" lon="21.578321" />
      <trkpt lat="56.438754" lon="21.578061" />
      <trkpt lat="56.43882" lon="21.577857" />
      <trkpt lat="56.43888" lon="21.577695" />
      <trkpt lat="56.438967" lon="21.577537" />
      <trkpt lat="56.439187" lon="21.577313" />
      <trkpt lat="56.439388" lon="21.577224" />
      <trkpt lat="56.439474" lon="21.577149" />
      <trkpt lat="56.439951" lon="21.577089" />
      <trkpt lat="56.439928" lon="21.57705" />
      <trkpt lat="56.43956" lon="21.577131" />
      <trkpt lat="56.439493" lon="21.577186" />
      <trkpt lat="56.439202" lon="21.57728" />
      <trkpt lat="56.439185" lon="21.577183" />
      <trkpt lat="56.43923" lon="21.576984" />
      <trkpt lat="56.439265" lon="21.576947" />
      <trkpt lat="56.439308" lon="21.576785" />
      <trkpt lat="56.439404" lon="21.576602" />
      <trkpt lat="56.439378" lon="21.576462" />
      <trkpt lat="56.439398" lon="21.576339" />
      <trkpt lat="56.439432" lon="21.576281" />
      <trkpt lat="56.4394" lon="21.575911" />
      <trkpt lat="56.439524" lon="21.575735" />
      <trkpt lat="56.439637" lon="21.575381" />
      <trkpt lat="56.439666" lon="21.575128" />
      <trkpt lat="56.439716" lon="21.575059" />
      <trkpt lat="56.439771" lon="21.574844" />
      <trkpt lat="56.439825" lon="21.574398" />
      <trkpt lat="56.439803" lon="21.574307" />
      <trkpt lat="56.439728" lon="21.574196" />
      <trkpt lat="56.439715" lon="21.573905" />
      <trkpt lat="56.439633" lon="21.573993" />
      <trkpt lat="56.439759" lon="21.574426" />
      <trkpt lat="56.43955" lon="21.574135" />
      <trkpt lat="56.43936" lon="21.574111" />
      <trkpt lat="56.439287" lon="21.574174" />
      <trkpt lat="56.439366" lon="21.573885" />
      <trkpt lat="56.439344" lon="21.573756" />
      <trkpt lat="56.43941" lon="21.573556" />
      <trkpt lat="56.439411" lon="21.573472" />
      <trkpt lat="56.439379" lon="21.573568" />
      <trkpt lat="56.43925" lon="21.573233" />
      <trkpt lat="56.439247" lon="21.572963" />
      <trkpt lat="56.438952" lon="21.572519" />
      <trkpt lat="56.438699" lon="21.572054" />
      <trkpt lat="56.438647" lon="21.571859" />
      <trkpt lat="56.438608" lon="21.571811" />
      <trkpt lat="56.438563" lon="21.571812" />
      <trkpt lat="56.438494" lon="21.571714" />
      <trkpt lat="56.438321" lon="21.571558" />
      <trkpt lat="56.438087" lon="21.571226" />
      <trkpt lat="56.437948" lon="21.571087" />
      <trkpt lat="56.437814" lon="21.570878" />
      <trkpt lat="56.437779" lon="21.570781" />
      <trkpt lat="56.437741" lon="21.570747" />
      <trkpt lat="56.43755" lon="21.570254" />
      <trkpt lat="56.437525" lon="21.570212" />
      <trkpt lat="56.437421" lon="21.570155" />
      <trkpt lat="56.437362" lon="21.570026" />
      <trkpt lat="56.437293" lon="21.569974" />
      <trkpt lat="56.437215" lon="21.569683" />
      <trkpt lat="56.437183" lon="21.569737" />
      <trkpt lat="56.437195" lon="21.569777" />
      <trkpt lat="56.437086" lon="21.569461" />
      <trkpt lat="56.437159" lon="21.569588" />
      <trkpt lat="56.436966" lon="21.569563" />
      <trkpt lat="56.436618" lon="21.569292" />
      <trkpt lat="56.436899" lon="21.569172" />
      <trkpt lat="56.436873" lon="21.569209" />
      <trkpt lat="56.436688" lon="21.569073" />
      <trkpt lat="56.436643" lon="21.568977" />
      <trkpt lat="56.436641" lon="21.568908" />
      <trkpt lat="56.436735" lon="21.568902" />
      <trkpt lat="56.436805" lon="21.568852" />
      <trkpt lat="56.43683" lon="21.568907" />
      <trkpt lat="56.436942" lon="21.568707" />
      <trkpt lat="56.436966" lon="21.568606" />
      <trkpt lat="56.436775" lon="21.568512" />
      <trkpt lat="56.43678" lon="21.568568" />
      <trkpt lat="56.436732" lon="21.56834" />
      <trkpt lat="56.436679" lon="21.56821" />
      <trkpt lat="56.43648" lon="21.566454" />
      <trkpt lat="56.436494" lon="21.56622" />
      <trkpt lat="56.436537" lon="21.56618" />
      <trkpt lat="56.436518" lon="21.566133" />
      <trkpt lat="56.436491" lon="21.565726" />
      <trkpt lat="56.436467" lon="21.565595" />
      <trkpt lat="56.436465" lon="21.565347" />
      <trkpt lat="56.436443" lon="21.565341" />
      <trkpt lat="56.43635" lon="21.565717" />
      <trkpt lat="56.436406" lon="21.565524" />
      <trkpt lat="56.436433" lon="21.565535" />
      <trkpt lat="56.436468" lon="21.565476" />
      <trkpt lat="56.436489" lon="21.564215" />
      <trkpt lat="56.436487" lon="21.564298" />
      <trkpt lat="56.436483" lon="21.564061" />
      <trkpt lat="56.43643" lon="21.563695" />
      <trkpt lat="56.43656" lon="21.563563" />
      <trkpt lat="56.436765" lon="21.563287" />
      <trkpt lat="56.436713" lon="21.563141" />
      <trkpt lat="56.436793" lon="21.562126" />
      <trkpt lat="56.436663" lon="21.561892" />
      <trkpt lat="56.436731" lon="21.561814" />
      <trkpt lat="56.436763" lon="21.561652" />
      <trkpt lat="56.436686" lon="21.561284" />
      <trkpt lat="56.436725" lon="21.561153" />
      <trkpt lat="56.436743" lon="21.561181" />
      <trkpt lat="56.43711" lon="21.56123" />
      <trkpt lat="56.437209" lon="21.561296" />
      <trkpt lat="56.437408" lon="21.56158" />
      <trkpt lat="56.437615" lon="21.561609" />
      <trkpt lat="56.43783" lon="21.561815" />
      <trkpt lat="56.438067" lon="21.561301" />
      <trkpt lat="56.438115" lon="21.561494" />
      <trkpt lat="56.438108" lon="21.561432" />
      <trkpt lat="56.438123" lon="21.561432" />
      <trkpt lat="56.438501" lon="21.562441" />
      <trkpt lat="56.438556" lon="21.562479" />
      <trkpt lat="56.438794" lon="21.562507" />
      <trkpt lat="56.438897" lon="21.562406" />
      <trkpt lat="56.438948" lon="21.562308" />
      <trkpt lat="56.438984" lon="21.56234" />
      <trkpt lat="56.439008" lon="21.562437" />
      <trkpt lat="56.439066" lon="21.562371" />
      <trkpt lat="56.439028" lon="21.562304" />
      <trkpt lat="56.439263" lon="21.562856" />
      <trkpt lat="56.439334" lon="21.562722" />
      <trkpt lat="56.439531" lon="21.562664" />
      <trkpt lat="56.439554" lon="21.562805" />
      <trkpt lat="56.440012" lon="21.562894" />
      <trkpt lat="56.440003" lon="21.562915" />
      <trkpt lat="56.43997" lon="21.562341" />
      <trkpt lat="56.4399" lon="21.562397" />
      <trkpt lat="56.439843" lon="21.562517" />
      <trkpt lat="56.439793" lon="21.562526" />
      <trkpt lat="56.439725" lon="21.562067" />
      <trkpt lat="56.439799" lon="21.562061" />
      <trkpt lat="56.439765" lon="21.562489" />
      <trkpt lat="56.439886" lon="21.562478" />
      <trkpt lat="56.439917" lon="21.562448" />
      <trkpt lat="56.439952" lon="21.562546" />
      <trkpt lat="56.439993" lon="21.562773" />
      <trkpt lat="56.44002" lon="21.562801" />
      <trkpt lat="56.440089" lon="21.562789" />
      <trkpt lat="56.440118" lon="21.562821" />
      <trkpt lat="56.439985" lon="21.563066" />
      <trkpt lat="56.440132" lon="21.56323" />
      <trkpt lat="56.440198" lon="21.56346" />
      <trkpt lat="56.440142" lon="21.563666" />
      <trkpt lat="56.440062" lon="21.563815" />
      <trkpt lat="56.440047" lon="21.563897" />
      <trkpt lat="56.440096" lon="21.563903" />
      <trkpt lat="56.439842" lon="21.56416" />
      <trkpt lat="56.439741" lon="21.564196" />
      <trkpt lat="56.439682" lon="21.564439" />
      <trkpt lat="56.439538" lon="21.564658" />
      <trkpt lat="56.439464" lon="21.564716" />
      <trkpt lat="56.439428" lon="21.564792" />
      <trkpt lat="56.439552" lon="21.564868" />
      <trkpt lat="56.43932" lon="21.564506" />
      <trkpt lat="56.439106" lon="21.564943" />
      <trkpt lat="56.43914" lon="21.565132" />
      <trkpt lat="56.439136" lon="21.565245" />
      <trkpt lat="56.43896" lon="21.565746" />
      <trkpt lat="56.438997" lon="21.565751" />
      <trkpt lat="56.439034" lon="21.565939" />
      <trkpt lat="56.438864" lon="21.566115" />
      <trkpt lat="56.438771" lon="21.566263" />
      <trkpt lat="56.438652" lon="21.566314" />
      <trkpt lat="56.43858" lon="21.566293" />
      <trkpt lat="56.438479" lon="21.566375" />
      <trkpt lat="56.438384" lon="21.566881" />
      <trkpt lat="56.43824" lon="21.56712" />
      <trkpt lat="56.438177" lon="21.567177" />
      <trkpt lat="56.438068" lon="21.56711" />
      <trkpt lat="56.438139" lon="21.567053" />
      <trkpt lat="56.438041" lon="21.567176" />
      <trkpt lat="56.437975" lon="21.567621" />
      <trkpt lat="56.437864" lon="21.567998" />
      <trkpt lat="56.437649" lon="21.568134" />
      <trkpt lat="56.437549" lon="21.568085" />
      <trkpt lat="56.437457" lon="21.567949" />
      <trkpt lat="56.437491" lon="21.568198" />
      <trkpt lat="56.437448" lon="21.568264" />
      <trkpt lat="56.437383" lon="21.568595" />
      <trkpt lat="56.437289" lon="21.568685" />
      <trkpt lat="56.437215" lon="21.568957" />
      <trkpt lat="56.437111" lon="21.569138" />
      <trkpt lat="56.437298" lon="21.569171" />
      <trkpt lat="56.437161" lon="21.569226" />
      <trkpt lat="56.437185" lon="21.569306" />
      <trkpt lat="56.437194" lon="21.569484" />
      <trkpt lat="56.437301" lon="21.569618" />
      <trkpt lat="56.437392" lon="21.56967" />
      <trkpt lat="56.437482" lon="21.570031" />
      <trkpt lat="56.437505" lon="21.570167" />
      <trkpt lat="56.437443" lon="21.570801" />
      <trkpt lat="56.437463" lon="21.570936" />
      <trkpt lat="56.438068" lon="21.571356" />
      <trkpt lat="56.438343" lon="21.571814" />
      <trkpt lat="56.438416" lon="21.57201" />
      <trkpt lat="56.438736" lon="21.572693" />
      <trkpt lat="56.438914" lon="21.573015" />
      <trkpt lat="56.439181" lon="21.57335" />
      <trkpt lat="56.439357" lon="21.573666" />
      <trkpt lat="56.439652" lon="21.574039" />
      <trkpt lat="56.439725" lon="21.574194" />
      <trkpt lat="56.439783" lon="21.574243" />
      <trkpt lat="56.439834" lon="21.574331" />
      <trkpt lat="56.439853" lon="21.574405" />
      <trkpt lat="56.439796" lon="21.57441" />
      <trkpt lat="56.43974" lon="21.574478" />
      <trkpt lat="56.439464" lon="21.57545" />
      <trkpt lat="56.439606" lon="21.576514" />
      <trkpt lat="56.439511" lon="21.576838" />
      <trkpt lat="56.439367" lon="21.576652" />
      <trkpt lat="56.439267" lon="21.576897" />
      <trkpt lat="56.439293" lon="21.57705" />
      <trkpt lat="56.439231" lon="21.576999" />
      <trkpt lat="56.439242" lon="21.577011" />
      <trkpt lat="56.439156" lon="21.577297" />
      <trkpt lat="56.438999" lon="21.577418" />
      <trkpt lat="56.43888" lon="21.57757" />
      <trkpt lat="56.438748" lon="21.578029" />
      <trkpt lat="56.438758" lon="21.578291" />
      <trkpt lat="56.43883" lon="21.578598" />
      <trkpt lat="56.438886" lon="21.578707" />
      <trkpt lat="56.438897" lon="21.578804" />
      <trkpt lat="56.438865" lon="21.579008" />
      <trkpt lat="56.438906" lon="21.579025" />
      <trkpt lat="56.43888" lon="21.579194" />
      <trkpt lat="56.438871" lon="21.579661" />
      <trkpt lat="56.438856" lon="21.579877" />
      <trkpt lat="56.438819" lon="21.580075" />
      <trkpt lat="56.438897" lon="21.580312" />
    </trkseg>
  </trk>
</gpx>