<?xml version='1.0' encoding='utf-8'?>
<gpx version="1.1" creator="haiku-routes" xmlns="http://www.topografix.com/GPX/1/1">
  <metadata>
    <name>Sātiņu dīķi (turp un atpakaļ)</name>
    <desc>Established pond-side birdwatching walk, out and back. All coordinates from the Kurzeme Planning Region GPX, retrieved 2026-09-05. The publisher recommends arranging access with the landowner; see the notice at the trail entrance. Return traversal is already present in the source.</desc>
    <link href="https://kurzemesregions.lv/projekti/turisms/unigreen/dabas-takas/satinu-diki/" />
    <link href="https://kurzemesregions.lv/wp-content/uploads/2019/04/Satini_ponds.gpx" />
  </metadata>
  <trk>
    <name>Sātiņu dīķi (turp un atpakaļ)</name>
    <desc>Established pond-side birdwatching walk, out and back. All coordinates from the Kurzeme Planning Region GPX, retrieved 2026-09-05. The publisher recommends arranging access with the landowner; see the notice at the trail entrance. Return traversal is already present in the source.</desc>
    <trkseg>
      <trkpt lat="56.62741" lon="22.3498" />
      <trkpt lat="56.62744" lon="22.34982" />
      <trkpt lat="56.62745" lon="22.34973" />
      <trkpt lat="56.62746" lon="22.34983" />
      <trkpt lat="56.62746" lon="22.34974" />
      <trkpt lat="56.62746" lon="22.34965" />
      <trkpt lat="56.62745" lon="22.34957" />
      <trkpt lat="56.62743" lon="22.34947" />
      <trkpt lat="56.62741" lon="22.34939" />
      <trkpt lat="56.62739" lon="22.3493" />
      <trkpt lat="56.62737" lon="22.34921" />
      <trkpt lat="56.62736" lon="22.34914" />
      <trkpt lat="56.62733" lon="22.34904" />
      <trkpt lat="56.62731" lon="22.34895" />
      <trkpt lat="56.62729" lon="22.34886" />
      <trkpt lat="56.62727" lon="22.34877" />
      <trkpt lat="56.62726" lon="22.34869" />
      <trkpt lat="56.62724" lon="22.3486" />
      <trkpt lat="56.62723" lon="22.34853" />
      <trkpt lat="56.62722" lon="22.34844" />
      <trkpt lat="56.62721" lon="22.34835" />
      <trkpt lat="56.62721" lon="22.34826" />
      <trkpt lat="56.62723" lon="22.34818" />
      <trkpt lat="56.62725" lon="22.34809" />
      <trkpt lat="56.62727" lon="22.348" />
      <trkpt lat="56.6273" lon="22.3479" />
      <trkpt lat="56.62733" lon="22.34783" />
      <trkpt lat="56.62735" lon="22.34774" />
      <trkpt lat="56.62738" lon="22.34766" />
      <trkpt lat="56.6274" lon="22.34758" />
      <trkpt lat="56.62742" lon="22.34751" />
      <trkpt lat="56.62744" lon="22.34743" />
      <trkpt lat="56.62747" lon="22.34734" />
      <trkpt lat="56.6275" lon="22.34725" />
      <trkpt lat="56.62752" lon="22.34716" />
      <trkpt lat="56.62754" lon="22.34706" />
      <trkpt lat="56.62755" lon="22.34696" />
      <trkpt lat="56.62757" lon="22.34686" />
      <trkpt lat="56.62758" lon="22.34678" />
      <trkpt lat="56.62759" lon="22.3467" />
      <trkpt lat="56.6276" lon="22.34661" />
      <trkpt lat="56.62761" lon="22.34652" />
      <trkpt lat="56.62761" lon="22.34643" />
      <trkpt lat="56.62762" lon="22.34633" />
      <trkpt lat="56.62763" lon="22.34624" />
      <trkpt lat="56.62765" lon="22.34616" />
      <trkpt lat="56.62767" lon="22.34607" />
      <trkpt lat="56.62769" lon="22.346" />
      <trkpt lat="56.62772" lon="22.34593" />
      <trkpt lat="56.62776" lon="22.34588" />
      <trkpt lat="56.62781" lon="22.34582" />
      <trkpt lat="56.62786" lon="22.34578" />
      <trkpt lat="56.62791" lon="22.34574" />
      <trkpt lat="56.62797" lon="22.34571" />
      <trkpt lat="56.62802" lon="22.34569" />
      <trkpt lat="56.62807" lon="22.34566" />
      <trkpt lat="56.62813" lon="22.34563" />
      <trkpt lat="56.62818" lon="22.3456" />
      <trkpt lat="56.62823" lon="22.34557" />
      <trkpt lat="56.62827" lon="22.34555" />
      <trkpt lat="56.62832" lon="22.34552" />
      <trkpt lat="56.62838" lon="22.34549" />
      <trkpt lat="56.62842" lon="22.34546" />
      <trkpt lat="56.62847" lon="22.34544" />
      <trkpt lat="56.62852" lon="22.34542" />
      <trkpt lat="56.62857" lon="22.34539" />
      <trkpt lat="56.62862" lon="22.34537" />
      <trkpt lat="56.62868" lon="22.34534" />
      <trkpt lat="56.62873" lon="22.34531" />
      <trkpt lat="56.62879" lon="22.34528" />
      <trkpt lat="56.62885" lon="22.34525" />
      <trkpt lat="56.6289" lon="22.34522" />
      <trkpt lat="56.62896" lon="22.3452" />
      <trkpt lat="56.62901" lon="22.34518" />
      <trkpt lat="56.62906" lon="22.34516" />
      <trkpt lat="56.62911" lon="22.34513" />
      <trkpt lat="56.62916" lon="22.3451" />
      <trkpt lat="56.62921" lon="22.34506" />
      <trkpt lat="56.62926" lon="22.34503" />
      <trkpt lat="56.62931" lon="22.34499" />
      <trkpt lat="56.62936" lon="22.34494" />
      <trkpt lat="56.62941" lon="22.34489" />
      <trkpt lat="56.62945" lon="22.34485" />
      <trkpt lat="56.62949" lon="22.34478" />
      <trkpt lat="56.62954" lon="22.34474" />
      <trkpt lat="56.62958" lon="22.34469" />
      <trkpt lat="56.62961" lon="22.34464" />
      <trkpt lat="56.62965" lon="22.34458" />
      <trkpt lat="56.62969" lon="22.34453" />
      <trkpt lat="56.62973" lon="22.34448" />
      <trkpt lat="56.62977" lon="22.34445" />
      <trkpt lat="56.62982" lon="22.34442" />
      <trkpt lat="56.62986" lon="22.34436" />
      <trkpt lat="56.62991" lon="22.34429" />
      <trkpt lat="56.62994" lon="22.34423" />
      <trkpt lat="56.62998" lon="22.34418" />
      <trkpt lat="56.63002" lon="22.34413" />
      <trkpt lat="56.63006" lon="22.34407" />
      <trkpt lat="56.6301" lon="22.34402" />
      <trkpt lat="56.63013" lon="22.34397" />
      <trkpt lat="56.63017" lon="22.34392" />
      <trkpt lat="56.63021" lon="22.34387" />
      <trkpt lat="56.63026" lon="22.34383" />
      <trkpt lat="56.63031" lon="22.3438" />
      <trkpt lat="56.63035" lon="22.34376" />
      <trkpt lat="56.63039" lon="22.34371" />
      <trkpt lat="56.63042" lon="22.34366" />
      <trkpt lat="56.63046" lon="22.3436" />
      <trkpt lat="56.63049" lon="22.34354" />
      <trkpt lat="56.63054" lon="22.34347" />
      <trkpt lat="56.63058" lon="22.3434" />
      <trkpt lat="56.63062" lon="22.34333" />
      <trkpt lat="56.63067" lon="22.34326" />
      <trkpt lat="56.63071" lon="22.34319" />
      <trkpt lat="56.63075" lon="22.34312" />
      <trkpt lat="56.63079" lon="22.34305" />
      <trkpt lat="56.63083" lon="22.34301" />
      <trkpt lat="56.63087" lon="22.34295" />
      <trkpt lat="56.63092" lon="22.34289" />
      <trkpt lat="56.63096" lon="22.34285" />
      <trkpt lat="56.631" lon="22.34278" />
      <trkpt lat="56.63104" lon="22.3427" />
      <trkpt lat="56.63108" lon="22.34264" />
      <trkpt lat="56.63113" lon="22.3426" />
      <trkpt lat="56.63117" lon="22.34255" />
      <trkpt lat="56.63121" lon="22.34249" />
      <trkpt lat="56.63127" lon="22.34244" />
      <trkpt lat="56.6313" lon="22.34239" />
      <trkpt lat="56.63135" lon="22.34232" />
      <trkpt lat="56.63138" lon="22.34225" />
      <trkpt lat="56.63142" lon="22.34217" />
      <trkpt lat="56.63146" lon="22.34209" />
      <trkpt lat="56.6315" lon="22.34204" />
      <trkpt lat="56.63155" lon="22.34198" />
      <trkpt lat="56.63158" lon="22.34192" />
      <trkpt lat="56.63161" lon="22.34186" />
      <trkpt lat="56.63164" lon="22.34178" />
      <trkpt lat="56.63167" lon="22.34169" />
      <trkpt lat="56.63171" lon="22.34161" />
      <trkpt lat="56.63174" lon="22.34154" />
      <trkpt lat="56.63177" lon="22.34146" />
      <trkpt lat="56.63182" lon="22.34142" />
      <trkpt lat="56.63188" lon="22.34138" />
      <trkpt lat="56.63192" lon="22.34131" />
      <trkpt lat="56.63196" lon="22.34124" />
      <trkpt lat="56.632" lon="22.34119" />
      <trkpt lat="56.63205" lon="22.34114" />
      <trkpt lat="56.63209" lon="22.34107" />
      <trkpt lat="56.63213" lon="22.341" />
      <trkpt lat="56.63215" lon="22.34093" />
      <trkpt lat="56.63219" lon="22.34087" />
      <trkpt lat="56.63223" lon="22.3408" />
      <trkpt lat="56.63226" lon="22.34072" />
      <trkpt lat="56.63231" lon="22.34065" />
      <trkpt lat="56.63235" lon="22.34058" />
      <trkpt lat="56.6324" lon="22.34053" />
      <trkpt lat="56.63244" lon="22.34048" />
      <trkpt lat="56.63249" lon="22.34042" />
      <trkpt lat="56.63253" lon="22.34037" />
      <trkpt lat="56.63257" lon="22.34033" />
      <trkpt lat="56.63262" lon="22.34029" />
      <trkpt lat="56.63266" lon="22.34022" />
      <trkpt lat="56.6327" lon="22.34016" />
      <trkpt lat="56.63274" lon="22.3401" />
      <trkpt lat="56.63278" lon="22.34005" />
      <trkpt lat="56.63282" lon="22.33999" />
      <trkpt lat="56.63286" lon="22.33994" />
      <trkpt lat="56.6329" lon="22.33989" />
      <trkpt lat="56.63293" lon="22.33983" />
      <trkpt lat="56.63298" lon="22.33977" />
      <trkpt lat="56.63303" lon="22.33972" />
      <trkpt lat="56.63307" lon="22.33966" />
      <trkpt lat="56.63311" lon="22.33961" />
      <trkpt lat="56.63315" lon="22.33955" />
      <trkpt lat="56.63319" lon="22.3395" />
      <trkpt lat="56.63324" lon="22.33945" />
      <trkpt lat="56.63329" lon="22.33938" />
      <trkpt lat="56.63333" lon="22.33931" />
      <trkpt lat="56.63338" lon="22.33925" />
      <trkpt lat="56.63342" lon="22.3392" />
      <trkpt lat="56.63346" lon="22.33913" />
      <trkpt lat="56.63351" lon="22.33908" />
      <trkpt lat="56.63356" lon="22.33902" />
      <trkpt lat="56.6336" lon="22.33898" />
      <trkpt lat="56.63364" lon="22.33891" />
      <trkpt lat="56.63368" lon="22.33885" />
      <trkpt lat="56.63372" lon="22.33879" />
      <trkpt lat="56.63375" lon="22.3387" />
      <trkpt lat="56.63378" lon="22.33862" />
      <trkpt lat="56.63382" lon="22.33856" />
      <trkpt lat="56.63385" lon="22.33848" />
      <trkpt lat="56.63389" lon="22.33842" />
      <trkpt lat="56.63392" lon="22.33835" />
      <trkpt lat="56.63395" lon="22.33829" />
      <trkpt lat="56.63401" lon="22.33824" />
      <trkpt lat="56.63406" lon="22.3382" />
      <trkpt lat="56.63411" lon="22.33814" />
      <trkpt lat="56.63415" lon="22.33808" />
      <trkpt lat="56.63419" lon="22.33803" />
      <trkpt lat="56.63422" lon="22.33797" />
      <trkpt lat="56.63426" lon="22.33791" />
      <trkpt lat="56.6343" lon="22.33784" />
      <trkpt lat="56.63434" lon="22.33779" />
      <trkpt lat="56.63439" lon="22.33777" />
      <trkpt lat="56.63436" lon="22.33771" />
      <trkpt lat="56.63439" lon="22.33764" />
      <trkpt lat="56.63444" lon="22.33759" />
      <trkpt lat="56.63448" lon="22.33754" />
      <trkpt lat="56.63452" lon="22.33748" />
      <trkpt lat="56.63456" lon="22.33742" />
      <trkpt lat="56.6346" lon="22.33736" />
      <trkpt lat="56.63463" lon="22.33729" />
      <trkpt lat="56.63467" lon="22.33722" />
      <trkpt lat="56.63471" lon="22.33716" />
      <trkpt lat="56.63476" lon="22.33712" />
      <trkpt lat="56.6348" lon="22.33708" />
      <trkpt lat="56.63484" lon="22.33703" />
      <trkpt lat="56.63487" lon="22.33697" />
      <trkpt lat="56.63491" lon="22.3369" />
      <trkpt lat="56.63494" lon="22.33684" />
      <trkpt lat="56.63499" lon="22.33678" />
      <trkpt lat="56.63502" lon="22.33672" />
      <trkpt lat="56.63505" lon="22.33664" />
      <trkpt lat="56.63509" lon="22.33657" />
      <trkpt lat="56.63512" lon="22.33649" />
      <trkpt lat="56.63515" lon="22.33641" />
      <trkpt lat="56.6352" lon="22.33631" />
      <trkpt lat="56.63525" lon="22.33624" />
      <trkpt lat="56.63529" lon="22.33617" />
      <trkpt lat="56.63533" lon="22.33612" />
      <trkpt lat="56.63537" lon="22.33606" />
      <trkpt lat="56.6354" lon="22.336" />
      <trkpt lat="56.63544" lon="22.33595" />
      <trkpt lat="56.63548" lon="22.3359" />
      <trkpt lat="56.63552" lon="22.33585" />
      <trkpt lat="56.63557" lon="22.33579" />
      <trkpt lat="56.6356" lon="22.33573" />
      <trkpt lat="56.63564" lon="22.33567" />
      <trkpt lat="56.63568" lon="22.33561" />
      <trkpt lat="56.63572" lon="22.33556" />
      <trkpt lat="56.63576" lon="22.3355" />
      <trkpt lat="56.63579" lon="22.33543" />
      <trkpt lat="56.63583" lon="22.33538" />
      <trkpt lat="56.63587" lon="22.33532" />
      <trkpt lat="56.6359" lon="22.33526" />
      <trkpt lat="56.63594" lon="22.33521" />
      <trkpt lat="56.63597" lon="22.33514" />
      <trkpt lat="56.63601" lon="22.33508" />
      <trkpt lat="56.63605" lon="22.33503" />
      <trkpt lat="56.63609" lon="22.33496" />
      <trkpt lat="56.63613" lon="22.3349" />
      <trkpt lat="56.63617" lon="22.33485" />
      <trkpt lat="56.63621" lon="22.33479" />
      <trkpt lat="56.63625" lon="22.33473" />
      <trkpt lat="56.6363" lon="22.33469" />
      <trkpt lat="56.63634" lon="22.33466" />
      <trkpt lat="56.63639" lon="22.33463" />
      <trkpt lat="56.63643" lon="22.33461" />
      <trkpt lat="56.63648" lon="22.33459" />
      <trkpt lat="56.63653" lon="22.33458" />
      <trkpt lat="56.63657" lon="22.33456" />
      <trkpt lat="56.63663" lon="22.33454" />
      <trkpt lat="56.63668" lon="22.33452" />
      <trkpt lat="56.63673" lon="22.33451" />
      <trkpt lat="56.63678" lon="22.33449" />
      <trkpt lat="56.63683" lon="22.33447" />
      <trkpt lat="56.63688" lon="22.33445" />
      <trkpt lat="56.63692" lon="22.33443" />
      <trkpt lat="56.63698" lon="22.33441" />
      <trkpt lat="56.63702" lon="22.33441" />
      <trkpt lat="56.63707" lon="22.33439" />
      <trkpt lat="56.63712" lon="22.33436" />
      <trkpt lat="56.63717" lon="22.33435" />
      <trkpt lat="56.63721" lon="22.33438" />
      <trkpt lat="56.63722" lon="22.33447" />
      <trkpt lat="56.63724" lon="22.33456" />
      <trkpt lat="56.63728" lon="22.33457" />
      <trkpt lat="56.63725" lon="22.33457" />
      <trkpt lat="56.63728" lon="22.33457" />
      <trkpt lat="56.63731" lon="22.33453" />
      <trkpt lat="56.63728" lon="22.33459" />
      <trkpt lat="56.63724" lon="22.33455" />
      <trkpt lat="56.63722" lon="22.33447" />
      <trkpt lat="56.6372" lon="22.33438" />
      <trkpt lat="56.63726" lon="22.33428" />
      <trkpt lat="56.6373" lon="22.33425" />
      <trkpt lat="56.63735" lon="22.33422" />
      <trkpt lat="56.6374" lon="22.33418" />
      <trkpt lat="56.63738" lon="22.33426" />
      <trkpt lat="56.63733" lon="22.33428" />
      <trkpt lat="56.63729" lon="22.3343" />
      <trkpt lat="56.63724" lon="22.33432" />
      <trkpt lat="56.63719" lon="22.33435" />
      <trkpt lat="56.63713" lon="22.33437" />
      <trkpt lat="56.63709" lon="22.33439" />
      <trkpt lat="56.63704" lon="22.3344" />
      <trkpt lat="56.63699" lon="22.33441" />
      <trkpt lat="56.63694" lon="22.33443" />
      <trkpt lat="56.63689" lon="22.33446" />
      <trkpt lat="56.63683" lon="22.33449" />
      <trkpt lat="56.63679" lon="22.33449" />
      <trkpt lat="56.63674" lon="22.33448" />
      <trkpt lat="56.63669" lon="22.33452" />
      <trkpt lat="56.63664" lon="22.33454" />
      <trkpt lat="56.63659" lon="22.33455" />
      <trkpt lat="56.63654" lon="22.33457" />
      <trkpt lat="56.63649" lon="22.33459" />
      <trkpt lat="56.63645" lon="22.3346" />
      <trkpt lat="56.6364" lon="22.33463" />
      <trkpt lat="56.63645" lon="22.33462" />
      <trkpt lat="56.6365" lon="22.3346" />
      <trkpt lat="56.63654" lon="22.33458" />
      <trkpt lat="56.63659" lon="22.33455" />
      <trkpt lat="56.63664" lon="22.33454" />
      <trkpt lat="56.6367" lon="22.33452" />
      <trkpt lat="56.63676" lon="22.3345" />
      <trkpt lat="56.63682" lon="22.33448" />
      <trkpt lat="56.63689" lon="22.33446" />
      <trkpt lat="56.63695" lon="22.33443" />
      <trkpt lat="56.63701" lon="22.33441" />
      <trkpt lat="56.63707" lon="22.3344" />
      <trkpt lat="56.63713" lon="22.33438" />
      <trkpt lat="56.63718" lon="22.33437" />
      <trkpt lat="56.63722" lon="22.33445" />
      <trkpt lat="56.63723" lon="22.33455" />
      <trkpt lat="56.63728" lon="22.33459" />
      <trkpt lat="56.63728" lon="22.33454" />
      <trkpt lat="56.63723" lon="22.33449" />
      <trkpt lat="56.63721" lon="22.33439" />
      <trkpt lat="56.63716" lon="22.33435" />
      <trkpt lat="56.63711" lon="22.33435" />
      <trkpt lat="56.63707" lon="22.33437" />
      <trkpt lat="56.63701" lon="22.33439" />
      <trkpt lat="56.63695" lon="22.33441" />
      <trkpt lat="56.6369" lon="22.33443" />
      <trkpt lat="56.63684" lon="22.33445" />
      <trkpt lat="56.63679" lon="22.33447" />
      <trkpt lat="56.63674" lon="22.33448" />
      <trkpt lat="56.63668" lon="22.3345" />
      <trkpt lat="56.63663" lon="22.33452" />
      <trkpt lat="56.63658" lon="22.33454" />
      <trkpt lat="56.63652" lon="22.33457" />
      <trkpt lat="56.63648" lon="22.33459" />
      <trkpt lat="56.63643" lon="22.3346" />
      <trkpt lat="56.63639" lon="22.33462" />
      <trkpt lat="56.63633" lon="22.33464" />
      <trkpt lat="56.63627" lon="22.33466" />
      <trkpt lat="56.63622" lon="22.33469" />
      <trkpt lat="56.63617" lon="22.3347" />
      <trkpt lat="56.63614" lon="22.33479" />
      <trkpt lat="56.63612" lon="22.33487" />
      <trkpt lat="56.63609" lon="22.33494" />
      <trkpt lat="56.63605" lon="22.335" />
      <trkpt lat="56.63601" lon="22.33508" />
      <trkpt lat="56.63597" lon="22.33514" />
      <trkpt lat="56.63593" lon="22.3352" />
      <trkpt lat="56.6359" lon="22.33528" />
      <trkpt lat="56.63586" lon="22.33536" />
      <trkpt lat="56.63583" lon="22.33542" />
      <trkpt lat="56.63579" lon="22.33547" />
      <trkpt lat="56.63574" lon="22.3355" />
      <trkpt lat="56.6357" lon="22.33556" />
      <trkpt lat="56.63566" lon="22.33562" />
      <trkpt lat="56.63562" lon="22.33567" />
      <trkpt lat="56.63559" lon="22.33574" />
      <trkpt lat="56.63555" lon="22.33581" />
      <trkpt lat="56.63551" lon="22.33588" />
      <trkpt lat="56.63547" lon="22.33595" />
      <trkpt lat="56.63544" lon="22.33602" />
      <trkpt lat="56.6354" lon="22.33609" />
      <trkpt lat="56.63537" lon="22.33615" />
      <trkpt lat="56.63533" lon="22.33621" />
      <trkpt lat="56.6353" lon="22.33628" />
      <trkpt lat="56.63526" lon="22.33634" />
      <trkpt lat="56.63522" lon="22.33638" />
      <trkpt lat="56.63518" lon="22.33645" />
      <trkpt lat="56.63514" lon="22.3365" />
      <trkpt lat="56.6351" lon="22.33656" />
      <trkpt lat="56.63506" lon="22.33662" />
      <trkpt lat="56.63503" lon="22.33669" />
      <trkpt lat="56.63499" lon="22.33675" />
      <trkpt lat="56.63496" lon="22.33681" />
      <trkpt lat="56.63492" lon="22.33687" />
      <trkpt lat="56.63487" lon="22.33693" />
      <trkpt lat="56.63483" lon="22.337" />
      <trkpt lat="56.63479" lon="22.33707" />
      <trkpt lat="56.63474" lon="22.33713" />
      <trkpt lat="56.63469" lon="22.33718" />
      <trkpt lat="56.63466" lon="22.33722" />
      <trkpt lat="56.63461" lon="22.33726" />
      <trkpt lat="56.6346" lon="22.33731" />
      <trkpt lat="56.63456" lon="22.33735" />
      <trkpt lat="56.63452" lon="22.33741" />
      <trkpt lat="56.63448" lon="22.33748" />
      <trkpt lat="56.63444" lon="22.33755" />
      <trkpt lat="56.6344" lon="22.33761" />
      <trkpt lat="56.63437" lon="22.33769" />
      <trkpt lat="56.63433" lon="22.33776" />
      <trkpt lat="56.63429" lon="22.33781" />
      <trkpt lat="56.63425" lon="22.33787" />
      <trkpt lat="56.63421" lon="22.33794" />
      <trkpt lat="56.63418" lon="22.338" />
      <trkpt lat="56.63413" lon="22.33806" />
      <trkpt lat="56.6341" lon="22.33811" />
      <trkpt lat="56.63406" lon="22.33817" />
      <trkpt lat="56.63403" lon="22.33824" />
      <trkpt lat="56.634" lon="22.3383" />
      <trkpt lat="56.63396" lon="22.33836" />
      <trkpt lat="56.63393" lon="22.33842" />
      <trkpt lat="56.63389" lon="22.33849" />
      <trkpt lat="56.63385" lon="22.33856" />
      <trkpt lat="56.63382" lon="22.33862" />
      <trkpt lat="56.63379" lon="22.33869" />
      <trkpt lat="56.63375" lon="22.33876" />
      <trkpt lat="56.63371" lon="22.33883" />
      <trkpt lat="56.63368" lon="22.33888" />
      <trkpt lat="56.63364" lon="22.33893" />
      <trkpt lat="56.6336" lon="22.339" />
      <trkpt lat="56.63356" lon="22.33905" />
      <trkpt lat="56.63351" lon="22.33908" />
      <trkpt lat="56.63347" lon="22.33912" />
      <trkpt lat="56.63344" lon="22.33914" />
      <trkpt lat="56.63341" lon="22.3392" />
      <trkpt lat="56.63336" lon="22.33926" />
      <trkpt lat="56.63332" lon="22.33932" />
      <trkpt lat="56.63327" lon="22.33938" />
      <trkpt lat="56.63323" lon="22.33945" />
      <trkpt lat="56.63318" lon="22.33951" />
      <trkpt lat="56.63314" lon="22.33957" />
      <trkpt lat="56.63311" lon="22.33964" />
      <trkpt lat="56.6331" lon="22.33973" />
      <trkpt lat="56.6331" lon="22.33982" />
      <trkpt lat="56.63312" lon="22.33991" />
      <trkpt lat="56.63315" lon="22.33999" />
      <trkpt lat="56.63317" lon="22.34006" />
      <trkpt lat="56.6332" lon="22.34014" />
      <trkpt lat="56.63322" lon="22.34022" />
      <trkpt lat="56.63324" lon="22.3403" />
      <trkpt lat="56.63327" lon="22.34037" />
      <trkpt lat="56.63331" lon="22.34044" />
      <trkpt lat="56.63336" lon="22.34051" />
      <trkpt lat="56.6334" lon="22.34057" />
      <trkpt lat="56.63345" lon="22.34063" />
      <trkpt lat="56.63348" lon="22.3407" />
      <trkpt lat="56.6335" lon="22.34077" />
      <trkpt lat="56.63349" lon="22.34067" />
      <trkpt lat="56.63351" lon="22.34059" />
      <trkpt lat="56.63347" lon="22.34059" />
      <trkpt lat="56.63342" lon="22.34056" />
      <trkpt lat="56.63337" lon="22.34053" />
      <trkpt lat="56.63333" lon="22.34048" />
      <trkpt lat="56.63329" lon="22.34041" />
      <trkpt lat="56.63326" lon="22.34033" />
      <trkpt lat="56.63322" lon="22.34025" />
      <trkpt lat="56.63319" lon="22.34016" />
      <trkpt lat="56.63316" lon="22.34008" />
      <trkpt lat="56.63313" lon="22.34" />
      <trkpt lat="56.63311" lon="22.33992" />
      <trkpt lat="56.63307" lon="22.33985" />
      <trkpt lat="56.63303" lon="22.33981" />
      <trkpt lat="56.63298" lon="22.33981" />
      <trkpt lat="56.63294" lon="22.33985" />
      <trkpt lat="56.6329" lon="22.3399" />
      <trkpt lat="56.63287" lon="22.33997" />
      <trkpt lat="56.63284" lon="22.34003" />
      <trkpt lat="56.6328" lon="22.34009" />
      <trkpt lat="56.63276" lon="22.34013" />
      <trkpt lat="56.63271" lon="22.34014" />
      <trkpt lat="56.63266" lon="22.34017" />
      <trkpt lat="56.63262" lon="22.34022" />
      <trkpt lat="56.63257" lon="22.34028" />
      <trkpt lat="56.63253" lon="22.34034" />
      <trkpt lat="56.63249" lon="22.3404" />
      <trkpt lat="56.63245" lon="22.34046" />
      <trkpt lat="56.63241" lon="22.34052" />
      <trkpt lat="56.63236" lon="22.34057" />
      <trkpt lat="56.63232" lon="22.34062" />
      <trkpt lat="56.63228" lon="22.34067" />
      <trkpt lat="56.63225" lon="22.34073" />
      <trkpt lat="56.63222" lon="22.3408" />
      <trkpt lat="56.63219" lon="22.34087" />
      <trkpt lat="56.63216" lon="22.34094" />
      <trkpt lat="56.63212" lon="22.341" />
      <trkpt lat="56.63208" lon="22.34106" />
      <trkpt lat="56.63203" lon="22.34111" />
      <trkpt lat="56.63199" lon="22.34116" />
      <trkpt lat="56.63196" lon="22.34123" />
      <trkpt lat="56.63192" lon="22.34131" />
      <trkpt lat="56.63189" lon="22.34139" />
      <trkpt lat="56.63185" lon="22.34145" />
      <trkpt lat="56.63182" lon="22.34151" />
      <trkpt lat="56.63178" lon="22.34157" />
      <trkpt lat="56.63175" lon="22.34163" />
      <trkpt lat="56.63172" lon="22.34171" />
      <trkpt lat="56.63169" lon="22.34177" />
      <trkpt lat="56.63166" lon="22.34183" />
      <trkpt lat="56.63162" lon="22.34191" />
      <trkpt lat="56.63158" lon="22.34197" />
      <trkpt lat="56.63155" lon="22.34202" />
      <trkpt lat="56.6315" lon="22.34205" />
      <trkpt lat="56.63145" lon="22.34204" />
      <trkpt lat="56.63141" lon="22.3421" />
      <trkpt lat="56.63141" lon="22.3422" />
      <trkpt lat="56.63138" lon="22.34228" />
      <trkpt lat="56.63135" lon="22.34234" />
      <trkpt lat="56.63131" lon="22.34239" />
      <trkpt lat="56.63126" lon="22.34245" />
      <trkpt lat="56.63123" lon="22.34251" />
      <trkpt lat="56.63119" lon="22.34257" />
      <trkpt lat="56.63115" lon="22.34262" />
      <trkpt lat="56.6311" lon="22.34268" />
      <trkpt lat="56.63106" lon="22.34274" />
      <trkpt lat="56.63102" lon="22.34279" />
      <trkpt lat="56.63098" lon="22.34286" />
      <trkpt lat="56.63093" lon="22.34292" />
      <trkpt lat="56.63089" lon="22.34296" />
      <trkpt lat="56.63084" lon="22.34302" />
      <trkpt lat="56.6308" lon="22.34307" />
      <trkpt lat="56.63076" lon="22.34313" />
      <trkpt lat="56.63072" lon="22.34319" />
      <trkpt lat="56.63067" lon="22.34325" />
      <trkpt lat="56.63063" lon="22.3433" />
      <trkpt lat="56.63059" lon="22.34336" />
      <trkpt lat="56.63055" lon="22.3434" />
      <trkpt lat="56.63051" lon="22.34345" />
      <trkpt lat="56.63046" lon="22.34351" />
      <trkpt lat="56.63041" lon="22.34356" />
      <trkpt lat="56.63037" lon="22.34362" />
      <trkpt lat="56.63032" lon="22.34369" />
      <trkpt lat="56.63027" lon="22.34375" />
      <trkpt lat="56.63024" lon="22.34381" />
      <trkpt lat="56.6302" lon="22.34384" />
      <trkpt lat="56.63015" lon="22.3439" />
      <trkpt lat="56.63011" lon="22.34396" />
      <trkpt lat="56.63008" lon="22.34402" />
      <trkpt lat="56.63003" lon="22.34408" />
      <trkpt lat="56.62999" lon="22.34413" />
      <trkpt lat="56.62995" lon="22.3442" />
      <trkpt lat="56.6299" lon="22.34426" />
      <trkpt lat="56.62986" lon="22.34431" />
      <trkpt lat="56.62982" lon="22.34437" />
      <trkpt lat="56.62978" lon="22.34443" />
      <trkpt lat="56.62974" lon="22.34449" />
      <trkpt lat="56.6297" lon="22.34455" />
      <trkpt lat="56.62965" lon="22.3446" />
      <trkpt lat="56.62961" lon="22.34466" />
      <trkpt lat="56.62957" lon="22.34471" />
      <trkpt lat="56.62953" lon="22.34476" />
      <trkpt lat="56.62948" lon="22.34482" />
      <trkpt lat="56.62945" lon="22.34488" />
      <trkpt lat="56.62945" lon="22.34496" />
      <trkpt lat="56.6294" lon="22.345" />
      <trkpt lat="56.62935" lon="22.34501" />
      <trkpt lat="56.6293" lon="22.34503" />
      <trkpt lat="56.62925" lon="22.34506" />
      <trkpt lat="56.62921" lon="22.3451" />
      <trkpt lat="56.62916" lon="22.34513" />
      <trkpt lat="56.62911" lon="22.34516" />
      <trkpt lat="56.62906" lon="22.34519" />
      <trkpt lat="56.629" lon="22.34522" />
      <trkpt lat="56.62894" lon="22.34523" />
      <trkpt lat="56.6289" lon="22.34525" />
      <trkpt lat="56.62885" lon="22.34527" />
      <trkpt lat="56.6288" lon="22.34527" />
      <trkpt lat="56.62875" lon="22.34529" />
      <trkpt lat="56.6287" lon="22.34532" />
      <trkpt lat="56.62865" lon="22.34535" />
      <trkpt lat="56.6286" lon="22.34538" />
      <trkpt lat="56.62855" lon="22.34542" />
      <trkpt lat="56.62849" lon="22.34545" />
      <trkpt lat="56.62844" lon="22.34547" />
      <trkpt lat="56.62839" lon="22.34548" />
      <trkpt lat="56.62834" lon="22.34551" />
      <trkpt lat="56.62829" lon="22.34554" />
      <trkpt lat="56.62825" lon="22.34557" />
      <trkpt lat="56.6282" lon="22.3456" />
      <trkpt lat="56.62816" lon="22.34563" />
      <trkpt lat="56.62811" lon="22.34567" />
      <trkpt lat="56.62806" lon="22.34571" />
      <trkpt lat="56.62801" lon="22.34574" />
      <trkpt lat="56.62795" lon="22.34577" />
      <trkpt lat="56.6279" lon="22.34579" />
      <trkpt lat="56.62784" lon="22.34582" />
      <trkpt lat="56.6278" lon="22.34587" />
      <trkpt lat="56.62775" lon="22.34593" />
      <trkpt lat="56.62771" lon="22.346" />
      <trkpt lat="56.62768" lon="22.34608" />
      <trkpt lat="56.62765" lon="22.34615" />
      <trkpt lat="56.62763" lon="22.34608" />
      <trkpt lat="56.62766" lon="22.34616" />
      <trkpt lat="56.62766" lon="22.34624" />
      <trkpt lat="56.62764" lon="22.34634" />
      <trkpt lat="56.62762" lon="22.34644" />
      <trkpt lat="56.6276" lon="22.34654" />
      <trkpt lat="56.62758" lon="22.34663" />
      <trkpt lat="56.62757" lon="22.34672" />
      <trkpt lat="56.62755" lon="22.34679" />
      <trkpt lat="56.62754" lon="22.34689" />
      <trkpt lat="56.62752" lon="22.34699" />
      <trkpt lat="56.6275" lon="22.34709" />
      <trkpt lat="56.62748" lon="22.34719" />
      <trkpt lat="56.62745" lon="22.34725" />
      <trkpt lat="56.62745" lon="22.34735" />
      <trkpt lat="56.62742" lon="22.34744" />
      <trkpt lat="56.6274" lon="22.34751" />
      <trkpt lat="56.62738" lon="22.3476" />
      <trkpt lat="56.62736" lon="22.34768" />
      <trkpt lat="56.62734" lon="22.34775" />
      <trkpt lat="56.62732" lon="22.34783" />
      <trkpt lat="56.6273" lon="22.3479" />
      <trkpt lat="56.62728" lon="22.34798" />
      <trkpt lat="56.62725" lon="22.34807" />
      <trkpt lat="56.62724" lon="22.34816" />
      <trkpt lat="56.62728" lon="22.34819" />
      <trkpt lat="56.62734" lon="22.34818" />
      <trkpt lat="56.62728" lon="22.34818" />
      <trkpt lat="56.62724" lon="22.34823" />
      <trkpt lat="56.62721" lon="22.3483" />
      <trkpt lat="56.6272" lon="22.3484" />
      <trkpt lat="56.62722" lon="22.34848" />
      <trkpt lat="56.62726" lon="22.34852" />
      <trkpt lat="56.62725" lon="22.34861" />
      <trkpt lat="56.62724" lon="22.3487" />
      <trkpt lat="56.62726" lon="22.34878" />
      <trkpt lat="56.62727" lon="22.34887" />
      <trkpt lat="56.62728" lon="22.34896" />
      <trkpt lat="56.6273" lon="22.34904" />
      <trkpt lat="56.62733" lon="22.34913" />
      <trkpt lat="56.62735" lon="22.3492" />
      <trkpt lat="56.62738" lon="22.34927" />
      <trkpt lat="56.6274" lon="22.34935" />
      <trkpt lat="56.62741" lon="22.34946" />
      <trkpt lat="56.62736" lon="22.34944" />
      <trkpt lat="56.62741" lon="22.34948" />
      <trkpt lat="56.62742" lon="22.34956" />
      <trkpt lat="56.62744" lon="22.34966" />
      <trkpt lat="56.62744" lon="22.34975" />
      <trkpt lat="56.62746" lon="22.34983" />
      <trkpt lat="56.62751" lon="22.34986" />
    </trkseg>
  </trk>
</gpx>