<?xml version="1.0" encoding="UTF-8"?>
<gpx version="1.1" creator="HighKeer Route Generator"
  xmlns="http://www.topografix.com/GPX/1/1">
  <metadata>
    <name>Caminho do Carteiro</name>
    <time>2024-06-20T08:52:38Z</time>
  </metadata>
  <trk>
    <name>Caminho do Carteiro</name>
    <trkseg>
      <trkpt lat="40.86186" lon="-8.19894">
        <ele>201.4</ele>
        <time>2024-06-20T08:52:38Z</time>
      </trkpt>
      <trkpt lat="40.861956" lon="-8.198852">
        <ele>200.9</ele>
        <time>2024-06-20T08:52:45Z</time>
      </trkpt>
      <trkpt lat="40.862012" lon="-8.1988">
        <ele>201.3</ele>
        <time>2024-06-20T08:52:51Z</time>
      </trkpt>
      <trkpt lat="40.861998" lon="-8.198824">
        <ele>200.2</ele>
        <time>2024-06-20T08:52:58Z</time>
      </trkpt>
      <trkpt lat="40.862062" lon="-8.198742">
        <ele>200.4</ele>
        <time>2024-06-20T08:53:04Z</time>
      </trkpt>
      <trkpt lat="40.862045" lon="-8.198721">
        <ele>199.1</ele>
        <time>2024-06-20T08:53:09Z</time>
      </trkpt>
      <trkpt lat="40.862056" lon="-8.19859">
        <ele>200.1</ele>
        <time>2024-06-20T08:53:16Z</time>
      </trkpt>
      <trkpt lat="40.862104" lon="-8.198561">
        <ele>201.2</ele>
        <time>2024-06-20T08:53:19Z</time>
      </trkpt>
      <trkpt lat="40.862142" lon="-8.198561">
        <ele>201.7</ele>
        <time>2024-06-20T08:53:25Z</time>
      </trkpt>
      <trkpt lat="40.862182" lon="-8.198464">
        <ele>202.1</ele>
        <time>2024-06-20T08:53:32Z</time>
      </trkpt>
      <trkpt lat="40.862195" lon="-8.198374">
        <ele>203.5</ele>
        <time>2024-06-20T08:53:39Z</time>
      </trkpt>
      <trkpt lat="40.862248" lon="-8.198366">
        <ele>203.7</ele>
        <time>2024-06-20T08:53:44Z</time>
      </trkpt>
      <trkpt lat="40.862314" lon="-8.198308">
        <ele>204.7</ele>
        <time>2024-06-20T08:53:50Z</time>
      </trkpt>
      <trkpt lat="40.862339" lon="-8.198251">
        <ele>204.2</ele>
        <time>2024-06-20T08:53:54Z</time>
      </trkpt>
      <trkpt lat="40.862408" lon="-8.198321">
        <ele>203.2</ele>
        <time>2024-06-20T08:54:00Z</time>
      </trkpt>
      <trkpt lat="40.862355" lon="-8.198286">
        <ele>201.7</ele>
        <time>2024-06-20T08:54:08Z</time>
      </trkpt>
      <trkpt lat="40.862432" lon="-8.198212">
        <ele>200.7</ele>
        <time>2024-06-20T08:54:11Z</time>
      </trkpt>
      <trkpt lat="40.862519" lon="-8.198195">
        <ele>200.8</ele>
        <time>2024-06-20T08:54:16Z</time>
      </trkpt>
      <trkpt lat="40.862481" lon="-8.198133">
        <ele>201.6</ele>
        <time>2024-06-20T08:54:21Z</time>
      </trkpt>
      <trkpt lat="40.862496" lon="-8.198006">
        <ele>203.0</ele>
        <time>2024-06-20T08:54:27Z</time>
      </trkpt>
      <trkpt lat="40.862597" lon="-8.197953">
        <ele>202.9</ele>
        <time>2024-06-20T08:54:33Z</time>
      </trkpt>
      <trkpt lat="40.862585" lon="-8.197874">
        <ele>203.3</ele>
        <time>2024-06-20T08:54:39Z</time>
      </trkpt>
      <trkpt lat="40.862578" lon="-8.197759">
        <ele>204.1</ele>
        <time>2024-06-20T08:54:43Z</time>
      </trkpt>
      <trkpt lat="40.862531" lon="-8.19758">
        <ele>204.6</ele>
        <time>2024-06-20T08:54:48Z</time>
      </trkpt>
      <trkpt lat="40.862472" lon="-8.19754">
        <ele>203.6</ele>
        <time>2024-06-20T08:54:52Z</time>
      </trkpt>
      <trkpt lat="40.862431" lon="-8.197383">
        <ele>203.8</ele>
        <time>2024-06-20T08:54:58Z</time>
      </trkpt>
      <trkpt lat="40.862491" lon="-8.197342">
        <ele>203.4</ele>
        <time>2024-06-20T08:55:06Z</time>
      </trkpt>
      <trkpt lat="40.862464" lon="-8.197087">
        <ele>203.2</ele>
        <time>2024-06-20T08:55:13Z</time>
      </trkpt>
      <trkpt lat="40.862447" lon="-8.196814">
        <ele>201.9</ele>
        <time>2024-06-20T08:55:17Z</time>
      </trkpt>
      <trkpt lat="40.862411" lon="-8.196618">
        <ele>202.3</ele>
        <time>2024-06-20T08:55:22Z</time>
      </trkpt>
      <trkpt lat="40.862418" lon="-8.196513">
        <ele>201.0</ele>
        <time>2024-06-20T08:55:27Z</time>
      </trkpt>
      <trkpt lat="40.862372" lon="-8.196431">
        <ele>200.5</ele>
        <time>2024-06-20T08:55:33Z</time>
      </trkpt>
      <trkpt lat="40.862388" lon="-8.196264">
        <ele>200.8</ele>
        <time>2024-06-20T08:55:40Z</time>
      </trkpt>
      <trkpt lat="40.862313" lon="-8.196088">
        <ele>200.1</ele>
        <time>2024-06-20T08:55:46Z</time>
      </trkpt>
      <trkpt lat="40.862284" lon="-8.195969">
        <ele>199.3</ele>
        <time>2024-06-20T08:55:52Z</time>
      </trkpt>
      <trkpt lat="40.862297" lon="-8.195652">
        <ele>199.8</ele>
        <time>2024-06-20T08:55:56Z</time>
      </trkpt>
      <trkpt lat="40.862324" lon="-8.19537">
        <ele>199.3</ele>
        <time>2024-06-20T08:56:02Z</time>
      </trkpt>
      <trkpt lat="40.862347" lon="-8.195207">
        <ele>200.1</ele>
        <time>2024-06-20T08:56:09Z</time>
      </trkpt>
      <trkpt lat="40.862236" lon="-8.195003">
        <ele>200.8</ele>
        <time>2024-06-20T08:56:14Z</time>
      </trkpt>
      <trkpt lat="40.862269" lon="-8.194737">
        <ele>199.6</ele>
        <time>2024-06-20T08:56:19Z</time>
      </trkpt>
      <trkpt lat="40.862129" lon="-8.194564">
        <ele>198.6</ele>
        <time>2024-06-20T08:56:25Z</time>
      </trkpt>
      <trkpt lat="40.862098" lon="-8.194556">
        <ele>198.4</ele>
        <time>2024-06-20T08:56:28Z</time>
      </trkpt>
      <trkpt lat="40.861857" lon="-8.194484">
        <ele>197.9</ele>
        <time>2024-06-20T08:56:34Z</time>
      </trkpt>
      <trkpt lat="40.861766" lon="-8.194464">
        <ele>198.5</ele>
        <time>2024-06-20T08:56:38Z</time>
      </trkpt>
      <trkpt lat="40.861661" lon="-8.194552">
        <ele>198.9</ele>
        <time>2024-06-20T08:56:42Z</time>
      </trkpt>
      <trkpt lat="40.861579" lon="-8.194525">
        <ele>200.1</ele>
        <time>2024-06-20T08:56:46Z</time>
      </trkpt>
      <trkpt lat="40.861496" lon="-8.194678">
        <ele>199.0</ele>
        <time>2024-06-20T08:56:54Z</time>
      </trkpt>
      <trkpt lat="40.861521" lon="-8.194783">
        <ele>198.8</ele>
        <time>2024-06-20T08:57:00Z</time>
      </trkpt>
      <trkpt lat="40.861542" lon="-8.194923">
        <ele>197.7</ele>
        <time>2024-06-20T08:57:06Z</time>
      </trkpt>
      <trkpt lat="40.861382" lon="-8.194962">
        <ele>197.6</ele>
        <time>2024-06-20T08:57:10Z</time>
      </trkpt>
      <trkpt lat="40.86129" lon="-8.194819">
        <ele>199.0</ele>
        <time>2024-06-20T08:57:14Z</time>
      </trkpt>
      <trkpt lat="40.86129" lon="-8.194592">
        <ele>198.3</ele>
        <time>2024-06-20T08:57:19Z</time>
      </trkpt>
      <trkpt lat="40.861212" lon="-8.19426">
        <ele>198.0</ele>
        <time>2024-06-20T08:57:25Z</time>
      </trkpt>
      <trkpt lat="40.861108" lon="-8.194269">
        <ele>199.3</ele>
        <time>2024-06-20T08:57:29Z</time>
      </trkpt>
      <trkpt lat="40.860895" lon="-8.194288">
        <ele>200.6</ele>
        <time>2024-06-20T08:57:34Z</time>
      </trkpt>
      <trkpt lat="40.860705" lon="-8.194122">
        <ele>200.9</ele>
        <time>2024-06-20T08:57:40Z</time>
      </trkpt>
      <trkpt lat="40.860578" lon="-8.194049">
        <ele>200.9</ele>
        <time>2024-06-20T08:57:45Z</time>
      </trkpt>
      <trkpt lat="40.860421" lon="-8.193961">
        <ele>199.5</ele>
        <time>2024-06-20T08:57:52Z</time>
      </trkpt>
      <trkpt lat="40.860354" lon="-8.193901">
        <ele>200.3</ele>
        <time>2024-06-20T08:57:57Z</time>
      </trkpt>
      <trkpt lat="40.860316" lon="-8.193943">
        <ele>199.0</ele>
        <time>2024-06-20T08:58:03Z</time>
      </trkpt>
      <trkpt lat="40.860256" lon="-8.194015">
        <ele>199.6</ele>
        <time>2024-06-20T08:58:08Z</time>
      </trkpt>
      <trkpt lat="40.860138" lon="-8.193993">
        <ele>198.3</ele>
        <time>2024-06-20T08:58:12Z</time>
      </trkpt>
      <trkpt lat="40.860177" lon="-8.193903">
        <ele>199.4</ele>
        <time>2024-06-20T08:58:15Z</time>
      </trkpt>
      <trkpt lat="40.86019" lon="-8.193843">
        <ele>199.5</ele>
        <time>2024-06-20T08:58:21Z</time>
      </trkpt>
      <trkpt lat="40.860233" lon="-8.193733">
        <ele>198.1</ele>
        <time>2024-06-20T08:58:26Z</time>
      </trkpt>
      <trkpt lat="40.86021" lon="-8.193732">
        <ele>199.2</ele>
        <time>2024-06-20T08:58:32Z</time>
      </trkpt>
      <trkpt lat="40.860209" lon="-8.193526">
        <ele>198.0</ele>
        <time>2024-06-20T08:58:35Z</time>
      </trkpt>
      <trkpt lat="40.860038" lon="-8.193654">
        <ele>197.1</ele>
        <time>2024-06-20T08:58:40Z</time>
      </trkpt>
      <trkpt lat="40.859996" lon="-8.193607">
        <ele>198.4</ele>
        <time>2024-06-20T08:58:45Z</time>
      </trkpt>
      <trkpt lat="40.85993" lon="-8.193663">
        <ele>199.7</ele>
        <time>2024-06-20T08:58:50Z</time>
      </trkpt>
      <trkpt lat="40.859916" lon="-8.193455">
        <ele>199.8</ele>
        <time>2024-06-20T08:58:55Z</time>
      </trkpt>
      <trkpt lat="40.860029" lon="-8.193258">
        <ele>200.3</ele>
        <time>2024-06-20T08:59:01Z</time>
      </trkpt>
      <trkpt lat="40.859943" lon="-8.193146">
        <ele>199.1</ele>
        <time>2024-06-20T08:59:05Z</time>
      </trkpt>
      <trkpt lat="40.859887" lon="-8.19305">
        <ele>200.5</ele>
        <time>2024-06-20T08:59:10Z</time>
      </trkpt>
      <trkpt lat="40.859895" lon="-8.192904">
        <ele>201.3</ele>
        <time>2024-06-20T08:59:16Z</time>
      </trkpt>
      <trkpt lat="40.859877" lon="-8.192818">
        <ele>202.7</ele>
        <time>2024-06-20T08:59:22Z</time>
      </trkpt>
      <trkpt lat="40.859803" lon="-8.192835">
        <ele>203.0</ele>
        <time>2024-06-20T08:59:27Z</time>
      </trkpt>
      <trkpt lat="40.85961" lon="-8.192654">
        <ele>202.0</ele>
        <time>2024-06-20T08:59:30Z</time>
      </trkpt>
      <trkpt lat="40.859404" lon="-8.192631">
        <ele>201.5</ele>
        <time>2024-06-20T08:59:33Z</time>
      </trkpt>
      <trkpt lat="40.8593" lon="-8.192596">
        <ele>201.4</ele>
        <time>2024-06-20T08:59:41Z</time>
      </trkpt>
      <trkpt lat="40.859152" lon="-8.192436">
        <ele>200.2</ele>
        <time>2024-06-20T08:59:48Z</time>
      </trkpt>
      <trkpt lat="40.859023" lon="-8.192297">
        <ele>199.7</ele>
        <time>2024-06-20T08:59:52Z</time>
      </trkpt>
      <trkpt lat="40.858871" lon="-8.19221">
        <ele>198.3</ele>
        <time>2024-06-20T09:00:00Z</time>
      </trkpt>
      <trkpt lat="40.858889" lon="-8.192125">
        <ele>197.7</ele>
        <time>2024-06-20T09:00:04Z</time>
      </trkpt>
      <trkpt lat="40.858752" lon="-8.191792">
        <ele>198.8</ele>
        <time>2024-06-20T09:00:08Z</time>
      </trkpt>
      <trkpt lat="40.858775" lon="-8.191647">
        <ele>199.3</ele>
        <time>2024-06-20T09:00:13Z</time>
      </trkpt>
      <trkpt lat="40.858834" lon="-8.191575">
        <ele>200.8</ele>
        <time>2024-06-20T09:00:20Z</time>
      </trkpt>
      <trkpt lat="40.85893" lon="-8.191422">
        <ele>202.4</ele>
        <time>2024-06-20T09:00:26Z</time>
      </trkpt>
      <trkpt lat="40.859096" lon="-8.191278">
        <ele>202.1</ele>
        <time>2024-06-20T09:00:31Z</time>
      </trkpt>
      <trkpt lat="40.859213" lon="-8.191037">
        <ele>202.7</ele>
        <time>2024-06-20T09:00:35Z</time>
      </trkpt>
      <trkpt lat="40.859086" lon="-8.190791">
        <ele>201.9</ele>
        <time>2024-06-20T09:00:41Z</time>
      </trkpt>
      <trkpt lat="40.859072" lon="-8.19056">
        <ele>202.8</ele>
        <time>2024-06-20T09:00:46Z</time>
      </trkpt>
      <trkpt lat="40.858965" lon="-8.190209">
        <ele>202.9</ele>
        <time>2024-06-20T09:00:51Z</time>
      </trkpt>
      <trkpt lat="40.85894" lon="-8.190211">
        <ele>204.3</ele>
        <time>2024-06-20T09:00:57Z</time>
      </trkpt>
      <trkpt lat="40.859023" lon="-8.190185">
        <ele>203.1</ele>
        <time>2024-06-20T09:01:01Z</time>
      </trkpt>
      <trkpt lat="40.859032" lon="-8.190095">
        <ele>203.4</ele>
        <time>2024-06-20T09:01:06Z</time>
      </trkpt>
      <trkpt lat="40.859155" lon="-8.189863">
        <ele>203.4</ele>
        <time>2024-06-20T09:01:11Z</time>
      </trkpt>
      <trkpt lat="40.859179" lon="-8.189582">
        <ele>202.7</ele>
        <time>2024-06-20T09:01:17Z</time>
      </trkpt>
      <trkpt lat="40.859248" lon="-8.189412">
        <ele>203.6</ele>
        <time>2024-06-20T09:01:25Z</time>
      </trkpt>
      <trkpt lat="40.859341" lon="-8.189268">
        <ele>203.3</ele>
        <time>2024-06-20T09:01:30Z</time>
      </trkpt>
      <trkpt lat="40.859244" lon="-8.18911">
        <ele>203.2</ele>
        <time>2024-06-20T09:01:34Z</time>
      </trkpt>
      <trkpt lat="40.859187" lon="-8.189124">
        <ele>203.1</ele>
        <time>2024-06-20T09:01:38Z</time>
      </trkpt>
      <trkpt lat="40.85912" lon="-8.189079">
        <ele>203.3</ele>
        <time>2024-06-20T09:01:46Z</time>
      </trkpt>
      <trkpt lat="40.85895" lon="-8.188845">
        <ele>204.3</ele>
        <time>2024-06-20T09:01:51Z</time>
      </trkpt>
      <trkpt lat="40.85841" lon="-8.18832">
        <ele>204.5</ele>
        <time>2024-06-20T09:01:54Z</time>
      </trkpt>
      <trkpt lat="40.85831" lon="-8.188294">
        <ele>203.7</ele>
        <time>2024-06-20T09:01:57Z</time>
      </trkpt>
      <trkpt lat="40.858218" lon="-8.188341">
        <ele>204.7</ele>
        <time>2024-06-20T09:02:03Z</time>
      </trkpt>
      <trkpt lat="40.857932" lon="-8.18819">
        <ele>205.6</ele>
        <time>2024-06-20T09:02:08Z</time>
      </trkpt>
      <trkpt lat="40.857898" lon="-8.188252">
        <ele>206.5</ele>
        <time>2024-06-20T09:02:13Z</time>
      </trkpt>
      <trkpt lat="40.857591" lon="-8.188217">
        <ele>205.3</ele>
        <time>2024-06-20T09:02:20Z</time>
      </trkpt>
      <trkpt lat="40.857232" lon="-8.188093">
        <ele>205.5</ele>
        <time>2024-06-20T09:02:23Z</time>
      </trkpt>
      <trkpt lat="40.859271" lon="-8.189272">
        <ele>206.4</ele>
        <time>2024-06-20T09:02:28Z</time>
      </trkpt>
      <trkpt lat="40.859295" lon="-8.189331">
        <ele>206.0</ele>
        <time>2024-06-20T09:02:32Z</time>
      </trkpt>
      <trkpt lat="40.859474" lon="-8.189457">
        <ele>205.1</ele>
        <time>2024-06-20T09:02:35Z</time>
      </trkpt>
      <trkpt lat="40.859552" lon="-8.189509">
        <ele>206.0</ele>
        <time>2024-06-20T09:02:42Z</time>
      </trkpt>
      <trkpt lat="40.85968" lon="-8.189314">
        <ele>206.3</ele>
        <time>2024-06-20T09:02:49Z</time>
      </trkpt>
      <trkpt lat="40.860046" lon="-8.188624">
        <ele>205.8</ele>
        <time>2024-06-20T09:02:53Z</time>
      </trkpt>
      <trkpt lat="40.86009" lon="-8.188351">
        <ele>204.9</ele>
        <time>2024-06-20T09:02:58Z</time>
      </trkpt>
      <trkpt lat="40.860183" lon="-8.188209">
        <ele>204.1</ele>
        <time>2024-06-20T09:03:01Z</time>
      </trkpt>
      <trkpt lat="40.860251" lon="-8.18808">
        <ele>204.8</ele>
        <time>2024-06-20T09:03:05Z</time>
      </trkpt>
      <trkpt lat="40.86031" lon="-8.1881">
        <ele>205.9</ele>
        <time>2024-06-20T09:03:10Z</time>
      </trkpt>
      <trkpt lat="40.860485" lon="-8.188067">
        <ele>206.5</ele>
        <time>2024-06-20T09:03:17Z</time>
      </trkpt>
      <trkpt lat="40.860629" lon="-8.188103">
        <ele>207.1</ele>
        <time>2024-06-20T09:03:22Z</time>
      </trkpt>
      <trkpt lat="40.860753" lon="-8.188209">
        <ele>207.2</ele>
        <time>2024-06-20T09:03:30Z</time>
      </trkpt>
      <trkpt lat="40.860852" lon="-8.188314">
        <ele>207.9</ele>
        <time>2024-06-20T09:03:36Z</time>
      </trkpt>
      <trkpt lat="40.86115" lon="-8.18847">
        <ele>208.3</ele>
        <time>2024-06-20T09:03:42Z</time>
      </trkpt>
      <trkpt lat="40.861282" lon="-8.188597">
        <ele>209.4</ele>
        <time>2024-06-20T09:03:48Z</time>
      </trkpt>
      <trkpt lat="40.861356" lon="-8.188695">
        <ele>210.5</ele>
        <time>2024-06-20T09:03:55Z</time>
      </trkpt>
      <trkpt lat="40.861455" lon="-8.188869">
        <ele>211.7</ele>
        <time>2024-06-20T09:04:01Z</time>
      </trkpt>
      <trkpt lat="40.861645" lon="-8.188976">
        <ele>211.8</ele>
        <time>2024-06-20T09:04:05Z</time>
      </trkpt>
      <trkpt lat="40.861749" lon="-8.188927">
        <ele>212.8</ele>
        <time>2024-06-20T09:04:09Z</time>
      </trkpt>
      <trkpt lat="40.861776" lon="-8.18888">
        <ele>212.1</ele>
        <time>2024-06-20T09:04:15Z</time>
      </trkpt>
      <trkpt lat="40.861828" lon="-8.188722">
        <ele>212.1</ele>
        <time>2024-06-20T09:04:21Z</time>
      </trkpt>
      <trkpt lat="40.861865" lon="-8.188568">
        <ele>213.6</ele>
        <time>2024-06-20T09:04:24Z</time>
      </trkpt>
      <trkpt lat="40.861798" lon="-8.188279">
        <ele>213.0</ele>
        <time>2024-06-20T09:04:30Z</time>
      </trkpt>
      <trkpt lat="40.861774" lon="-8.188162">
        <ele>212.1</ele>
        <time>2024-06-20T09:04:35Z</time>
      </trkpt>
      <trkpt lat="40.861856" lon="-8.187946">
        <ele>211.6</ele>
        <time>2024-06-20T09:04:39Z</time>
      </trkpt>
      <trkpt lat="40.861821" lon="-8.187658">
        <ele>212.7</ele>
        <time>2024-06-20T09:04:46Z</time>
      </trkpt>
      <trkpt lat="40.86182" lon="-8.187582">
        <ele>212.9</ele>
        <time>2024-06-20T09:04:49Z</time>
      </trkpt>
      <trkpt lat="40.861901" lon="-8.187622">
        <ele>211.7</ele>
        <time>2024-06-20T09:04:52Z</time>
      </trkpt>
      <trkpt lat="40.862051" lon="-8.187599">
        <ele>212.0</ele>
        <time>2024-06-20T09:04:56Z</time>
      </trkpt>
      <trkpt lat="40.862105" lon="-8.187748">
        <ele>211.4</ele>
        <time>2024-06-20T09:05:02Z</time>
      </trkpt>
      <trkpt lat="40.862192" lon="-8.187821">
        <ele>211.4</ele>
        <time>2024-06-20T09:05:10Z</time>
      </trkpt>
      <trkpt lat="40.862379" lon="-8.187958">
        <ele>212.9</ele>
        <time>2024-06-20T09:05:15Z</time>
      </trkpt>
      <trkpt lat="40.862365" lon="-8.188143">
        <ele>212.9</ele>
        <time>2024-06-20T09:05:22Z</time>
      </trkpt>
      <trkpt lat="40.862436" lon="-8.188235">
        <ele>212.4</ele>
        <time>2024-06-20T09:05:28Z</time>
      </trkpt>
      <trkpt lat="40.86258" lon="-8.188355">
        <ele>211.8</ele>
        <time>2024-06-20T09:05:33Z</time>
      </trkpt>
      <trkpt lat="40.862691" lon="-8.188436">
        <ele>211.1</ele>
        <time>2024-06-20T09:05:39Z</time>
      </trkpt>
      <trkpt lat="40.862899" lon="-8.188421">
        <ele>211.9</ele>
        <time>2024-06-20T09:05:44Z</time>
      </trkpt>
      <trkpt lat="40.862967" lon="-8.18837">
        <ele>210.5</ele>
        <time>2024-06-20T09:05:47Z</time>
      </trkpt>
      <trkpt lat="40.863062" lon="-8.18834">
        <ele>211.1</ele>
        <time>2024-06-20T09:05:51Z</time>
      </trkpt>
      <trkpt lat="40.863207" lon="-8.188309">
        <ele>211.3</ele>
        <time>2024-06-20T09:05:55Z</time>
      </trkpt>
      <trkpt lat="40.863413" lon="-8.188296">
        <ele>210.5</ele>
        <time>2024-06-20T09:05:59Z</time>
      </trkpt>
      <trkpt lat="40.863492" lon="-8.188334">
        <ele>211.1</ele>
        <time>2024-06-20T09:06:03Z</time>
      </trkpt>
      <trkpt lat="40.863495" lon="-8.188225">
        <ele>211.9</ele>
        <time>2024-06-20T09:06:06Z</time>
      </trkpt>
      <trkpt lat="40.863572" lon="-8.188319">
        <ele>211.5</ele>
        <time>2024-06-20T09:06:12Z</time>
      </trkpt>
      <trkpt lat="40.863603" lon="-8.18834">
        <ele>212.0</ele>
        <time>2024-06-20T09:06:16Z</time>
      </trkpt>
      <trkpt lat="40.863742" lon="-8.188396">
        <ele>213.0</ele>
        <time>2024-06-20T09:06:23Z</time>
      </trkpt>
      <trkpt lat="40.863829" lon="-8.188532">
        <ele>213.7</ele>
        <time>2024-06-20T09:06:30Z</time>
      </trkpt>
      <trkpt lat="40.863815" lon="-8.18855">
        <ele>214.0</ele>
        <time>2024-06-20T09:06:34Z</time>
      </trkpt>
      <trkpt lat="40.863938" lon="-8.188661">
        <ele>213.8</ele>
        <time>2024-06-20T09:06:39Z</time>
      </trkpt>
      <trkpt lat="40.864168" lon="-8.188832">
        <ele>215.0</ele>
        <time>2024-06-20T09:06:47Z</time>
      </trkpt>
      <trkpt lat="40.864293" lon="-8.188892">
        <ele>214.0</ele>
        <time>2024-06-20T09:06:52Z</time>
      </trkpt>
      <trkpt lat="40.864388" lon="-8.188854">
        <ele>215.4</ele>
        <time>2024-06-20T09:06:59Z</time>
      </trkpt>
      <trkpt lat="40.864476" lon="-8.188885">
        <ele>214.4</ele>
        <time>2024-06-20T09:07:06Z</time>
      </trkpt>
      <trkpt lat="40.864587" lon="-8.188905">
        <ele>214.0</ele>
        <time>2024-06-20T09:07:09Z</time>
      </trkpt>
      <trkpt lat="40.864604" lon="-8.188912">
        <ele>213.2</ele>
        <time>2024-06-20T09:07:16Z</time>
      </trkpt>
      <trkpt lat="40.864633" lon="-8.188819">
        <ele>212.7</ele>
        <time>2024-06-20T09:07:22Z</time>
      </trkpt>
      <trkpt lat="40.864653" lon="-8.188835">
        <ele>212.3</ele>
        <time>2024-06-20T09:07:26Z</time>
      </trkpt>
      <trkpt lat="40.86482" lon="-8.188799">
        <ele>213.4</ele>
        <time>2024-06-20T09:07:34Z</time>
      </trkpt>
      <trkpt lat="40.864956" lon="-8.188823">
        <ele>212.0</ele>
        <time>2024-06-20T09:07:40Z</time>
      </trkpt>
      <trkpt lat="40.864961" lon="-8.188907">
        <ele>212.1</ele>
        <time>2024-06-20T09:07:44Z</time>
      </trkpt>
      <trkpt lat="40.865048" lon="-8.188902">
        <ele>211.9</ele>
        <time>2024-06-20T09:07:52Z</time>
      </trkpt>
      <trkpt lat="40.865151" lon="-8.188972">
        <ele>213.4</ele>
        <time>2024-06-20T09:08:00Z</time>
      </trkpt>
      <trkpt lat="40.865216" lon="-8.189136">
        <ele>214.5</ele>
        <time>2024-06-20T09:08:04Z</time>
      </trkpt>
      <trkpt lat="40.865447" lon="-8.189355">
        <ele>214.7</ele>
        <time>2024-06-20T09:08:09Z</time>
      </trkpt>
      <trkpt lat="40.865589" lon="-8.189538">
        <ele>214.1</ele>
        <time>2024-06-20T09:08:12Z</time>
      </trkpt>
      <trkpt lat="40.865742" lon="-8.189538">
        <ele>213.3</ele>
        <time>2024-06-20T09:08:15Z</time>
      </trkpt>
      <trkpt lat="40.865862" lon="-8.189636">
        <ele>212.0</ele>
        <time>2024-06-20T09:08:23Z</time>
      </trkpt>
      <trkpt lat="40.866198" lon="-8.189782">
        <ele>213.5</ele>
        <time>2024-06-20T09:08:28Z</time>
      </trkpt>
      <trkpt lat="40.866344" lon="-8.189811">
        <ele>215.0</ele>
        <time>2024-06-20T09:08:32Z</time>
      </trkpt>
      <trkpt lat="40.866425" lon="-8.189718">
        <ele>215.3</ele>
        <time>2024-06-20T09:08:37Z</time>
      </trkpt>
      <trkpt lat="40.866557" lon="-8.189708">
        <ele>216.8</ele>
        <time>2024-06-20T09:08:42Z</time>
      </trkpt>
      <trkpt lat="40.866772" lon="-8.189445">
        <ele>216.5</ele>
        <time>2024-06-20T09:08:46Z</time>
      </trkpt>
      <trkpt lat="40.866936" lon="-8.189203">
        <ele>216.6</ele>
        <time>2024-06-20T09:08:50Z</time>
      </trkpt>
      <trkpt lat="40.866974" lon="-8.18921">
        <ele>217.0</ele>
        <time>2024-06-20T09:08:58Z</time>
      </trkpt>
      <trkpt lat="40.867044" lon="-8.189306">
        <ele>217.9</ele>
        <time>2024-06-20T09:09:04Z</time>
      </trkpt>
      <trkpt lat="40.867086" lon="-8.189471">
        <ele>218.3</ele>
        <time>2024-06-20T09:09:10Z</time>
      </trkpt>
      <trkpt lat="40.867185" lon="-8.189781">
        <ele>219.4</ele>
        <time>2024-06-20T09:09:16Z</time>
      </trkpt>
      <trkpt lat="40.867269" lon="-8.189937">
        <ele>219.6</ele>
        <time>2024-06-20T09:09:23Z</time>
      </trkpt>
      <trkpt lat="40.867384" lon="-8.189993">
        <ele>218.5</ele>
        <time>2024-06-20T09:09:27Z</time>
      </trkpt>
      <trkpt lat="40.867393" lon="-8.190111">
        <ele>218.8</ele>
        <time>2024-06-20T09:09:32Z</time>
      </trkpt>
      <trkpt lat="40.867656" lon="-8.190228">
        <ele>217.9</ele>
        <time>2024-06-20T09:09:36Z</time>
      </trkpt>
      <trkpt lat="40.867981" lon="-8.190473">
        <ele>217.5</ele>
        <time>2024-06-20T09:09:39Z</time>
      </trkpt>
      <trkpt lat="40.868028" lon="-8.190497">
        <ele>218.7</ele>
        <time>2024-06-20T09:09:47Z</time>
      </trkpt>
      <trkpt lat="40.868355" lon="-8.190684">
        <ele>218.3</ele>
        <time>2024-06-20T09:09:50Z</time>
      </trkpt>
      <trkpt lat="40.868316" lon="-8.190719">
        <ele>218.1</ele>
        <time>2024-06-20T09:09:57Z</time>
      </trkpt>
      <trkpt lat="40.868392" lon="-8.190514">
        <ele>216.9</ele>
        <time>2024-06-20T09:10:00Z</time>
      </trkpt>
      <trkpt lat="40.868424" lon="-8.190497">
        <ele>217.8</ele>
        <time>2024-06-20T09:10:07Z</time>
      </trkpt>
      <trkpt lat="40.868455" lon="-8.190557">
        <ele>217.4</ele>
        <time>2024-06-20T09:10:12Z</time>
      </trkpt>
      <trkpt lat="40.86849" lon="-8.190656">
        <ele>218.6</ele>
        <time>2024-06-20T09:10:19Z</time>
      </trkpt>
      <trkpt lat="40.868491" lon="-8.19083">
        <ele>220.2</ele>
        <time>2024-06-20T09:10:22Z</time>
      </trkpt>
      <trkpt lat="40.868481" lon="-8.190932">
        <ele>220.9</ele>
        <time>2024-06-20T09:10:30Z</time>
      </trkpt>
      <trkpt lat="40.868541" lon="-8.190856">
        <ele>221.5</ele>
        <time>2024-06-20T09:10:33Z</time>
      </trkpt>
      <trkpt lat="40.868575" lon="-8.190804">
        <ele>221.7</ele>
        <time>2024-06-20T09:10:39Z</time>
      </trkpt>
      <trkpt lat="40.868661" lon="-8.190779">
        <ele>222.5</ele>
        <time>2024-06-20T09:10:44Z</time>
      </trkpt>
      <trkpt lat="40.868672" lon="-8.190765">
        <ele>221.5</ele>
        <time>2024-06-20T09:10:50Z</time>
      </trkpt>
      <trkpt lat="40.868731" lon="-8.190618">
        <ele>222.5</ele>
        <time>2024-06-20T09:10:56Z</time>
      </trkpt>
      <trkpt lat="40.868823" lon="-8.190443">
        <ele>222.0</ele>
        <time>2024-06-20T09:11:03Z</time>
      </trkpt>
      <trkpt lat="40.86898" lon="-8.190459">
        <ele>221.4</ele>
        <time>2024-06-20T09:11:08Z</time>
      </trkpt>
      <trkpt lat="40.869013" lon="-8.1907">
        <ele>221.6</ele>
        <time>2024-06-20T09:11:13Z</time>
      </trkpt>
      <trkpt lat="40.869084" lon="-8.190819">
        <ele>221.4</ele>
        <time>2024-06-20T09:11:17Z</time>
      </trkpt>
      <trkpt lat="40.869271" lon="-8.190866">
        <ele>222.8</ele>
        <time>2024-06-20T09:11:25Z</time>
      </trkpt>
      <trkpt lat="40.869351" lon="-8.190872">
        <ele>222.3</ele>
        <time>2024-06-20T09:11:32Z</time>
      </trkpt>
      <trkpt lat="40.869503" lon="-8.190822">
        <ele>223.3</ele>
        <time>2024-06-20T09:11:36Z</time>
      </trkpt>
      <trkpt lat="40.86964" lon="-8.190744">
        <ele>224.5</ele>
        <time>2024-06-20T09:11:44Z</time>
      </trkpt>
      <trkpt lat="40.869746" lon="-8.190647">
        <ele>225.1</ele>
        <time>2024-06-20T09:11:50Z</time>
      </trkpt>
      <trkpt lat="40.869874" lon="-8.190572">
        <ele>224.6</ele>
        <time>2024-06-20T09:11:55Z</time>
      </trkpt>
      <trkpt lat="40.870006" lon="-8.190432">
        <ele>225.9</ele>
        <time>2024-06-20T09:12:03Z</time>
      </trkpt>
      <trkpt lat="40.870073" lon="-8.190517">
        <ele>225.2</ele>
        <time>2024-06-20T09:12:08Z</time>
      </trkpt>
      <trkpt lat="40.870164" lon="-8.190613">
        <ele>225.1</ele>
        <time>2024-06-20T09:12:14Z</time>
      </trkpt>
      <trkpt lat="40.870225" lon="-8.19075">
        <ele>223.8</ele>
        <time>2024-06-20T09:12:19Z</time>
      </trkpt>
      <trkpt lat="40.870341" lon="-8.190824">
        <ele>222.5</ele>
        <time>2024-06-20T09:12:22Z</time>
      </trkpt>
      <trkpt lat="40.870446" lon="-8.190862">
        <ele>223.6</ele>
        <time>2024-06-20T09:12:26Z</time>
      </trkpt>
      <trkpt lat="40.870458" lon="-8.190914">
        <ele>224.4</ele>
        <time>2024-06-20T09:12:32Z</time>
      </trkpt>
      <trkpt lat="40.870661" lon="-8.190956">
        <ele>225.9</ele>
        <time>2024-06-20T09:12:39Z</time>
      </trkpt>
      <trkpt lat="40.870789" lon="-8.191134">
        <ele>224.7</ele>
        <time>2024-06-20T09:12:42Z</time>
      </trkpt>
      <trkpt lat="40.870791" lon="-8.19117">
        <ele>225.3</ele>
        <time>2024-06-20T09:12:48Z</time>
      </trkpt>
      <trkpt lat="40.870942" lon="-8.191162">
        <ele>224.0</ele>
        <time>2024-06-20T09:12:54Z</time>
      </trkpt>
      <trkpt lat="40.871052" lon="-8.191002">
        <ele>223.5</ele>
        <time>2024-06-20T09:13:02Z</time>
      </trkpt>
      <trkpt lat="40.871096" lon="-8.19099">
        <ele>224.9</ele>
        <time>2024-06-20T09:13:08Z</time>
      </trkpt>
      <trkpt lat="40.87112" lon="-8.19135">
        <ele>224.1</ele>
        <time>2024-06-20T09:13:15Z</time>
      </trkpt>
      <trkpt lat="40.871197" lon="-8.191502">
        <ele>223.8</ele>
        <time>2024-06-20T09:13:22Z</time>
      </trkpt>
      <trkpt lat="40.871206" lon="-8.191633">
        <ele>223.4</ele>
        <time>2024-06-20T09:13:28Z</time>
      </trkpt>
      <trkpt lat="40.87133" lon="-8.191651">
        <ele>224.5</ele>
        <time>2024-06-20T09:13:33Z</time>
      </trkpt>
      <trkpt lat="40.871381" lon="-8.19165">
        <ele>226.0</ele>
        <time>2024-06-20T09:13:40Z</time>
      </trkpt>
      <trkpt lat="40.871459" lon="-8.191469">
        <ele>225.0</ele>
        <time>2024-06-20T09:13:45Z</time>
      </trkpt>
      <trkpt lat="40.871549" lon="-8.191364">
        <ele>225.3</ele>
        <time>2024-06-20T09:13:52Z</time>
      </trkpt>
      <trkpt lat="40.871662" lon="-8.191158">
        <ele>224.1</ele>
        <time>2024-06-20T09:13:57Z</time>
      </trkpt>
      <trkpt lat="40.871631" lon="-8.190912">
        <ele>224.3</ele>
        <time>2024-06-20T09:14:05Z</time>
      </trkpt>
      <trkpt lat="40.871683" lon="-8.190752">
        <ele>223.6</ele>
        <time>2024-06-20T09:14:13Z</time>
      </trkpt>
      <trkpt lat="40.871692" lon="-8.190761">
        <ele>223.2</ele>
        <time>2024-06-20T09:14:21Z</time>
      </trkpt>
      <trkpt lat="40.871902" lon="-8.190796">
        <ele>222.7</ele>
        <time>2024-06-20T09:14:27Z</time>
      </trkpt>
      <trkpt lat="40.872065" lon="-8.191053">
        <ele>221.7</ele>
        <time>2024-06-20T09:14:31Z</time>
      </trkpt>
      <trkpt lat="40.872231" lon="-8.191014">
        <ele>221.5</ele>
        <time>2024-06-20T09:14:36Z</time>
      </trkpt>
      <trkpt lat="40.87228" lon="-8.190997">
        <ele>223.0</ele>
        <time>2024-06-20T09:14:41Z</time>
      </trkpt>
      <trkpt lat="40.872356" lon="-8.191074">
        <ele>222.9</ele>
        <time>2024-06-20T09:14:46Z</time>
      </trkpt>
      <trkpt lat="40.872623" lon="-8.191091">
        <ele>223.1</ele>
        <time>2024-06-20T09:14:52Z</time>
      </trkpt>
      <trkpt lat="40.872752" lon="-8.190953">
        <ele>221.9</ele>
        <time>2024-06-20T09:14:58Z</time>
      </trkpt>
      <trkpt lat="40.872952" lon="-8.190659">
        <ele>221.0</ele>
        <time>2024-06-20T09:15:03Z</time>
      </trkpt>
      <trkpt lat="40.873106" lon="-8.190528">
        <ele>220.8</ele>
        <time>2024-06-20T09:15:06Z</time>
      </trkpt>
      <trkpt lat="40.873124" lon="-8.190377">
        <ele>219.4</ele>
        <time>2024-06-20T09:15:14Z</time>
      </trkpt>
      <trkpt lat="40.873252" lon="-8.190182">
        <ele>218.7</ele>
        <time>2024-06-20T09:15:17Z</time>
      </trkpt>
      <trkpt lat="40.873271" lon="-8.189998">
        <ele>217.6</ele>
        <time>2024-06-20T09:15:23Z</time>
      </trkpt>
      <trkpt lat="40.873451" lon="-8.189825">
        <ele>216.7</ele>
        <time>2024-06-20T09:15:31Z</time>
      </trkpt>
      <trkpt lat="40.873568" lon="-8.189788">
        <ele>215.6</ele>
        <time>2024-06-20T09:15:34Z</time>
      </trkpt>
      <trkpt lat="40.873743" lon="-8.19013">
        <ele>215.4</ele>
        <time>2024-06-20T09:15:38Z</time>
      </trkpt>
      <trkpt lat="40.873869" lon="-8.190361">
        <ele>214.3</ele>
        <time>2024-06-20T09:15:45Z</time>
      </trkpt>
      <trkpt lat="40.873929" lon="-8.190585">
        <ele>214.9</ele>
        <time>2024-06-20T09:15:52Z</time>
      </trkpt>
      <trkpt lat="40.874077" lon="-8.190666">
        <ele>216.1</ele>
        <time>2024-06-20T09:15:55Z</time>
      </trkpt>
      <trkpt lat="40.874115" lon="-8.190672">
        <ele>215.7</ele>
        <time>2024-06-20T09:16:02Z</time>
      </trkpt>
      <trkpt lat="40.874229" lon="-8.190606">
        <ele>214.6</ele>
        <time>2024-06-20T09:16:07Z</time>
      </trkpt>
      <trkpt lat="40.874334" lon="-8.1905">
        <ele>214.1</ele>
        <time>2024-06-20T09:16:14Z</time>
      </trkpt>
      <trkpt lat="40.874383" lon="-8.1905">
        <ele>213.1</ele>
        <time>2024-06-20T09:16:20Z</time>
      </trkpt>
      <trkpt lat="40.874478" lon="-8.190607">
        <ele>213.7</ele>
        <time>2024-06-20T09:16:27Z</time>
      </trkpt>
      <trkpt lat="40.87476" lon="-8.190766">
        <ele>213.1</ele>
        <time>2024-06-20T09:16:31Z</time>
      </trkpt>
      <trkpt lat="40.874968" lon="-8.190704">
        <ele>213.5</ele>
        <time>2024-06-20T09:16:37Z</time>
      </trkpt>
      <trkpt lat="40.875059" lon="-8.190686">
        <ele>214.4</ele>
        <time>2024-06-20T09:16:41Z</time>
      </trkpt>
      <trkpt lat="40.87514" lon="-8.190671">
        <ele>215.8</ele>
        <time>2024-06-20T09:16:48Z</time>
      </trkpt>
      <trkpt lat="40.875167" lon="-8.190681">
        <ele>215.1</ele>
        <time>2024-06-20T09:16:56Z</time>
      </trkpt>
      <trkpt lat="40.875336" lon="-8.190604">
        <ele>216.0</ele>
        <time>2024-06-20T09:17:01Z</time>
      </trkpt>
      <trkpt lat="40.875693" lon="-8.190694">
        <ele>215.9</ele>
        <time>2024-06-20T09:17:07Z</time>
      </trkpt>
      <trkpt lat="40.875883" lon="-8.190843">
        <ele>215.7</ele>
        <time>2024-06-20T09:17:14Z</time>
      </trkpt>
      <trkpt lat="40.876014" lon="-8.191043">
        <ele>216.7</ele>
        <time>2024-06-20T09:17:20Z</time>
      </trkpt>
      <trkpt lat="40.876138" lon="-8.191207">
        <ele>217.3</ele>
        <time>2024-06-20T09:17:26Z</time>
      </trkpt>
      <trkpt lat="40.876243" lon="-8.191357">
        <ele>216.6</ele>
        <time>2024-06-20T09:17:31Z</time>
      </trkpt>
      <trkpt lat="40.876354" lon="-8.191508">
        <ele>216.8</ele>
        <time>2024-06-20T09:17:38Z</time>
      </trkpt>
      <trkpt lat="40.87648" lon="-8.191709">
        <ele>215.6</ele>
        <time>2024-06-20T09:17:44Z</time>
      </trkpt>
      <trkpt lat="40.876472" lon="-8.191906">
        <ele>215.9</ele>
        <time>2024-06-20T09:17:47Z</time>
      </trkpt>
      <trkpt lat="40.876431" lon="-8.192636">
        <ele>215.9</ele>
        <time>2024-06-20T09:17:52Z</time>
      </trkpt>
      <trkpt lat="40.876521" lon="-8.192766">
        <ele>217.2</ele>
        <time>2024-06-20T09:17:58Z</time>
      </trkpt>
      <trkpt lat="40.876708" lon="-8.192603">
        <ele>216.3</ele>
        <time>2024-06-20T09:18:02Z</time>
      </trkpt>
      <trkpt lat="40.876956" lon="-8.192302">
        <ele>217.8</ele>
        <time>2024-06-20T09:18:07Z</time>
      </trkpt>
      <trkpt lat="40.877261" lon="-8.192228">
        <ele>219.3</ele>
        <time>2024-06-20T09:18:11Z</time>
      </trkpt>
      <trkpt lat="40.87775" lon="-8.191845">
        <ele>220.6</ele>
        <time>2024-06-20T09:18:15Z</time>
      </trkpt>
      <trkpt lat="40.877779" lon="-8.191877">
        <ele>220.6</ele>
        <time>2024-06-20T09:18:21Z</time>
      </trkpt>
      <trkpt lat="40.877904" lon="-8.192655">
        <ele>220.8</ele>
        <time>2024-06-20T09:18:28Z</time>
      </trkpt>
      <trkpt lat="40.878235" lon="-8.193135">
        <ele>221.6</ele>
        <time>2024-06-20T09:18:33Z</time>
      </trkpt>
      <trkpt lat="40.878575" lon="-8.193403">
        <ele>221.0</ele>
        <time>2024-06-20T09:18:37Z</time>
      </trkpt>
      <trkpt lat="40.87862" lon="-8.193458">
        <ele>220.4</ele>
        <time>2024-06-20T09:18:42Z</time>
      </trkpt>
      <trkpt lat="40.878671" lon="-8.193522">
        <ele>220.5</ele>
        <time>2024-06-20T09:18:48Z</time>
      </trkpt>
      <trkpt lat="40.878732" lon="-8.193793">
        <ele>219.3</ele>
        <time>2024-06-20T09:18:55Z</time>
      </trkpt>
      <trkpt lat="40.878699" lon="-8.193976">
        <ele>220.1</ele>
        <time>2024-06-20T09:19:03Z</time>
      </trkpt>
      <trkpt lat="40.878644" lon="-8.194089">
        <ele>221.0</ele>
        <time>2024-06-20T09:19:09Z</time>
      </trkpt>
      <trkpt lat="40.878654" lon="-8.194153">
        <ele>220.6</ele>
        <time>2024-06-20T09:19:15Z</time>
      </trkpt>
      <trkpt lat="40.878561" lon="-8.194269">
        <ele>220.8</ele>
        <time>2024-06-20T09:19:20Z</time>
      </trkpt>
      <trkpt lat="40.878579" lon="-8.194474">
        <ele>220.2</ele>
        <time>2024-06-20T09:19:26Z</time>
      </trkpt>
      <trkpt lat="40.878549" lon="-8.194567">
        <ele>220.8</ele>
        <time>2024-06-20T09:19:29Z</time>
      </trkpt>
      <trkpt lat="40.878465" lon="-8.194637">
        <ele>219.8</ele>
        <time>2024-06-20T09:19:33Z</time>
      </trkpt>
      <trkpt lat="40.878588" lon="-8.194824">
        <ele>221.2</ele>
        <time>2024-06-20T09:19:36Z</time>
      </trkpt>
      <trkpt lat="40.878647" lon="-8.194985">
        <ele>220.6</ele>
        <time>2024-06-20T09:19:42Z</time>
      </trkpt>
      <trkpt lat="40.878755" lon="-8.195036">
        <ele>220.4</ele>
        <time>2024-06-20T09:19:47Z</time>
      </trkpt>
      <trkpt lat="40.878839" lon="-8.195137">
        <ele>219.5</ele>
        <time>2024-06-20T09:19:54Z</time>
      </trkpt>
      <trkpt lat="40.878929" lon="-8.195128">
        <ele>219.5</ele>
        <time>2024-06-20T09:19:58Z</time>
      </trkpt>
      <trkpt lat="40.878938" lon="-8.195134">
        <ele>219.5</ele>
        <time>2024-06-20T09:20:06Z</time>
      </trkpt>
      <trkpt lat="40.878996" lon="-8.195124">
        <ele>220.5</ele>
        <time>2024-06-20T09:20:12Z</time>
      </trkpt>
      <trkpt lat="40.879084" lon="-8.195091">
        <ele>219.6</ele>
        <time>2024-06-20T09:20:17Z</time>
      </trkpt>
      <trkpt lat="40.879081" lon="-8.194997">
        <ele>220.9</ele>
        <time>2024-06-20T09:20:21Z</time>
      </trkpt>
      <trkpt lat="40.878972" lon="-8.194897">
        <ele>220.0</ele>
        <time>2024-06-20T09:20:24Z</time>
      </trkpt>
      <trkpt lat="40.878862" lon="-8.194714">
        <ele>221.3</ele>
        <time>2024-06-20T09:20:28Z</time>
      </trkpt>
      <trkpt lat="40.878869" lon="-8.194709">
        <ele>220.3</ele>
        <time>2024-06-20T09:20:34Z</time>
      </trkpt>
      <trkpt lat="40.878867" lon="-8.194591">
        <ele>218.9</ele>
        <time>2024-06-20T09:20:40Z</time>
      </trkpt>
      <trkpt lat="40.878972" lon="-8.194487">
        <ele>220.5</ele>
        <time>2024-06-20T09:20:47Z</time>
      </trkpt>
      <trkpt lat="40.879027" lon="-8.194256">
        <ele>219.9</ele>
        <time>2024-06-20T09:20:53Z</time>
      </trkpt>
      <trkpt lat="40.879227" lon="-8.194017">
        <ele>220.2</ele>
        <time>2024-06-20T09:20:57Z</time>
      </trkpt>
      <trkpt lat="40.879358" lon="-8.193726">
        <ele>220.7</ele>
        <time>2024-06-20T09:21:02Z</time>
      </trkpt>
      <trkpt lat="40.879419" lon="-8.193585">
        <ele>221.5</ele>
        <time>2024-06-20T09:21:07Z</time>
      </trkpt>
      <trkpt lat="40.87944" lon="-8.19348">
        <ele>220.2</ele>
        <time>2024-06-20T09:21:11Z</time>
      </trkpt>
      <trkpt lat="40.879451" lon="-8.193349">
        <ele>220.6</ele>
        <time>2024-06-20T09:21:14Z</time>
      </trkpt>
      <trkpt lat="40.879393" lon="-8.193248">
        <ele>220.6</ele>
        <time>2024-06-20T09:21:19Z</time>
      </trkpt>
      <trkpt lat="40.87937" lon="-8.193148">
        <ele>220.6</ele>
        <time>2024-06-20T09:21:23Z</time>
      </trkpt>
      <trkpt lat="40.879381" lon="-8.193053">
        <ele>220.8</ele>
        <time>2024-06-20T09:21:30Z</time>
      </trkpt>
      <trkpt lat="40.879337" lon="-8.19298">
        <ele>222.0</ele>
        <time>2024-06-20T09:21:36Z</time>
      </trkpt>
      <trkpt lat="40.879335" lon="-8.192907">
        <ele>221.6</ele>
        <time>2024-06-20T09:21:43Z</time>
      </trkpt>
      <trkpt lat="40.879337" lon="-8.192782">
        <ele>221.4</ele>
        <time>2024-06-20T09:21:46Z</time>
      </trkpt>
      <trkpt lat="40.879417" lon="-8.192738">
        <ele>221.7</ele>
        <time>2024-06-20T09:21:51Z</time>
      </trkpt>
      <trkpt lat="40.879433" lon="-8.192648">
        <ele>221.5</ele>
        <time>2024-06-20T09:21:58Z</time>
      </trkpt>
      <trkpt lat="40.879492" lon="-8.192549">
        <ele>220.6</ele>
        <time>2024-06-20T09:22:02Z</time>
      </trkpt>
      <trkpt lat="40.879714" lon="-8.192578">
        <ele>219.4</ele>
        <time>2024-06-20T09:22:06Z</time>
      </trkpt>
      <trkpt lat="40.879987" lon="-8.192678">
        <ele>219.3</ele>
        <time>2024-06-20T09:22:13Z</time>
      </trkpt>
      <trkpt lat="40.880144" lon="-8.192738">
        <ele>219.7</ele>
        <time>2024-06-20T09:22:21Z</time>
      </trkpt>
      <trkpt lat="40.880406" lon="-8.193016">
        <ele>219.8</ele>
        <time>2024-06-20T09:22:24Z</time>
      </trkpt>
      <trkpt lat="40.881102" lon="-8.193362">
        <ele>220.8</ele>
        <time>2024-06-20T09:22:30Z</time>
      </trkpt>
      <trkpt lat="40.881205" lon="-8.193369">
        <ele>219.7</ele>
        <time>2024-06-20T09:22:35Z</time>
      </trkpt>
      <trkpt lat="40.881213" lon="-8.193318">
        <ele>221.1</ele>
        <time>2024-06-20T09:22:43Z</time>
      </trkpt>
      <trkpt lat="40.881268" lon="-8.19332">
        <ele>221.2</ele>
        <time>2024-06-20T09:22:48Z</time>
      </trkpt>
      <trkpt lat="40.881482" lon="-8.192716">
        <ele>221.0</ele>
        <time>2024-06-20T09:22:53Z</time>
      </trkpt>
      <trkpt lat="40.881549" lon="-8.192128">
        <ele>219.7</ele>
        <time>2024-06-20T09:23:01Z</time>
      </trkpt>
      <trkpt lat="40.881725" lon="-8.191834">
        <ele>218.8</ele>
        <time>2024-06-20T09:23:07Z</time>
      </trkpt>
      <trkpt lat="40.881981" lon="-8.191448">
        <ele>219.4</ele>
        <time>2024-06-20T09:23:12Z</time>
      </trkpt>
      <trkpt lat="40.882132" lon="-8.191104">
        <ele>220.3</ele>
        <time>2024-06-20T09:23:17Z</time>
      </trkpt>
      <trkpt lat="40.882172" lon="-8.190886">
        <ele>219.7</ele>
        <time>2024-06-20T09:23:20Z</time>
      </trkpt>
      <trkpt lat="40.882314" lon="-8.19079">
        <ele>218.5</ele>
        <time>2024-06-20T09:23:26Z</time>
      </trkpt>
      <trkpt lat="40.882491" lon="-8.190861">
        <ele>218.4</ele>
        <time>2024-06-20T09:23:34Z</time>
      </trkpt>
      <trkpt lat="40.882585" lon="-8.191049">
        <ele>218.2</ele>
        <time>2024-06-20T09:23:41Z</time>
      </trkpt>
      <trkpt lat="40.882726" lon="-8.191356">
        <ele>218.9</ele>
        <time>2024-06-20T09:23:46Z</time>
      </trkpt>
      <trkpt lat="40.8829" lon="-8.191339">
        <ele>219.6</ele>
        <time>2024-06-20T09:23:52Z</time>
      </trkpt>
      <trkpt lat="40.882879" lon="-8.191371">
        <ele>218.8</ele>
        <time>2024-06-20T09:23:56Z</time>
      </trkpt>
      <trkpt lat="40.8829" lon="-8.191311">
        <ele>219.6</ele>
        <time>2024-06-20T09:24:02Z</time>
      </trkpt>
      <trkpt lat="40.883032" lon="-8.191133">
        <ele>218.4</ele>
        <time>2024-06-20T09:24:08Z</time>
      </trkpt>
      <trkpt lat="40.883082" lon="-8.190754">
        <ele>217.0</ele>
        <time>2024-06-20T09:24:13Z</time>
      </trkpt>
      <trkpt lat="40.883209" lon="-8.190257">
        <ele>216.8</ele>
        <time>2024-06-20T09:24:18Z</time>
      </trkpt>
      <trkpt lat="40.883501" lon="-8.189713">
        <ele>215.8</ele>
        <time>2024-06-20T09:24:24Z</time>
      </trkpt>
      <trkpt lat="40.883569" lon="-8.189449">
        <ele>217.1</ele>
        <time>2024-06-20T09:24:27Z</time>
      </trkpt>
      <trkpt lat="40.883634" lon="-8.189062">
        <ele>216.5</ele>
        <time>2024-06-20T09:24:33Z</time>
      </trkpt>
      <trkpt lat="40.883711" lon="-8.188605">
        <ele>216.4</ele>
        <time>2024-06-20T09:24:37Z</time>
      </trkpt>
    </trkseg>
  </trk>
</gpx>
